address,city,st,zip,housenum,street,lat,lon
104 ABELIA WAY,EAST PALO ALTO,CA,94303,104,ABELIA WAY,37.45425,-122.12721
107 ABELIA WAY,EAST PALO ALTO,CA,94303,107,ABELIA WAY,37.45441,-122.12757
108 ABELIA WAY,PALO ALTO,CA,94303,108,ABELIA WAY,37.45437,-122.127
111 ABELIA WAY,EAST PALO ALTO,CA,94303,111,ABELIA WAY,37.45454,-122.12747
112 ABELIA WAY,EAST PALO ALTO,CA,94303,112,ABELIA WAY,37.45447,-122.12688
115 ABELIA WAY,EAST PALO ALTO,CA,94303,115,ABELIA WAY,37.45466,-122.12736
124 ABELIA WAY,EAST PALO ALTO,CA,94303,124,ABELIA WAY,37.45489,-122.12671
127 ABELIA WAY,EAST PALO ALTO,CA,94303,127,ABELIA WAY,37.45508,-122.12717
128 ABELIA WAY,EAST PALO ALTO,CA,94303,128,ABELIA WAY,37.45503,-122.12667
132 ABELIA WAY,EAST PALO ALTO,CA,94303,132,ABELIA WAY,37.45517,-122.12667
140 ABELIA WAY,PALO ALTO,CA,94303,140,ABELIA WAY,37.45545,-122.12666
143 ABELIA WAY,EAST PALO ALTO,CA,94303,143,ABELIA WAY,37.45563,-122.12717
144 ABELIA WAY,EAST PALO ALTO,CA,94303,144,ABELIA WAY,37.45558,-122.12666
148 ABELIA WAY,EAST PALO ALTO,CA,94303,148,ABELIA WAY,37.45572,-122.12664
160 ABELIA WAY,EAST PALO ALTO,CA,94303,160,ABELIA WAY,37.45613,-122.12664
2060 ADDISON AVE,EAST PALO ALTO,CA,94303,2060,ADDISON AVE,37.46407,-122.14879
2061 ADDISON AVE,EAST PALO ALTO,CA,94303,2061,ADDISON AVE,37.4641,-122.14925
2078 ADDISON AVE,EAST PALO ALTO,CA,94303,2078,ADDISON AVE,37.46421,-122.14875
2085 ADDISON AVE,EAST PALO ALTO,CA,94303,2085,ADDISON AVE,37.46426,-122.14929
2093 ADDISON AVE,EAST PALO ALTO,CA,94303,2093,ADDISON AVE,37.46445,-122.14908
2118 ADDISON AVE,EAST PALO ALTO,CA,94303,2118,ADDISON AVE,37.46552,-122.14822
2120 ADDISON AVE,EAST PALO ALTO,CA,94303,2120,ADDISON AVE,37.46563,-122.14826
2135 ADDISON AVE,EAST PALO ALTO,CA,94303,2135,ADDISON AVE,37.46585,-122.14868
2136 ADDISON AVE,EAST PALO ALTO,CA,94303,2136,ADDISON AVE,37.46606,-122.14816
2155 ADDISON AVE,EAST PALO ALTO,CA,94303,2155,ADDISON AVE,37.4662,-122.14855
2161 ADDISON AVE,EAST PALO ALTO,CA,94303,2161,ADDISON AVE,37.46639,-122.14852
2165 ADDISON AVE,EAST PALO ALTO,CA,94303,2165,ADDISON AVE,37.46654,-122.14853
2169 ADDISON AVE,EAST PALO ALTO,CA,94303,2169,ADDISON AVE,37.46663,-122.14844
2175 ADDISON AVE,EAST PALO ALTO,CA,94303,2175,ADDISON AVE,37.46681,-122.14841
2181 ADDISON AVE,EAST PALO ALTO,CA,94303,2181,ADDISON AVE,37.46693,-122.14844
2187 ADDISON AVE,EAST PALO ALTO,CA,94303,2187,ADDISON AVE,37.46708,-122.14836
2205 ADDISON AVE,EAST PALO ALTO,CA,94303,2205,ADDISON AVE,37.46771,-122.14825
2208 ADDISON AVE,PALO ALTO,CA,94303,2208,ADDISON AVE,37.46767,-122.14776
2209 ADDISON AVE,EAST PALO ALTO,CA,94303,2209,ADDISON AVE,37.4679,-122.14818
2212 ADDISON AVE,PALO ALTO,CA,94303,2212,ADDISON AVE,37.46781,-122.14776
2213 ADDISON AVE,EAST PALO ALTO,CA,94303,2213,ADDISON AVE,37.46811,-122.14816
2215 ADDISON AVE,EAST PALO ALTO,CA,94303,2215,ADDISON AVE,37.46821,-122.14812
2218 ADDISON AVE,EAST PALO ALTO,CA,94303,2218,ADDISON AVE,37.46796,-122.1477
2222 ADDISON AVE,EAST PALO ALTO,CA,94303,2222,ADDISON AVE,37.46808,-122.1477
2226 ADDISON AVE,EAST PALO ALTO,CA,94303,2226,ADDISON AVE,37.46822,-122.14765
2229 ADDISON AVE,EAST PALO ALTO,CA,94303,2229,ADDISON AVE,37.4687,-122.14801
2230 ADDISON AVE,EAST PALO ALTO,CA,94303,2230,ADDISON AVE,37.46835,-122.14762
2231 ADDISON AVE,EAST PALO ALTO,CA,94303,2231,ADDISON AVE,37.46883,-122.14798
2234 ADDISON AVE,EAST PALO ALTO,CA,94303,2234,ADDISON AVE,37.46849,-122.14759
2248 ADDISON AVE,EAST PALO ALTO,CA,94303,2248,ADDISON AVE,37.46889,-122.14748
2252 ADDISON AVE,EAST PALO ALTO,CA,94303,2252,ADDISON AVE,37.46904,-122.14747
2253 ADDISON AVE,EAST PALO ALTO,CA,94303,2253,ADDISON AVE,37.46922,-122.14786
2256 ADDISON AVE,PALO ALTO,CA,94303,2256,ADDISON AVE,37.46916,-122.14741
2257 ADDISON AVE,EAST PALO ALTO,CA,94303,2257,ADDISON AVE,37.46948,-122.14781
2259 ADDISON AVE,EAST PALO ALTO,CA,94303,2259,ADDISON AVE,37.46966,-122.14779
2266 ADDISON AVE,EAST PALO ALTO,CA,94303,2266,ADDISON AVE,37.46945,-122.14737
2268 ADDISON AVE,EAST PALO ALTO,CA,94303,2268,ADDISON AVE,37.46956,-122.1473
2269 ADDISON AVE,EAST PALO ALTO,CA,94303,2269,ADDISON AVE,37.46981,-122.1478
2280 ADDISON AVE,EAST PALO ALTO,CA,94303,2280,ADDISON AVE,37.46969,-122.14727
2284 ADDISON AVE,EAST PALO ALTO,CA,94303,2284,ADDISON AVE,37.46987,-122.14726
2286 ADDISON AVE,EAST PALO ALTO,CA,94303,2286,ADDISON AVE,37.47004,-122.14724
2288 ADDISON AVE,EAST PALO ALTO,CA,94303,2288,ADDISON AVE,37.47018,-122.14722
2292 ADDISON AVE,EAST PALO ALTO,CA,94303,2292,ADDISON AVE,37.47031,-122.14718
25 ALMOND CT,EAST PALO ALTO,CA,94303,25,ALMOND CT,37.46387,-122.13318
521 ASPEN PL,EAST PALO ALTO,CA,94303,521,ASPEN PL,37.47158,-122.1317
522 ASPEN PL,EAST PALO ALTO,CA,94303,522,ASPEN PL,37.47176,-122.1315
523 ASPEN PL,EAST PALO ALTO,CA,94303,523,ASPEN PL,37.47167,-122.13175
526 ASPEN PL,EAST PALO ALTO,CA,94303,526,ASPEN PL,37.47185,-122.13155
528 ASPEN PL,EAST PALO ALTO,CA,94303,528,ASPEN PL,37.47194,-122.1316
529 ASPEN PL,EAST PALO ALTO,CA,94303,529,ASPEN PL,37.47185,-122.13185
530 ASPEN PL,EAST PALO ALTO,CA,94303,530,ASPEN PL,37.47202,-122.13165
107 ASTER WAY,EAST PALO ALTO,CA,94303,107,ASTER WAY,37.4542,-122.12515
108 ASTER WAY,EAST PALO ALTO,CA,94303,108,ASTER WAY,37.45387,-122.12478
115 ASTER WAY,EAST PALO ALTO,CA,94303,115,ASTER WAY,37.45449,-122.12525
116 ASTER WAY,EAST PALO ALTO,CA,94303,116,ASTER WAY,37.45416,-122.12465
119 ASTER WAY,EAST PALO ALTO,CA,94303,119,ASTER WAY,37.45465,-122.12526
120 ASTER WAY,EAST PALO ALTO,CA,94303,120,ASTER WAY,37.45432,-122.12468
127 ASTER WAY,PALO ALTO,CA,94303,127,ASTER WAY,37.45492,-122.12534
131 ASTER WAY,PALO ALTO,CA,94303,131,ASTER WAY,37.45505,-122.12539
135 ASTER WAY,EAST PALO ALTO,CA,94303,135,ASTER WAY,37.45519,-122.12544
136 ASTER WAY,EAST PALO ALTO,CA,94303,136,ASTER WAY,37.45486,-122.12482
147 ASTER WAY,EAST PALO ALTO,CA,94303,147,ASTER WAY,37.45565,-122.12531
148 ASTER WAY,EAST PALO ALTO,CA,94303,148,ASTER WAY,37.45527,-122.12494
151 ASTER WAY,EAST PALO ALTO,CA,94303,151,ASTER WAY,37.45579,-122.1252
155 ASTER WAY,EAST PALO ALTO,CA,94303,155,ASTER WAY,37.45586,-122.12502
744 AVELAR ST,EAST PALO ALTO,CA,94303,744,AVELAR ST,37.46836,-122.13827
752 AVELAR ST,EAST PALO ALTO,CA,94303,752,AVELAR ST,37.4681,-122.13826
756 AVELAR ST,EAST PALO ALTO,CA,94303,756,AVELAR ST,37.46797,-122.13828
760 AVELAR ST,EAST PALO ALTO,CA,94303,760,AVELAR ST,37.46781,-122.13817
764 AVELAR ST,EAST PALO ALTO,CA,94303,764,AVELAR ST,37.46781,-122.13797
768 AVELAR ST,EAST PALO ALTO,CA,94303,768,AVELAR ST,37.46783,-122.1378
772 AVELAR ST,EAST PALO ALTO,CA,94303,772,AVELAR ST,37.46782,-122.13763
773 AVELAR ST,EAST PALO ALTO,CA,94303,773,AVELAR ST,37.46815,-122.13755
776 AVELAR ST,EAST PALO ALTO,CA,94303,776,AVELAR ST,37.46783,-122.13745
777 AVELAR ST,EAST PALO ALTO,CA,94303,777,AVELAR ST,37.46814,-122.13738
780 AVELAR ST,EAST PALO ALTO,CA,94303,780,AVELAR ST,37.46782,-122.13728
784 AVELAR ST,EAST PALO ALTO,CA,94303,784,AVELAR ST,37.46784,-122.13711
785 AVELAR ST,EAST PALO ALTO,CA,94303,785,AVELAR ST,37.46815,-122.13704
788 AVELAR ST,EAST PALO ALTO,CA,94303,788,AVELAR ST,37.46783,-122.13694
792 AVELAR ST,EAST PALO ALTO,CA,94303,792,AVELAR ST,37.46784,-122.13677
808 AVELAR ST,EAST PALO ALTO,CA,94303,808,AVELAR ST,37.46826,-122.13652
812 AVELAR ST,EAST PALO ALTO,CA,94303,812,AVELAR ST,37.46839,-122.13651
107 AZALIA DR,EAST PALO ALTO,CA,94303,107,AZALIA DR,37.45736,-122.12614
115 AZALIA DR,EAST PALO ALTO,CA,94303,115,AZALIA DR,37.45764,-122.12626
116 AZALIA DR,EAST PALO ALTO,CA,94303,116,AZALIA DR,37.45765,-122.1257
123 AZALIA DR,EAST PALO ALTO,CA,94303,123,AZALIA DR,37.45788,-122.12646
127 AZALIA DR,EAST PALO ALTO,CA,94303,127,AZALIA DR,37.45797,-122.12659
128 AZALIA DR,EAST PALO ALTO,CA,94303,128,AZALIA DR,37.45802,-122.12597
131 AZALIA DR,EAST PALO ALTO,CA,94303,131,AZALIA DR,37.45807,-122.12673
132 AZALIA DR,PALO ALTO,CA,94303,132,AZALIA DR,37.45814,-122.12609
135 AZALIA DR,EAST PALO ALTO,CA,94303,135,AZALIA DR,37.45814,-122.12688
136 AZALIA DR,EAST PALO ALTO,CA,94303,136,AZALIA DR,37.45824,-122.1262
144 AZALIA DR,PALO ALTO,CA,94303,144,AZALIA DR,37.45843,-122.12648
148 AZALIA DR,EAST PALO ALTO,CA,94303,148,AZALIA DR,37.45851,-122.12662
152 AZALIA DR,EAST PALO ALTO,CA,94303,152,AZALIA DR,37.45858,-122.12678
156 AZALIA DR,PALO ALTO,CA,94303,156,AZALIA DR,37.45863,-122.12694
207 AZALIA DR,EAST PALO ALTO,CA,94303,207,AZALIA DR,37.4585,-122.12766
208 AZALIA DR,EAST PALO ALTO,CA,94303,208,AZALIA DR,37.4589,-122.12768
212 AZALIA DR,EAST PALO ALTO,CA,94303,212,AZALIA DR,37.45898,-122.12782
220 AZALIA DR,EAST PALO ALTO,CA,94303,220,AZALIA DR,37.45909,-122.12816
228 AZALIA DR,EAST PALO ALTO,CA,94303,228,AZALIA DR,37.45924,-122.12845
236 AZALIA DR,EAST PALO ALTO,CA,94303,236,AZALIA DR,37.45942,-122.12874
240 AZALIA DR,EAST PALO ALTO,CA,94303,240,AZALIA DR,37.45957,-122.12879
243 AZALIA DR,EAST PALO ALTO,CA,94303,243,AZALIA DR,37.45937,-122.12929
244 AZALIA DR,EAST PALO ALTO,CA,94303,244,AZALIA DR,37.45969,-122.12888
248 AZALIA DR,EAST PALO ALTO,CA,94303,248,AZALIA DR,37.45984,-122.12893
251 AZALIA DR,EAST PALO ALTO,CA,94303,251,AZALIA DR,37.45965,-122.12938
255 AZALIA DR,EAST PALO ALTO,CA,94303,255,AZALIA DR,37.45979,-122.12941
256 AZALIA DR,EAST PALO ALTO,CA,94303,256,AZALIA DR,37.46012,-122.12892
259 AZALIA DR,EAST PALO ALTO,CA,94303,259,AZALIA DR,37.45994,-122.12941
260 AZALIA DR,EAST PALO ALTO,CA,94303,260,AZALIA DR,37.46025,-122.12893
264 AZALIA DR,EAST PALO ALTO,CA,94303,264,AZALIA DR,37.4604,-122.12894
271 AZALIA DR,EAST PALO ALTO,CA,94303,271,AZALIA DR,37.46035,-122.12943
312 AZALIA DR,EAST PALO ALTO,CA,94303,312,AZALIA DR,37.46143,-122.12898
315 AZALIA DR,EAST PALO ALTO,CA,94303,315,AZALIA DR,37.46149,-122.12946
316 AZALIA DR,EAST PALO ALTO,CA,94303,316,AZALIA DR,37.46156,-122.12897
320 AZALIA DR,EAST PALO ALTO,CA,94303,320,AZALIA DR,37.46169,-122.12896
324 AZALIA DR,EAST PALO ALTO,CA,94303,324,AZALIA DR,37.46184,-122.12899
327 AZALIA DR,EAST PALO ALTO,CA,94303,327,AZALIA DR,37.4619,-122.12948
328 AZALIA DR,EAST PALO ALTO,CA,94303,328,AZALIA DR,37.46197,-122.12897
331 AZALIA DR,EAST PALO ALTO,CA,94303,331,AZALIA DR,37.46203,-122.1295
332 AZALIA DR,EAST PALO ALTO,CA,94303,332,AZALIA DR,37.46211,-122.12897
335 AZALIA DR,EAST PALO ALTO,CA,94303,335,AZALIA DR,37.46217,-122.1295
340 AZALIA DR,EAST PALO ALTO,CA,94303,340,AZALIA DR,37.46239,-122.12899
343 AZALIA DR,EAST PALO ALTO,CA,94303,343,AZALIA DR,37.46244,-122.1295
344 AZALIA DR,EAST PALO ALTO,CA,94303,344,AZALIA DR,37.46253,-122.129
348 AZALIA DR,EAST PALO ALTO,CA,94303,348,AZALIA DR,37.46266,-122.12901
351 AZALIA DR,EAST PALO ALTO,CA,94303,351,AZALIA DR,37.46272,-122.12949
355 AZALIA DR,EAST PALO ALTO,CA,94303,355,AZALIA DR,37.46286,-122.12951
356 AZALIA DR,EAST PALO ALTO,CA,94303,356,AZALIA DR,37.46294,-122.12902
359 AZALIA DR,EAST PALO ALTO,CA,94303,359,AZALIA DR,37.463,-122.12952
360 AZALIA DR,EAST PALO ALTO,CA,94303,360,AZALIA DR,37.46307,-122.12902
363 AZALIA DR,EAST PALO ALTO,CA,94303,363,AZALIA DR,37.46313,-122.12951
364 AZALIA DR,EAST PALO ALTO,CA,94303,364,AZALIA DR,37.46322,-122.12901
367 AZALIA DR,EAST PALO ALTO,CA,94303,367,AZALIA DR,37.46327,-122.12951
368 AZALIA DR,EAST PALO ALTO,CA,94303,368,AZALIA DR,37.46335,-122.12902
371 AZALIA DR,EAST PALO ALTO,CA,94303,371,AZALIA DR,37.46341,-122.12952
372 AZALIA DR,EAST PALO ALTO,CA,94303,372,AZALIA DR,37.46348,-122.12901
902 BAINES ST,EAST PALO ALTO,CA,94303,902,BAINES ST,37.45743,-122.13433
903 BAINES ST,EAST PALO ALTO,CA,94303,903,BAINES ST,37.45774,-122.13421
904 BAINES ST,EAST PALO ALTO,CA,94303,904,BAINES ST,37.45744,-122.13418
905 BAINES ST,EAST PALO ALTO,CA,94303,905,BAINES ST,37.45775,-122.13405
906 BAINES ST,EAST PALO ALTO,CA,94303,906,BAINES ST,37.45743,-122.13402
907 BAINES ST,EAST PALO ALTO,CA,94303,907,BAINES ST,37.45776,-122.13389
910 BAINES ST,EAST PALO ALTO,CA,94303,910,BAINES ST,37.45745,-122.13371
912 BAINES ST,EAST PALO ALTO,CA,94303,912,BAINES ST,37.45745,-122.13356
913 BAINES ST,EAST PALO ALTO,CA,94303,913,BAINES ST,37.45777,-122.13341
914 BAINES ST,EAST PALO ALTO,CA,94303,914,BAINES ST,37.45747,-122.1334
915 BAINES ST,EAST PALO ALTO,CA,94303,915,BAINES ST,37.45778,-122.13326
916 BAINES ST,EAST PALO ALTO,CA,94303,916,BAINES ST,37.45746,-122.13324
917 BAINES ST,EAST PALO ALTO,CA,94303,917,BAINES ST,37.45779,-122.13309
919 BAINES ST,EAST PALO ALTO,CA,94303,919,BAINES ST,37.45779,-122.13294
920 BAINES ST,EAST PALO ALTO,CA,94303,920,BAINES ST,37.45748,-122.13293
923 BAINES ST,EAST PALO ALTO,CA,94303,923,BAINES ST,37.45777,-122.13215
924 BAINES ST,EAST PALO ALTO,CA,94303,924,BAINES ST,37.45741,-122.13262
925 BAINES ST,EAST PALO ALTO,CA,94303,925,BAINES ST,37.45777,-122.13202
926 BAINES ST,EAST PALO ALTO,CA,94303,926,BAINES ST,37.45741,-122.13247
927 BAINES ST,EAST PALO ALTO,CA,94303,927,BAINES ST,37.45779,-122.13188
929 BAINES ST,EAST PALO ALTO,CA,94303,929,BAINES ST,37.45778,-122.13175
930 BAINES ST,EAST PALO ALTO,CA,94303,930,BAINES ST,37.45741,-122.13218
931 BAINES ST,EAST PALO ALTO,CA,94303,931,BAINES ST,37.45779,-122.1316
934 BAINES ST,EAST PALO ALTO,CA,94303,934,BAINES ST,37.45743,-122.13189
935 BAINES ST,EAST PALO ALTO,CA,94303,935,BAINES ST,37.45781,-122.13133
936 BAINES ST,EAST PALO ALTO,CA,94303,936,BAINES ST,37.45744,-122.13175
937 BAINES ST,EAST PALO ALTO,CA,94303,937,BAINES ST,37.4578,-122.13119
939 BAINES ST,EAST PALO ALTO,CA,94303,939,BAINES ST,37.45781,-122.13105
940 BAINES ST,EAST PALO ALTO,CA,94303,940,BAINES ST,37.45745,-122.13146
941 BAINES ST,EAST PALO ALTO,CA,94303,941,BAINES ST,37.4578,-122.13091
942 BAINES ST,EAST PALO ALTO,CA,94303,942,BAINES ST,37.45745,-122.13132
943 BAINES ST,EAST PALO ALTO,CA,94303,943,BAINES ST,37.45778,-122.1307
944 BAINES ST,EAST PALO ALTO,CA,94303,944,BAINES ST,37.45747,-122.13117
945 BAINES ST,EAST PALO ALTO,CA,94303,945,BAINES ST,37.45789,-122.13073
946 BAINES ST,EAST PALO ALTO,CA,94303,946,BAINES ST,37.45745,-122.13104
947 BAINES ST,EAST PALO ALTO,CA,94303,947,BAINES ST,37.45802,-122.1307
948 BAINES ST,EAST PALO ALTO,CA,94303,948,BAINES ST,37.45747,-122.13089
950 BAINES ST,EAST PALO ALTO,CA,94303,950,BAINES ST,37.45745,-122.13075
952 BAINES ST,EAST PALO ALTO,CA,94303,952,BAINES ST,37.45748,-122.13061
954 BAINES ST,EAST PALO ALTO,CA,94303,954,BAINES ST,37.45745,-122.13038
956 BAINES ST,EAST PALO ALTO,CA,94303,956,BAINES ST,37.45759,-122.13026
958 BAINES ST,EAST PALO ALTO,CA,94303,958,BAINES ST,37.45773,-122.13028
1104 BAY RD,EAST PALO ALTO,CA,94303,1104,BAY RD,37.47015,-122.14989
1108 BAY RD,EAST PALO ALTO,CA,94303,1108,BAY RD,37.47019,-122.14972
1212 BAY RD,EAST PALO ALTO,CA,94303,1212,BAY RD,37.47044,-122.14771
1240 BAY RD,EAST PALO ALTO,CA,94303,1240,BAY RD,37.4705,-122.14717
1312 BAY RD,EAST PALO ALTO,CA,94303,1312,BAY RD,37.4706,-122.14601
1320 BAY RD,EAST PALO ALTO,CA,94303,1320,BAY RD,37.47071,-122.14549
1382 BAY RD,EAST PALO ALTO,CA,94303,1382,BAY RD,37.47074,-122.14513
1386 BAY RD,PALO ALTO,CA,94303,1386,BAY RD,37.47081,-122.14495
1390 BAY RD,EAST PALO ALTO,CA,94303,1390,BAY RD,37.47072,-122.14479
1408 BAY RD,EAST PALO ALTO,CA,94303,1408,BAY RD,37.47089,-122.14407
1412 BAY RD,EAST PALO ALTO,CA,94303,1412,BAY RD,37.47091,-122.14392
1416 BAY RD,EAST PALO ALTO,CA,94303,1416,BAY RD,37.47093,-122.14374
1518 BAY RD,EAST PALO ALTO,CA,94303,1518,BAY RD,37.4709,-122.14246
1529 BAY RD,EAST PALO ALTO,CA,94303,1529,BAY RD,37.47158,-122.1423
1530 BAY RD,EAST PALO ALTO,CA,94303,1530,BAY RD,37.4711,-122.14211
1538 BAY RD,EAST PALO ALTO,CA,94303,1538,BAY RD,37.47118,-122.14191
1546 BAY RD,EAST PALO ALTO,CA,94303,1546,BAY RD,37.47118,-122.14191
1554 BAY RD,EAST PALO ALTO,CA,94303,1554,BAY RD,37.4712,-122.14171
1560 BAY RD,EAST PALO ALTO,CA,94303,1560,BAY RD,37.47124,-122.14152
1574 BAY RD,PALO ALTO,CA,94303,1574,BAY RD,37.47124,-122.14118
1794 BAY RD,EAST PALO ALTO,CA,94303,1794,BAY RD,37.47149,-122.13534
1861 BAY RD,EAST PALO ALTO,CA,94303,1861,BAY RD,37.47293,-122.13338
1894 BAY RD,EAST PALO ALTO,CA,94303,1894,BAY RD,37.47231,-122.1327
1896 BAY RD,EAST PALO ALTO,CA,94303,1896,BAY RD,37.47241,-122.1325
1923 BAY RD,EAST PALO ALTO,CA,94303,1923,BAY RD,37.47309,-122.13147
1982 BAYSHORE RD,EAST PALO ALTO,CA,94303,1982,BAYSHORE RD,37.45225,-122.12845
917 BEECH ST,EAST PALO ALTO,CA,94303,917,BEECH ST,37.46529,-122.13422
952 BEECH ST,EAST PALO ALTO,CA,94303,952,BEECH ST,37.46491,-122.13375
959 BEECH ST,EAST PALO ALTO,CA,94303,959,BEECH ST,37.46529,-122.13368
963 BEECH ST,EAST PALO ALTO,CA,94303,963,BEECH ST,37.46534,-122.13332
999 BEECH ST,EAST PALO ALTO,CA,94303,999,BEECH ST,37.46535,-122.13286
1001 BEECH ST,EAST PALO ALTO,CA,94303,1001,BEECH ST,37.46586,-122.13275
1006 BEECH ST,EAST PALO ALTO,CA,94303,1006,BEECH ST,37.46491,-122.13224
1007 BEECH ST,PALO ALTO,CA,94303,1007,BEECH ST,37.46534,-122.13233
1022 BEECH ST,EAST PALO ALTO,CA,94303,1022,BEECH ST,37.46453,-122.13221
1030 BEECH ST,EAST PALO ALTO,CA,94303,1030,BEECH ST,37.46432,-122.13221
1052 BEECH ST,PALO ALTO,CA,94303,1052,BEECH ST,37.46496,-122.13145
1056 BEECH ST,PALO ALTO,CA,94303,1056,BEECH ST,37.46457,-122.13125
1087 BEECH ST,EAST PALO ALTO,CA,94303,1087,BEECH ST,37.46529,-122.13085
1111 BEECH ST,EAST PALO ALTO,CA,94303,1111,BEECH ST,37.46538,-122.13002
1140 BEECH ST,EAST PALO ALTO,CA,94303,1140,BEECH ST,37.46494,-122.12966
1145 BEECH ST,EAST PALO ALTO,CA,94303,1145,BEECH ST,37.46536,-122.1295
1175 BEECH ST,EAST PALO ALTO,CA,94303,1175,BEECH ST,37.46537,-122.12897
1180 BEECH ST,EAST PALO ALTO,CA,94303,1180,BEECH ST,37.46502,-122.12867
1188 BEECH ST,EAST PALO ALTO,CA,94303,1188,BEECH ST,37.46501,-122.12845
1198 BEECH ST,EAST PALO ALTO,CA,94303,1198,BEECH ST,37.46503,-122.12802
1203 BEECH ST,EAST PALO ALTO,CA,94303,1203,BEECH ST,37.46539,-122.12827
1208 BEECH ST,EAST PALO ALTO,CA,94303,1208,BEECH ST,37.46503,-122.1278
1215 BEECH ST,PALO ALTO,CA,94303,1215,BEECH ST,37.46547,-122.12804
1225 BEECH ST,EAST PALO ALTO,CA,94303,1225,BEECH ST,37.4654,-122.12782
1245 BEECH ST,EAST PALO ALTO,CA,94303,1245,BEECH ST,37.4655,-122.12759
1261 BEECH ST,EAST PALO ALTO,CA,94303,1261,BEECH ST,37.46541,-122.12736
1265 BEECH ST,EAST PALO ALTO,CA,94303,1265,BEECH ST,37.46547,-122.12714
1275 BEECH ST,EAST PALO ALTO,CA,94303,1275,BEECH ST,37.46553,-122.12661
2 BELL CT,EAST PALO ALTO,CA,94303,2,BELL CT,37.46619,-122.13723
4 BELL CT,EAST PALO ALTO,CA,94303,4,BELL CT,37.46637,-122.13722
6 BELL CT,EAST PALO ALTO,CA,94303,6,BELL CT,37.46647,-122.13733
7 BELL CT,EAST PALO ALTO,CA,94303,7,BELL CT,37.46647,-122.13776
8 BELL CT,EAST PALO ALTO,CA,94303,8,BELL CT,37.46651,-122.13755
310 BELL ST,EAST PALO ALTO,CA,94303,310,BELL ST,37.46591,-122.14642
415 BELL ST,EAST PALO ALTO,CA,94303,415,BELL ST,37.46605,-122.14549
419 BELL ST,EAST PALO ALTO,CA,94303,419,BELL ST,37.46608,-122.14521
443 BELL ST,EAST PALO ALTO,CA,94303,443,BELL ST,37.46613,-122.14465
444 BELL ST,EAST PALO ALTO,CA,94303,444,BELL ST,37.4656,-122.14479
451 BELL ST,PALO ALTO,CA,94303,451,BELL ST,37.46609,-122.14432
458 BELL ST,EAST PALO ALTO,CA,94303,458,BELL ST,37.46532,-122.1445
467 BELL ST,EAST PALO ALTO,CA,94303,467,BELL ST,37.46597,-122.14419
470 BELL ST,EAST PALO ALTO,CA,94303,470,BELL ST,37.46524,-122.1443
474 BELL ST,EAST PALO ALTO,CA,94303,474,BELL ST,37.465,-122.14426
480 BELL ST,EAST PALO ALTO,CA,94303,480,BELL ST,37.4655,-122.14393
535 BELL ST,PALO ALTO,CA,94303,535,BELL ST,37.46595,-122.14286
555 BELL ST,EAST PALO ALTO,CA,94303,555,BELL ST,37.46597,-122.14248
565 BELL ST,EAST PALO ALTO,CA,94303,565,BELL ST,37.46592,-122.1423
612 BELL ST,EAST PALO ALTO,CA,94303,612,BELL ST,37.46537,-122.14098
616 BELL ST,EAST PALO ALTO,CA,94303,616,BELL ST,37.46538,-122.14081
643 BELL ST,EAST PALO ALTO,CA,94303,643,BELL ST,37.46583,-122.14087
729 BELL ST,EAST PALO ALTO,CA,94303,729,BELL ST,37.46623,-122.13881
733 BELL ST,PALO ALTO,CA,94303,733,BELL ST,37.46622,-122.13854
736 BELL ST,EAST PALO ALTO,CA,94303,736,BELL ST,37.4655,-122.13861
763 BELL ST,EAST PALO ALTO,CA,94303,763,BELL ST,37.46625,-122.13828
770 BELL ST,EAST PALO ALTO,CA,94303,770,BELL ST,37.46584,-122.13818
784 BELL ST,EAST PALO ALTO,CA,94303,784,BELL ST,37.4658,-122.13776
793 BELL ST,EAST PALO ALTO,CA,94303,793,BELL ST,37.46626,-122.13808
796 BELL ST,EAST PALO ALTO,CA,94303,796,BELL ST,37.46555,-122.13737
800 BELL ST,EAST PALO ALTO,CA,94303,800,BELL ST,37.46571,-122.13718
808 BELL ST,EAST PALO ALTO,CA,94303,808,BELL ST,37.46527,-122.13695
812 BELL ST,EAST PALO ALTO,CA,94303,812,BELL ST,37.46528,-122.13675
818 BELL ST,EAST PALO ALTO,CA,94303,818,BELL ST,37.46582,-122.13674
825 BELL ST,EAST PALO ALTO,CA,94303,825,BELL ST,37.46627,-122.13671
832 BELL ST,EAST PALO ALTO,CA,94303,832,BELL ST,37.46559,-122.13636
869 BELL ST,EAST PALO ALTO,CA,94303,869,BELL ST,37.46634,-122.13618
871 BELL ST,PALO ALTO,CA,94303,871,BELL ST,37.46634,-122.13599
873 BELL ST,EAST PALO ALTO,CA,94303,873,BELL ST,37.46633,-122.13586
875 BELL ST,EAST PALO ALTO,CA,94303,875,BELL ST,37.46629,-122.13569
882 BELL ST,EAST PALO ALTO,CA,94303,882,BELL ST,37.46558,-122.13579
897 BELL ST,PALO ALTO,CA,94303,897,BELL ST,37.46635,-122.13515
2210 BRENTWOOD CT,PALO ALTO,CA,94303,2210,BRENTWOOD CT,37.46544,-122.1317
2220 BRENTWOOD CT,EAST PALO ALTO,CA,94303,2220,BRENTWOOD CT,37.46562,-122.13171
2221 BRENTWOOD CT,EAST PALO ALTO,CA,94303,2221,BRENTWOOD CT,37.46561,-122.13221
2231 BRENTWOOD CT,EAST PALO ALTO,CA,94303,2231,BRENTWOOD CT,37.46576,-122.13229
2250 BRENTWOOD CT,EAST PALO ALTO,CA,94303,2250,BRENTWOOD CT,37.46604,-122.13179
2251 BRENTWOOD CT,EAST PALO ALTO,CA,94303,2251,BRENTWOOD CT,37.46604,-122.13231
2260 BRENTWOOD CT,EAST PALO ALTO,CA,94303,2260,BRENTWOOD CT,37.46618,-122.1318
2270 BRENTWOOD CT,EAST PALO ALTO,CA,94303,2270,BRENTWOOD CT,37.46632,-122.13177
2280 BRENTWOOD CT,EAST PALO ALTO,CA,94303,2280,BRENTWOOD CT,37.46646,-122.13177
2281 BRENTWOOD CT,EAST PALO ALTO,CA,94303,2281,BRENTWOOD CT,37.46647,-122.13238
2290 BRENTWOOD CT,EAST PALO ALTO,CA,94303,2290,BRENTWOOD CT,37.46659,-122.13195
4 BUCHANAN CT,EAST PALO ALTO,CA,94303,4,BUCHANAN CT,37.46917,-122.1346
14 BUCHANAN CT,EAST PALO ALTO,CA,94303,14,BUCHANAN CT,37.46917,-122.13429
19 BUCHANAN CT,EAST PALO ALTO,CA,94303,19,BUCHANAN CT,37.46961,-122.13412
20 BUCHANAN CT,EAST PALO ALTO,CA,94303,20,BUCHANAN CT,37.46915,-122.13412
26 BUCHANAN CT,EAST PALO ALTO,CA,94303,26,BUCHANAN CT,37.4692,-122.13395
32 BUCHANAN CT,EAST PALO ALTO,CA,94303,32,BUCHANAN CT,37.46917,-122.13378
44 BUCHANAN CT,EAST PALO ALTO,CA,94303,44,BUCHANAN CT,37.46921,-122.13345
50 BUCHANAN CT,EAST PALO ALTO,CA,94303,50,BUCHANAN CT,37.46923,-122.13327
56 BUCHANAN CT,EAST PALO ALTO,CA,94303,56,BUCHANAN CT,37.46924,-122.13311
62 BUCHANAN CT,EAST PALO ALTO,CA,94303,62,BUCHANAN CT,37.46921,-122.13292
65 BUCHANAN CT,EAST PALO ALTO,CA,94303,65,BUCHANAN CT,37.46958,-122.13276
72 BUCHANAN CT,EAST PALO ALTO,CA,94303,72,BUCHANAN CT,37.46922,-122.13261
78 BUCHANAN CT,EAST PALO ALTO,CA,94303,78,BUCHANAN CT,37.46918,-122.1324
1972 BYERS DR,MENLO PARK,CA,94025,1972,BYERS DR,37.45963,-122.14621
1978 BYERS DR,MENLO PARK,CA,94025,1978,BYERS DR,37.45985,-122.14609
1984 BYERS DR,MENLO PARK,CA,94025,1984,BYERS DR,37.46002,-122.14603
1989 BYERS DR,MENLO PARK,CA,94025,1989,BYERS DR,37.4603,-122.14656
1990 BYERS DR,MENLO PARK,CA,94025,1990,BYERS DR,37.46022,-122.14602
1 CAMELLIA CT,PALO ALTO,CA,94303,1,CAMELLIA CT,37.4557,-122.12822
2 CAMELLIA CT,EAST PALO ALTO,CA,94303,2,CAMELLIA CT,37.45548,-122.12819
4 CAMELLIA CT,EAST PALO ALTO,CA,94306,4,CAMELLIA CT,37.45521,-122.1281
5 CAMELLIA CT,EAST PALO ALTO,CA,94303,5,CAMELLIA CT,37.45506,-122.12809
7 CAMELLIA CT,EAST PALO ALTO,CA,94303,7,CAMELLIA CT,37.45489,-122.12764
8 CAMELLIA CT,EAST PALO ALTO,CA,94303,8,CAMELLIA CT,37.45501,-122.12748
9 CAMELLIA CT,EAST PALO ALTO,CA,94303,9,CAMELLIA CT,37.45528,-122.12749
10 CAMELLIA CT,EAST PALO ALTO,CA,94303,10,CAMELLIA CT,37.45539,-122.12758
11 CAMELLIA CT,EAST PALO ALTO,CA,94303,11,CAMELLIA CT,37.45551,-122.12768
1107 CAMELLIA DR,EAST PALO ALTO,CA,94303,1107,CAMELLIA DR,37.4559,-122.12949
1108 CAMELLIA DR,EAST PALO ALTO,CA,94303,1108,CAMELLIA DR,37.45551,-122.12946
1119 CAMELLIA DR,EAST PALO ALTO,CA,94303,1119,CAMELLIA DR,37.45595,-122.12881
1120 CAMELLIA DR,EAST PALO ALTO,CA,94303,1120,CAMELLIA DR,37.4556,-122.12879
1123 CAMELLIA DR,EAST PALO ALTO,CA,94303,1123,CAMELLIA DR,37.45605,-122.12853
1124 CAMELLIA DR,EAST PALO ALTO,CA,94303,1124,CAMELLIA DR,37.45561,-122.12855
1128 CAMELLIA DR,EAST PALO ALTO,CA,94303,1128,CAMELLIA DR,37.45563,-122.12838
1135 CAMELLIA DR,EAST PALO ALTO,CA,94303,1135,CAMELLIA DR,37.45629,-122.12808
1139 CAMELLIA DR,EAST PALO ALTO,CA,94303,1139,CAMELLIA DR,37.45637,-122.12796
1144 CAMELLIA DR,EAST PALO ALTO,CA,94303,1144,CAMELLIA DR,37.45601,-122.12764
1147 CAMELLIA DR,EAST PALO ALTO,CA,94303,1147,CAMELLIA DR,37.45657,-122.12769
1152 CAMELLIA DR,EAST PALO ALTO,CA,94303,1152,CAMELLIA DR,37.45625,-122.12736
1203 CAMELLIA DR,EAST PALO ALTO,CA,94303,1203,CAMELLIA DR,37.45688,-122.12735
1207 CAMELLIA DR,EAST PALO ALTO,CA,94303,1207,CAMELLIA DR,37.45699,-122.12722
1211 CAMELLIA DR,EAST PALO ALTO,CA,94303,1211,CAMELLIA DR,37.45707,-122.12707
1212 CAMELLIA DR,EAST PALO ALTO,CA,94303,1212,CAMELLIA DR,37.4568,-122.12655
1220 CAMELLIA DR,EAST PALO ALTO,CA,94303,1220,CAMELLIA DR,37.45685,-122.12619
1231 CAMELLIA DR,PALO ALTO,CA,94303,1231,CAMELLIA DR,37.45723,-122.12613
1307 CAMELLIA DR,EAST PALO ALTO,CA,94303,1307,CAMELLIA DR,37.45738,-122.12463
1308 CAMELLIA DR,EAST PALO ALTO,CA,94303,1308,CAMELLIA DR,37.45694,-122.12462
1311 CAMELLIA DR,EAST PALO ALTO,CA,94303,1311,CAMELLIA DR,37.45748,-122.12451
1315 CAMELLIA DR,EAST PALO ALTO,CA,94303,1315,CAMELLIA DR,37.45762,-122.12443
1320 CAMELLIA DR,EAST PALO ALTO,CA,94303,1320,CAMELLIA DR,37.45748,-122.12396
1325 CAMELLIA DR,EAST PALO ALTO,CA,94303,1325,CAMELLIA DR,37.45777,-122.12445
1335 CAMELLIA DR,EAST PALO ALTO,CA,94303,1335,CAMELLIA DR,37.45791,-122.12451
1336 CAMELLIA DR,EAST PALO ALTO,CA,94303,1336,CAMELLIA DR,37.45808,-122.12397
1343 CAMELLIA DR,EAST PALO ALTO,CA,94303,1343,CAMELLIA DR,37.45819,-122.12465
1344 CAMELLIA DR,EAST PALO ALTO,CA,94303,1344,CAMELLIA DR,37.45831,-122.12414
1347 CAMELLIA DR,EAST PALO ALTO,CA,94303,1347,CAMELLIA DR,37.45833,-122.12473
1348 CAMELLIA DR,EAST PALO ALTO,CA,94303,1348,CAMELLIA DR,37.45844,-122.1242
1351 CAMELLIA DR,EAST PALO ALTO,CA,94303,1351,CAMELLIA DR,37.45846,-122.12479
1352 CAMELLIA DR,EAST PALO ALTO,CA,94303,1352,CAMELLIA DR,37.45858,-122.12428
1355 CAMELLIA DR,EAST PALO ALTO,CA,94303,1355,CAMELLIA DR,37.45858,-122.12484
1356 CAMELLIA DR,EAST PALO ALTO,CA,94303,1356,CAMELLIA DR,37.45869,-122.12432
1364 CAMELLIA DR,EAST PALO ALTO,CA,94303,1364,CAMELLIA DR,37.45895,-122.12446
1368 CAMELLIA DR,EAST PALO ALTO,CA,94303,1368,CAMELLIA DR,37.45909,-122.12451
1375 CAMELLIA DR,EAST PALO ALTO,CA,94303,1375,CAMELLIA DR,37.4592,-122.12522
1380 CAMELLIA DR,EAST PALO ALTO,CA,94303,1380,CAMELLIA DR,37.45946,-122.12472
1384 CAMELLIA DR,EAST PALO ALTO,CA,94303,1384,CAMELLIA DR,37.4596,-122.12478
1387 CAMELLIA DR,EAST PALO ALTO,CA,94303,1387,CAMELLIA DR,37.45948,-122.12531
1396 CAMELLIA DR,EAST PALO ALTO,CA,94303,1396,CAMELLIA DR,37.45985,-122.12491
1404 CAMELLIA DR,EAST PALO ALTO,CA,94303,1404,CAMELLIA DR,37.45998,-122.12497
1408 CAMELLIA DR,EAST PALO ALTO,CA,94303,1408,CAMELLIA DR,37.4601,-122.12503
1411 CAMELLIA DR,EAST PALO ALTO,CA,94303,1411,CAMELLIA DR,37.45997,-122.12559
1412 CAMELLIA DR,EAST PALO ALTO,CA,94303,1412,CAMELLIA DR,37.46027,-122.12517
1416 CAMELLIA DR,EAST PALO ALTO,CA,94303,1416,CAMELLIA DR,37.46038,-122.12536
1424 CAMELLIA DR,EAST PALO ALTO,CA,94303,1424,CAMELLIA DR,37.46047,-122.12569
1428 CAMELLIA DR,EAST PALO ALTO,CA,94303,1428,CAMELLIA DR,37.46055,-122.12585
1431 CAMELLIA DR,EAST PALO ALTO,CA,94303,1431,CAMELLIA DR,37.46021,-122.12623
1432 CAMELLIA DR,EAST PALO ALTO,CA,94303,1432,CAMELLIA DR,37.46061,-122.126
720 CAMPHOR WAY,PALO ALTO,CA,94303,720,CAMPHOR WAY,37.46397,-122.13853
728 CAMPHOR WAY,EAST PALO ALTO,CA,94303,728,CAMPHOR WAY,37.46363,-122.13867
732 CAMPHOR WAY,EAST PALO ALTO,CA,94303,732,CAMPHOR WAY,37.46346,-122.13861
740 CAMPHOR WAY,EAST PALO ALTO,CA,94303,740,CAMPHOR WAY,37.46346,-122.1381
744 CAMPHOR WAY,EAST PALO ALTO,CA,94303,744,CAMPHOR WAY,37.46365,-122.13806
748 CAMPHOR WAY,EAST PALO ALTO,CA,94303,748,CAMPHOR WAY,37.46378,-122.13808
752 CAMPHOR WAY,EAST PALO ALTO,CA,94303,752,CAMPHOR WAY,37.46398,-122.1382
2118 CAPITOL AVE,PALO ALTO,CA,94303,2118,CAPITOL AVE,37.46321,-122.14018
2124 CAPITOL AVE,EAST PALO ALTO,CA,94303,2124,CAPITOL AVE,37.46335,-122.14014
2129 CAPITOL AVE,EAST PALO ALTO,CA,94303,2129,CAPITOL AVE,37.4635,-122.14073
2134 CAPITOL AVE,PALO ALTO,CA,94303,2134,CAPITOL AVE,37.46363,-122.14011
2138 CAPITOL AVE,EAST PALO ALTO,CA,94303,2138,CAPITOL AVE,37.46376,-122.14016
2142 CAPITOL AVE,EAST PALO ALTO,CA,94303,2142,CAPITOL AVE,37.4639,-122.14013
2145 CAPITOL AVE,PALO ALTO,CA,94303,2145,CAPITOL AVE,37.46391,-122.14073
2149 CAPITOL AVE,PALO ALTO,CA,94303,2149,CAPITOL AVE,37.46406,-122.14069
2153 CAPITOL AVE,EAST PALO ALTO,CA,94303,2153,CAPITOL AVE,37.46419,-122.1407
2171 CAPITOL AVE,EAST PALO ALTO,CA,94303,2171,CAPITOL AVE,37.46474,-122.14069
2187 CAPITOL AVE,EAST PALO ALTO,CA,94303,2187,CAPITOL AVE,37.46503,-122.14069
2194 CAPITOL AVE,EAST PALO ALTO,CA,94303,2194,CAPITOL AVE,37.46507,-122.14014
2205 CAPITOL AVE,EAST PALO ALTO,CA,94303,2205,CAPITOL AVE,37.4658,-122.14059
2216 CAPITOL AVE,PALO ALTO,CA,94303,2216,CAPITOL AVE,37.46599,-122.14014
2220 CAPITOL AVE,PALO ALTO,CA,94303,2220,CAPITOL AVE,37.46613,-122.14011
2224 CAPITOL AVE,EAST PALO ALTO,CA,94303,2224,CAPITOL AVE,37.46613,-122.14011
2230 CAPITOL AVE,EAST PALO ALTO,CA,94303,2230,CAPITOL AVE,37.46641,-122.14009
2232 CAPITOL AVE,EAST PALO ALTO,CA,94303,2232,CAPITOL AVE,37.46657,-122.13996
2233 CAPITOL AVE,EAST PALO ALTO,CA,94303,2233,CAPITOL AVE,37.46646,-122.14064
2245 CAPITOL AVE,PALO ALTO,CA,94303,2245,CAPITOL AVE,37.4668,-122.14059
2250 CAPITOL AVE,EAST PALO ALTO,CA,94303,2250,CAPITOL AVE,37.46709,-122.14005
2255 CAPITOL AVE,EAST PALO ALTO,CA,94303,2255,CAPITOL AVE,37.46721,-122.1406
2258 CAPITOL AVE,EAST PALO ALTO,CA,94303,2258,CAPITOL AVE,37.46723,-122.14007
2262 CAPITOL AVE,EAST PALO ALTO,CA,94303,2262,CAPITOL AVE,37.46737,-122.14007
2266 CAPITOL AVE,EAST PALO ALTO,CA,94303,2266,CAPITOL AVE,37.4675,-122.14004
2267 CAPITOL AVE,EAST PALO ALTO,CA,94303,2267,CAPITOL AVE,37.46749,-122.14062
2277 CAPITOL AVE,EAST PALO ALTO,CA,94303,2277,CAPITOL AVE,37.46764,-122.14059
2282 CAPITOL AVE,EAST PALO ALTO,CA,94303,2282,CAPITOL AVE,37.46792,-122.14007
2285 CAPITOL AVE,EAST PALO ALTO,CA,94303,2285,CAPITOL AVE,37.46779,-122.1406
2286 CAPITOL AVE,EAST PALO ALTO,CA,94303,2286,CAPITOL AVE,37.46806,-122.14003
2291 CAPITOL AVE,EAST PALO ALTO,CA,94303,2291,CAPITOL AVE,37.46807,-122.14063
2292 CAPITOL AVE,EAST PALO ALTO,CA,94303,2292,CAPITOL AVE,37.46819,-122.14005
767 CAROLE CT,EAST PALO ALTO,CA,94303,767,CAROLE CT,37.47047,-122.13835
770 CEDAR PL,EAST PALO ALTO,CA,94303,770,CEDAR PL,37.47109,-122.13221
620 CIRCLE DR,EAST PALO ALTO,CA,94303,620,CIRCLE DR,37.45708,-122.13995
621 CIRCLE DR,EAST PALO ALTO,CA,94303,621,CIRCLE DR,37.45736,-122.13932
630 CIRCLE DR,EAST PALO ALTO,CA,94303,630,CIRCLE DR,37.45697,-122.1397
641 CIRCLE DR,PALO ALTO,CA,94303,641,CIRCLE DR,37.45717,-122.13927
650 CIRCLE DR,EAST PALO ALTO,CA,94303,650,CIRCLE DR,37.45682,-122.13927
1836 CLARKE AVE,EAST PALO ALTO,CA,94303,1836,CLARKE AVE,37.45509,-122.13418
1948 CLARKE AVE,EAST PALO ALTO,CA,94303,1948,CLARKE AVE,37.45902,-122.13428
1960 CLARKE AVE,EAST PALO ALTO,CA,94303,1960,CLARKE AVE,37.45949,-122.13431
1962 CLARKE AVE,EAST PALO ALTO,CA,94303,1962,CLARKE AVE,37.45971,-122.13437
1980 CLARKE AVE,EAST PALO ALTO,CA,94303,1980,CLARKE AVE,37.46027,-122.13405
2009 CLARKE AVE,EAST PALO ALTO,CA,94303,2009,CLARKE AVE,37.46099,-122.13488
2013 CLARKE AVE,EAST PALO ALTO,CA,94303,2013,CLARKE AVE,37.46113,-122.13489
2029 CLARKE AVE,EAST PALO ALTO,CA,94303,2029,CLARKE AVE,37.46175,-122.13489
2035 CLARKE AVE,EAST PALO ALTO,CA,94303,2035,CLARKE AVE,37.46194,-122.13492
2039 CLARKE AVE,EAST PALO ALTO,CA,94303,2039,CLARKE AVE,37.46208,-122.13492
2105 CLARKE AVE,EAST PALO ALTO,CA,94303,2105,CLARKE AVE,37.46292,-122.13498
2112 CLARKE AVE,EAST PALO ALTO,CA,94303,2112,CLARKE AVE,37.46275,-122.13443
2115 CLARKE AVE,EAST PALO ALTO,CA,94303,2115,CLARKE AVE,37.46306,-122.13498
2116 CLARKE AVE,EAST PALO ALTO,CA,94303,2116,CLARKE AVE,37.46294,-122.13437
2120 CLARKE AVE,EAST PALO ALTO,CA,94303,2120,CLARKE AVE,37.46407,-122.1345
2122 CLARKE AVE,PALO ALTO,CA,94303,2122,CLARKE AVE,37.46364,-122.13447
2123 CLARKE AVE,EAST PALO ALTO,CA,94303,2123,CLARKE AVE,37.46323,-122.13495
2124 CLARKE AVE,EAST PALO ALTO,CA,94303,2124,CLARKE AVE,37.46382,-122.13442
2135 CLARKE AVE,EAST PALO ALTO,CA,94303,2135,CLARKE AVE,37.46374,-122.13505
2140 CLARKE AVE,EAST PALO ALTO,CA,94303,2140,CLARKE AVE,37.46423,-122.13445
2142 CLARKE AVE,EAST PALO ALTO,CA,94303,2142,CLARKE AVE,37.46437,-122.13446
2156 CLARKE AVE,EAST PALO ALTO,CA,94303,2156,CLARKE AVE,37.46478,-122.13453
2161 CLARKE AVE,EAST PALO ALTO,CA,94303,2161,CLARKE AVE,37.46489,-122.13497
2162 CLARKE AVE,EAST PALO ALTO,CA,94303,2162,CLARKE AVE,37.46493,-122.13452
2180 CLARKE AVE,EAST PALO ALTO,CA,94303,2180,CLARKE AVE,37.46572,-122.13451
2185 CLARKE AVE,EAST PALO ALTO,CA,94303,2185,CLARKE AVE,37.46503,-122.13499
2195 CLARKE AVE,EAST PALO ALTO,CA,94303,2195,CLARKE AVE,37.46569,-122.13501
2197 CLARKE AVE,EAST PALO ALTO,CA,94303,2197,CLARKE AVE,37.46556,-122.13502
2199 CLARKE AVE,EAST PALO ALTO,CA,94303,2199,CLARKE AVE,37.4659,-122.13498
2202 CLARKE AVE,EAST PALO ALTO,CA,94303,2202,CLARKE AVE,37.46603,-122.13446
2208 CLARKE AVE,EAST PALO ALTO,CA,94303,2208,CLARKE AVE,37.4663,-122.13395
2210 CLARKE AVE,EAST PALO ALTO,CA,94303,2210,CLARKE AVE,37.4663,-122.13415
2212 CLARKE AVE,EAST PALO ALTO,CA,94303,2212,CLARKE AVE,37.46634,-122.13458
2247 CLARKE AVE,EAST PALO ALTO,CA,94303,2247,CLARKE AVE,37.46662,-122.13507
2249 CLARKE AVE,EAST PALO ALTO,CA,94303,2249,CLARKE AVE,37.46679,-122.13513
2250 CLARKE AVE,EAST PALO ALTO,CA,94303,2250,CLARKE AVE,37.46723,-122.13456
2254 CLARKE AVE,PALO ALTO,CA,94303,2254,CLARKE AVE,37.46749,-122.1342
2255 CLARKE AVE,EAST PALO ALTO,CA,94303,2255,CLARKE AVE,37.46721,-122.13504
2257 CLARKE AVE,EAST PALO ALTO,CA,94303,2257,CLARKE AVE,37.46742,-122.13512
2261 CLARKE AVE,EAST PALO ALTO,CA,94303,2261,CLARKE AVE,37.46768,-122.13513
2274 CLARKE AVE,EAST PALO ALTO,CA,94303,2274,CLARKE AVE,37.46798,-122.13456
2275 CLARKE AVE,EAST PALO ALTO,CA,94303,2275,CLARKE AVE,37.46811,-122.13511
2279 CLARKE AVE,EAST PALO ALTO,CA,94303,2279,CLARKE AVE,37.46825,-122.13511
2280 CLARKE AVE,EAST PALO ALTO,CA,94303,2280,CLARKE AVE,37.4681,-122.1346
2281 CLARKE AVE,EAST PALO ALTO,CA,94303,2281,CLARKE AVE,37.46842,-122.13512
2288 CLARKE AVE,EAST PALO ALTO,CA,94303,2288,CLARKE AVE,37.46841,-122.13462
2315 CLARKE AVE,EAST PALO ALTO,CA,94303,2315,CLARKE AVE,37.46901,-122.13513
2319 CLARKE AVE,EAST PALO ALTO,CA,94303,2319,CLARKE AVE,37.46916,-122.13515
2320 CLARKE AVE,EAST PALO ALTO,CA,94303,2320,CLARKE AVE,37.46904,-122.13457
2325 CLARKE AVE,EAST PALO ALTO,CA,94303,2325,CLARKE AVE,37.46953,-122.13524
2331 CLARKE AVE,PALO ALTO,CA,94303,2331,CLARKE AVE,37.46969,-122.13531
2334 CLARKE AVE,EAST PALO ALTO,CA,94303,2334,CLARKE AVE,37.46962,-122.13465
2336 CLARKE AVE,EAST PALO ALTO,CA,94303,2336,CLARKE AVE,37.46978,-122.13462
2338 CLARKE AVE,EAST PALO ALTO,CA,94303,2338,CLARKE AVE,37.47,-122.13463
2369 CLARKE AVE,EAST PALO ALTO,CA,94303,2369,CLARKE AVE,37.47062,-122.13521
937 CLARKE CT,EAST PALO ALTO,CA,94303,937,CLARKE CT,37.46588,-122.13427
940 CLARKE CT,EAST PALO ALTO,CA,94303,940,CLARKE CT,37.46559,-122.134
945 CLARKE CT,EAST PALO ALTO,CA,94303,945,CLARKE CT,37.46591,-122.13402
949 CLARKE CT,EAST PALO ALTO,CA,94303,949,CLARKE CT,37.46592,-122.13376
960 CLARKE CT,EAST PALO ALTO,CA,94303,960,CLARKE CT,37.46578,-122.13376
2325 CONNOLLY WAY,EAST PALO ALTO,CA,94303,2325,CONNOLLY WAY,37.46749,-122.13104
2335 CONNOLLY WAY,EAST PALO ALTO,CA,94303,2335,CONNOLLY WAY,37.46768,-122.13103
2345 CONNOLLY WAY,EAST PALO ALTO,CA,94303,2345,CONNOLLY WAY,37.46774,-122.13082
2120 COOLEY AVE,EAST PALO ALTO,CA,94303,2120,COOLEY AVE,37.46292,-122.139
2122 COOLEY AVE,EAST PALO ALTO,CA,94303,2122,COOLEY AVE,37.46306,-122.13898
2124 COOLEY AVE,EAST PALO ALTO,CA,94303,2124,COOLEY AVE,37.46319,-122.13902
2134 COOLEY AVE,EAST PALO ALTO,CA,94303,2134,COOLEY AVE,37.46347,-122.139
2137 COOLEY AVE,EAST PALO ALTO,CA,94303,2137,COOLEY AVE,37.46373,-122.13958
2143 COOLEY AVE,EAST PALO ALTO,CA,94303,2143,COOLEY AVE,37.46386,-122.13957
2156 COOLEY AVE,EAST PALO ALTO,CA,94303,2156,COOLEY AVE,37.46446,-122.13904
2157 COOLEY AVE,EAST PALO ALTO,CA,94303,2157,COOLEY AVE,37.46417,-122.13957
2158 COOLEY AVE,PALO ALTO,CA,94303,2158,COOLEY AVE,37.4646,-122.13903
2160 COOLEY AVE,PALO ALTO,CA,94303,2160,COOLEY AVE,37.46474,-122.13903
2162 COOLEY AVE,EAST PALO ALTO,CA,94303,2162,COOLEY AVE,37.46487,-122.13903
2164 COOLEY AVE,EAST PALO ALTO,CA,94303,2164,COOLEY AVE,37.465,-122.13902
2168 COOLEY AVE,PALO ALTO,CA,94303,2168,COOLEY AVE,37.46513,-122.13905
2172 COOLEY AVE,EAST PALO ALTO,CA,94303,2172,COOLEY AVE,37.46528,-122.13904
2178 COOLEY AVE,EAST PALO ALTO,CA,94303,2178,COOLEY AVE,37.46554,-122.13907
2180 COOLEY AVE,EAST PALO ALTO,CA,94303,2180,COOLEY AVE,37.46565,-122.13894
2181 COOLEY AVE,EAST PALO ALTO,CA,94303,2181,COOLEY AVE,37.46496,-122.13962
2195 COOLEY AVE,EAST PALO ALTO,CA,94303,2195,COOLEY AVE,37.46529,-122.13952
2207 COOLEY AVE,EAST PALO ALTO,CA,94303,2207,COOLEY AVE,37.4657,-122.13964
2215 COOLEY AVE,EAST PALO ALTO,CA,94303,2215,COOLEY AVE,37.46595,-122.13965
2220 COOLEY AVE,EAST PALO ALTO,CA,94303,2220,COOLEY AVE,37.46631,-122.13907
2221 COOLEY AVE,EAST PALO ALTO,CA,94303,2221,COOLEY AVE,37.46609,-122.13968
2225 COOLEY AVE,EAST PALO ALTO,CA,94303,2225,COOLEY AVE,37.46623,-122.13966
2230 COOLEY AVE,EAST PALO ALTO,CA,94303,2230,COOLEY AVE,37.46645,-122.13908
2235 COOLEY AVE,EAST PALO ALTO,CA,94303,2235,COOLEY AVE,37.46654,-122.13955
2240 COOLEY AVE,EAST PALO ALTO,CA,94303,2240,COOLEY AVE,37.46659,-122.13908
2243 COOLEY AVE,EAST PALO ALTO,CA,94303,2243,COOLEY AVE,37.46678,-122.13967
2244 COOLEY AVE,EAST PALO ALTO,CA,94303,2244,COOLEY AVE,37.46671,-122.13907
2246 COOLEY AVE,EAST PALO ALTO,CA,94303,2246,COOLEY AVE,37.46701,-122.13911
2248 COOLEY AVE,EAST PALO ALTO,CA,94303,2248,COOLEY AVE,37.46714,-122.13909
2251 COOLEY AVE,EAST PALO ALTO,CA,94303,2251,COOLEY AVE,37.46706,-122.13962
2252 COOLEY AVE,EAST PALO ALTO,CA,94303,2252,COOLEY AVE,37.46728,-122.13912
2255 COOLEY AVE,EAST PALO ALTO,CA,94303,2255,COOLEY AVE,37.46721,-122.13964
2256 COOLEY AVE,EAST PALO ALTO,CA,94303,2256,COOLEY AVE,37.46741,-122.13909
2260 COOLEY AVE,EAST PALO ALTO,CA,94303,2260,COOLEY AVE,37.46763,-122.13884
2269 COOLEY AVE,EAST PALO ALTO,CA,94303,2269,COOLEY AVE,37.46748,-122.13968
2273 COOLEY AVE,EAST PALO ALTO,CA,94303,2273,COOLEY AVE,37.46762,-122.13967
2275 COOLEY AVE,EAST PALO ALTO,CA,94303,2275,COOLEY AVE,37.46775,-122.13967
2286 COOLEY AVE,EAST PALO ALTO,CA,94303,2286,COOLEY AVE,37.46778,-122.13909
2289 COOLEY AVE,PALO ALTO,CA,94303,2289,COOLEY AVE,37.46803,-122.13967
2296 COOLEY AVE,EAST PALO ALTO,CA,94303,2296,COOLEY AVE,37.46799,-122.13907
2310 COOLEY AVE,EAST PALO ALTO,CA,94303,2310,COOLEY AVE,37.46864,-122.1391
2320 COOLEY AVE,EAST PALO ALTO,CA,94303,2320,COOLEY AVE,37.46895,-122.13916
2324 COOLEY AVE,PALO ALTO,CA,94303,2324,COOLEY AVE,37.46909,-122.13914
2328 COOLEY AVE,EAST PALO ALTO,CA,94303,2328,COOLEY AVE,37.46922,-122.13916
2332 COOLEY AVE,EAST PALO ALTO,CA,94303,2332,COOLEY AVE,37.46937,-122.13916
2340 COOLEY AVE,EAST PALO ALTO,CA,94303,2340,COOLEY AVE,37.46957,-122.13911
2342 COOLEY AVE,EAST PALO ALTO,CA,94303,2342,COOLEY AVE,37.46979,-122.13923
2344 COOLEY AVE,EAST PALO ALTO,CA,94303,2344,COOLEY AVE,37.46995,-122.13921
2361 COOLEY AVE,EAST PALO ALTO,CA,94303,2361,COOLEY AVE,37.46979,-122.1398
2364 COOLEY AVE,EAST PALO ALTO,CA,94303,2364,COOLEY AVE,37.47055,-122.13917
2369 COOLEY AVE,EAST PALO ALTO,CA,94303,2369,COOLEY AVE,37.47008,-122.13972
2371 COOLEY AVE,EAST PALO ALTO,CA,94303,2371,COOLEY AVE,37.47019,-122.13971
1130 CYPRESS ST,EAST PALO ALTO,CA,94303,1130,CYPRESS ST,37.46582,-122.12964
1145 CYPRESS ST,EAST PALO ALTO,CA,94303,1145,CYPRESS ST,37.46628,-122.12941
1155 CYPRESS ST,EAST PALO ALTO,CA,94303,1155,CYPRESS ST,37.46627,-122.12923
1160 CYPRESS ST,EAST PALO ALTO,CA,94303,1160,CYPRESS ST,37.46587,-122.12918
1165 CYPRESS ST,EAST PALO ALTO,CA,94303,1165,CYPRESS ST,37.46626,-122.12905
1175 CYPRESS ST,EAST PALO ALTO,CA,94303,1175,CYPRESS ST,37.46629,-122.12887
1185 CYPRESS ST,EAST PALO ALTO,CA,94303,1185,CYPRESS ST,37.46628,-122.1287
1190 CYPRESS ST,EAST PALO ALTO,CA,94303,1190,CYPRESS ST,37.46591,-122.12847
1210 CYPRESS ST,EAST PALO ALTO,CA,94303,1210,CYPRESS ST,37.46589,-122.12829
1226 CYPRESS ST,EAST PALO ALTO,CA,94303,1226,CYPRESS ST,37.46591,-122.12783
1245 CYPRESS ST,EAST PALO ALTO,CA,94303,1245,CYPRESS ST,37.46629,-122.12751
1255 CYPRESS ST,EAST PALO ALTO,CA,94303,1255,CYPRESS ST,37.4663,-122.12735
1260 CYPRESS ST,EAST PALO ALTO,CA,94303,1260,CYPRESS ST,37.46594,-122.1272
1261 CYPRESS ST,EAST PALO ALTO,CA,94303,1261,CYPRESS ST,37.46632,-122.12718
404 DAISY LN,EAST PALO ALTO,CA,94303,404,DAISY LN,37.46123,-122.12644
410 DAISY LN,EAST PALO ALTO,CA,94303,410,DAISY LN,37.46153,-122.12644
411 DAISY LN,PALO ALTO,CA,94303,411,DAISY LN,37.46159,-122.1269
415 DAISY LN,EAST PALO ALTO,CA,94303,415,DAISY LN,37.46173,-122.12685
421 DAISY LN,PALO ALTO,CA,94303,421,DAISY LN,37.46202,-122.1269
431 DAISY LN,EAST PALO ALTO,CA,94303,431,DAISY LN,37.46243,-122.12688
438 DAISY LN,EAST PALO ALTO,CA,94303,438,DAISY LN,37.46191,-122.12645
446 DAISY LN,EAST PALO ALTO,CA,94303,446,DAISY LN,37.4622,-122.1263
450 DAISY LN,EAST PALO ALTO,CA,94303,450,DAISY LN,37.46232,-122.12608
454 DAISY LN,PALO ALTO,CA,94303,454,DAISY LN,37.46251,-122.12609
1 DAPHNE CT,EAST PALO ALTO,CA,94303,1,DAPHNE CT,37.4563,-122.12566
2 DAPHNE CT,EAST PALO ALTO,CA,94303,2,DAPHNE CT,37.45643,-122.12577
3 DAPHNE CT,EAST PALO ALTO,CA,94303,3,DAPHNE CT,37.45656,-122.12592
4 DAPHNE CT,PALO ALTO,CA,94303,4,DAPHNE CT,37.45659,-122.12617
5 DAPHNE CT,PALO ALTO,CA,94303,5,DAPHNE CT,37.45643,-122.12629
6 DAPHNE CT,EAST PALO ALTO,CA,94303,6,DAPHNE CT,37.45622,-122.1263
8 DAPHNE CT,EAST PALO ALTO,CA,94303,8,DAPHNE CT,37.45597,-122.126
103 DAPHNE WAY,EAST PALO ALTO,CA,94303,103,DAPHNE WAY,37.4539,-122.12272
104 DAPHNE WAY,EAST PALO ALTO,CA,94303,104,DAPHNE WAY,37.45425,-122.12287
107 DAPHNE WAY,PALO ALTO,CA,94303,107,DAPHNE WAY,37.45388,-122.1229
111 DAPHNE WAY,EAST PALO ALTO,CA,94303,111,DAPHNE WAY,37.45381,-122.12305
115 DAPHNE WAY,EAST PALO ALTO,CA,94303,115,DAPHNE WAY,37.45372,-122.1232
119 DAPHNE WAY,EAST PALO ALTO,CA,94303,119,DAPHNE WAY,37.45365,-122.12335
126 DAPHNE WAY,PALO ALTO,CA,94303,126,DAPHNE WAY,37.45393,-122.12364
127 DAPHNE WAY,EAST PALO ALTO,CA,94303,127,DAPHNE WAY,37.4535,-122.12365
135 DAPHNE WAY,EAST PALO ALTO,CA,94303,135,DAPHNE WAY,37.45336,-122.12398
139 DAPHNE WAY,EAST PALO ALTO,CA,94303,139,DAPHNE WAY,37.45329,-122.12415
144 DAPHNE WAY,EAST PALO ALTO,CA,94303,144,DAPHNE WAY,37.45368,-122.12441
147 DAPHNE WAY,EAST PALO ALTO,CA,94303,147,DAPHNE WAY,37.4533,-122.12458
148 DAPHNE WAY,EAST PALO ALTO,CA,94303,148,DAPHNE WAY,37.45371,-122.12458
151 DAPHNE WAY,PALO ALTO,CA,94303,151,DAPHNE WAY,37.45336,-122.1248
159 DAPHNE WAY,EAST PALO ALTO,CA,94303,159,DAPHNE WAY,37.45342,-122.12505
161 DAPHNE WAY,EAST PALO ALTO,CA,94303,161,DAPHNE WAY,37.45354,-122.12524
167 DAPHNE WAY,EAST PALO ALTO,CA,94303,167,DAPHNE WAY,37.45382,-122.12558
211 DAPHNE WAY,EAST PALO ALTO,CA,94303,211,DAPHNE WAY,37.45398,-122.12572
212 DAPHNE WAY,EAST PALO ALTO,CA,94303,212,DAPHNE WAY,37.45406,-122.12525
215 DAPHNE WAY,EAST PALO ALTO,CA,94303,215,DAPHNE WAY,37.45426,-122.12599
220 DAPHNE WAY,EAST PALO ALTO,CA,94303,220,DAPHNE WAY,37.45447,-122.12557
224 DAPHNE WAY,EAST PALO ALTO,CA,94303,224,DAPHNE WAY,37.45458,-122.12569
227 DAPHNE WAY,EAST PALO ALTO,CA,94303,227,DAPHNE WAY,37.45453,-122.12625
228 DAPHNE WAY,EAST PALO ALTO,CA,94303,228,DAPHNE WAY,37.45471,-122.12577
231 DAPHNE WAY,EAST PALO ALTO,CA,94303,231,DAPHNE WAY,37.45468,-122.12629
232 DAPHNE WAY,EAST PALO ALTO,CA,94303,232,DAPHNE WAY,37.45486,-122.12578
235 DAPHNE WAY,EAST PALO ALTO,CA,94303,235,DAPHNE WAY,37.45485,-122.12634
239 DAPHNE WAY,PALO ALTO,CA,94303,239,DAPHNE WAY,37.45499,-122.12631
244 DAPHNE WAY,EAST PALO ALTO,CA,94303,244,DAPHNE WAY,37.45528,-122.12582
247 DAPHNE WAY,EAST PALO ALTO,CA,94303,247,DAPHNE WAY,37.45526,-122.1263
251 DAPHNE WAY,PALO ALTO,CA,94303,251,DAPHNE WAY,37.4554,-122.12628
252 DAPHNE WAY,EAST PALO ALTO,CA,94303,252,DAPHNE WAY,37.45555,-122.12574
255 DAPHNE WAY,EAST PALO ALTO,CA,94303,255,DAPHNE WAY,37.45555,-122.12627
259 DAPHNE WAY,EAST PALO ALTO,CA,94303,259,DAPHNE WAY,37.45569,-122.12623
260 DAPHNE WAY,PALO ALTO,CA,94303,260,DAPHNE WAY,37.4558,-122.12558
263 DAPHNE WAY,EAST PALO ALTO,CA,94303,263,DAPHNE WAY,37.45569,-122.12623
267 DAPHNE WAY,EAST PALO ALTO,CA,94303,267,DAPHNE WAY,37.45584,-122.12619
268 DAPHNE WAY,EAST PALO ALTO,CA,94303,268,DAPHNE WAY,37.45604,-122.12537
279 DAPHNE WAY,PALO ALTO,CA,94303,279,DAPHNE WAY,37.45644,-122.1255
283 DAPHNE WAY,EAST PALO ALTO,CA,94303,283,DAPHNE WAY,37.45657,-122.12537
15 DINES CT,EAST PALO ALTO,CA,94303,15,DINES CT,37.46381,-122.13398
120 DONOHOE ST,EAST PALO ALTO,CA,94303,120,DONOHOE ST,37.46322,-122.15098
132 DONOHOE ST,EAST PALO ALTO,CA,94303,132,DONOHOE ST,37.46344,-122.15061
136 DONOHOE ST,EAST PALO ALTO,CA,94303,136,DONOHOE ST,37.46337,-122.15031
141 DONOHOE ST,EAST PALO ALTO,CA,94303,141,DONOHOE ST,37.4638,-122.15026
142 DONOHOE ST,EAST PALO ALTO,CA,94303,142,DONOHOE ST,37.46329,-122.15012
201 DONOHOE ST,EAST PALO ALTO,CA,94303,201,DONOHOE ST,37.46377,-122.14989
206 DONOHOE ST,EAST PALO ALTO,CA,94303,206,DONOHOE ST,37.46304,-122.14993
207 DONOHOE ST,EAST PALO ALTO,CA,94303,207,DONOHOE ST,37.46371,-122.14972
208 DONOHOE ST,EAST PALO ALTO,CA,94303,208,DONOHOE ST,37.46364,-122.14891
210 DONOHOE ST,EAST PALO ALTO,CA,94303,210,DONOHOE ST,37.46339,-122.14987
225 DONOHOE ST,PALO ALTO,CA,94303,225,DONOHOE ST,37.46369,-122.14953
231 DONOHOE ST,EAST PALO ALTO,CA,94303,231,DONOHOE ST,37.46372,-122.1493
242 DONOHOE ST,EAST PALO ALTO,CA,94303,242,DONOHOE ST,37.46316,-122.14922
250 DONOHOE ST,EAST PALO ALTO,CA,94303,250,DONOHOE ST,37.46318,-122.1489
255 DONOHOE ST,EAST PALO ALTO,CA,94303,255,DONOHOE ST,37.46358,-122.14876
275 DONOHOE ST,EAST PALO ALTO,CA,94303,275,DONOHOE ST,37.46359,-122.14854
278 DONOHOE ST,EAST PALO ALTO,CA,94303,278,DONOHOE ST,37.46315,-122.14849
310 DONOHOE ST,EAST PALO ALTO,CA,94303,310,DONOHOE ST,37.4631,-122.14812
312 DONOHOE ST,EAST PALO ALTO,CA,94303,312,DONOHOE ST,37.46308,-122.14798
314 DONOHOE ST,EAST PALO ALTO,CA,94303,314,DONOHOE ST,37.46282,-122.14803
330 DONOHOE ST,EAST PALO ALTO,CA,94303,330,DONOHOE ST,37.4628,-122.14741
648 DONOHOE ST,EAST PALO ALTO,CA,94303,648,DONOHOE ST,37.46237,-122.14086
755 DONOHOE ST,EAST PALO ALTO,CA,94303,755,DONOHOE ST,37.46261,-122.13774
763 DONOHOE ST,PALO ALTO,CA,94303,763,DONOHOE ST,37.46306,-122.1374
833 DONOHOE ST,EAST PALO ALTO,CA,94303,833,DONOHOE ST,37.46281,-122.13622
835 DONOHOE ST,EAST PALO ALTO,CA,94303,835,DONOHOE ST,37.46289,-122.13622
837 DONOHOE ST,EAST PALO ALTO,CA,94303,837,DONOHOE ST,37.46306,-122.13622
839 DONOHOE ST,EAST PALO ALTO,CA,94303,839,DONOHOE ST,37.46327,-122.13624
841 DONOHOE ST,EAST PALO ALTO,CA,94303,841,DONOHOE ST,37.46327,-122.13614
845 DONOHOE ST,EAST PALO ALTO,CA,94303,845,DONOHOE ST,37.46269,-122.13594
860 DONOHOE ST,EAST PALO ALTO,CA,94303,860,DONOHOE ST,37.46226,-122.13551
862 DONOHOE ST,EAST PALO ALTO,CA,94303,862,DONOHOE ST,37.46232,-122.1353
864 DONOHOE ST,EAST PALO ALTO,CA,94303,864,DONOHOE ST,37.46204,-122.13542
872 DONOHOE ST,EAST PALO ALTO,CA,94303,872,DONOHOE ST,37.46168,-122.13526
890 DONOHOE ST,PALO ALTO,CA,94303,890,DONOHOE ST,37.46231,-122.13506
893 DONOHOE ST,EAST PALO ALTO,CA,94303,893,DONOHOE ST,37.46267,-122.13559
895 DONOHOE ST,EAST PALO ALTO,CA,94303,895,DONOHOE ST,37.46264,-122.13497
2027 DUMBARTON AVE,EAST PALO ALTO,CA,94303,2027,DUMBARTON AVE,37.46342,-122.14746
2031 DUMBARTON AVE,EAST PALO ALTO,CA,94303,2031,DUMBARTON AVE,37.46369,-122.14747
2035 DUMBARTON AVE,EAST PALO ALTO,CA,94303,2035,DUMBARTON AVE,37.4638,-122.14746
2123 DUMBARTON AVE,EAST PALO ALTO,CA,94303,2123,DUMBARTON AVE,37.4649,-122.14717
2126 DUMBARTON AVE,EAST PALO ALTO,CA,94303,2126,DUMBARTON AVE,37.46483,-122.14665
2133 DUMBARTON AVE,EAST PALO ALTO,CA,94303,2133,DUMBARTON AVE,37.465,-122.14717
2154 DUMBARTON AVE,EAST PALO ALTO,CA,94303,2154,DUMBARTON AVE,37.4651,-122.14661
2175 DUMBARTON AVE,EAST PALO ALTO,CA,94303,2175,DUMBARTON AVE,37.46557,-122.14697
2176 DUMBARTON AVE,EAST PALO ALTO,CA,94303,2176,DUMBARTON AVE,37.46553,-122.14659
2183 DUMBARTON AVE,EAST PALO ALTO,CA,94303,2183,DUMBARTON AVE,37.46572,-122.14698
2184 DUMBARTON AVE,EAST PALO ALTO,CA,94303,2184,DUMBARTON AVE,37.46564,-122.14647
2187 DUMBARTON AVE,EAST PALO ALTO,CA,94303,2187,DUMBARTON AVE,37.46586,-122.14693
2188 DUMBARTON AVE,EAST PALO ALTO,CA,94303,2188,DUMBARTON AVE,37.46579,-122.14651
2191 DUMBARTON AVE,EAST PALO ALTO,CA,94303,2191,DUMBARTON AVE,37.46597,-122.14689
2205 DUMBARTON AVE,EAST PALO ALTO,CA,94303,2205,DUMBARTON AVE,37.46627,-122.14685
2208 DUMBARTON AVE,EAST PALO ALTO,CA,94303,2208,DUMBARTON AVE,37.46632,-122.14637
2209 DUMBARTON AVE,EAST PALO ALTO,CA,94303,2209,DUMBARTON AVE,37.46638,-122.14681
2212 DUMBARTON AVE,EAST PALO ALTO,CA,94303,2212,DUMBARTON AVE,37.46645,-122.14631
2213 DUMBARTON AVE,EAST PALO ALTO,CA,94303,2213,DUMBARTON AVE,37.4665,-122.14676
2231 DUMBARTON AVE,EAST PALO ALTO,CA,94303,2231,DUMBARTON AVE,37.46678,-122.14674
2233 DUMBARTON AVE,EAST PALO ALTO,CA,94303,2233,DUMBARTON AVE,37.46694,-122.14669
2237 DUMBARTON AVE,PALO ALTO,CA,94303,2237,DUMBARTON AVE,37.46707,-122.14664
2240 DUMBARTON AVE,EAST PALO ALTO,CA,94303,2240,DUMBARTON AVE,37.46712,-122.14618
2243 DUMBARTON AVE,EAST PALO ALTO,CA,94303,2243,DUMBARTON AVE,37.46719,-122.1466
2257 DUMBARTON AVE,EAST PALO ALTO,CA,94303,2257,DUMBARTON AVE,37.4676,-122.14654
2260 DUMBARTON AVE,EAST PALO ALTO,CA,94303,2260,DUMBARTON AVE,37.46766,-122.14604
2269 DUMBARTON AVE,EAST PALO ALTO,CA,94303,2269,DUMBARTON AVE,37.46771,-122.14651
2273 DUMBARTON AVE,EAST PALO ALTO,CA,94303,2273,DUMBARTON AVE,37.46786,-122.1465
2274 DUMBARTON AVE,PALO ALTO,CA,94303,2274,DUMBARTON AVE,37.46793,-122.14594
2280 DUMBARTON AVE,EAST PALO ALTO,CA,94303,2280,DUMBARTON AVE,37.46804,-122.14578
2281 DUMBARTON AVE,EAST PALO ALTO,CA,94303,2281,DUMBARTON AVE,37.468,-122.14646
2284 DUMBARTON AVE,EAST PALO ALTO,CA,94303,2284,DUMBARTON AVE,37.46819,-122.1459
2290 DUMBARTON AVE,EAST PALO ALTO,CA,94303,2290,DUMBARTON AVE,37.4684,-122.14591
2291 DUMBARTON AVE,EAST PALO ALTO,CA,94303,2291,DUMBARTON AVE,37.46828,-122.14631
2331 DUMBARTON AVE,EAST PALO ALTO,CA,94303,2331,DUMBARTON AVE,37.469,-122.14627
2338 DUMBARTON AVE,EAST PALO ALTO,CA,94303,2338,DUMBARTON AVE,37.46907,-122.1458
2345 DUMBARTON AVE,EAST PALO ALTO,CA,94303,2345,DUMBARTON AVE,37.46915,-122.14624
2363 DUMBARTON AVE,EAST PALO ALTO,CA,94303,2363,DUMBARTON AVE,37.4694,-122.14622
2367 DUMBARTON AVE,PALO ALTO,CA,94303,2367,DUMBARTON AVE,37.46954,-122.14617
2375 DUMBARTON AVE,EAST PALO ALTO,CA,94303,2375,DUMBARTON AVE,37.46978,-122.1461
2383 DUMBARTON AVE,EAST PALO ALTO,CA,94303,2383,DUMBARTON AVE,37.47008,-122.146
2386 DUMBARTON AVE,EAST PALO ALTO,CA,94303,2386,DUMBARTON AVE,37.47013,-122.14563
2390 DUMBARTON AVE,EAST PALO ALTO,CA,94303,2390,DUMBARTON AVE,37.47049,-122.14553
2391 DUMBARTON AVE,EAST PALO ALTO,CA,94303,2391,DUMBARTON AVE,37.47034,-122.14595
1765 EAST BAYSHORE RD,EAST PALO ALTO,CA,94303,1765,EAST BAYSHORE RD,37.46115,-122.13525
103 ELLIOTT DR,MENLO PARK,CA,94025,103,ELLIOTT DR,37.46093,-122.15008
127 ELLIOTT DR,MENLO PARK,CA,94025,127,ELLIOTT DR,37.46068,-122.15005
128 ELLIOTT DR,MENLO PARK,CA,94025,128,ELLIOTT DR,37.46076,-122.15076
139 ELLIOTT DR,MENLO PARK,CA,94025,139,ELLIOTT DR,37.46049,-122.15021
140 ELLIOTT DR,MENLO PARK,CA,94025,140,ELLIOTT DR,37.46061,-122.15074
152 ELLIOTT DR,MENLO PARK,CA,94025,152,ELLIOTT DR,37.4605,-122.15088
162 ELLIOTT DR,MENLO PARK,CA,94025,162,ELLIOTT DR,37.46035,-122.1509
172 ELLIOTT DR,MENLO PARK,CA,94025,172,ELLIOTT DR,37.46025,-122.15096
175 ELLIOTT DR,MENLO PARK,CA,94025,175,ELLIOTT DR,37.46018,-122.15043
180 ELLIOTT DR,MENLO PARK,CA,94025,180,ELLIOTT DR,37.4601,-122.15102
188 ELLIOTT DR,MENLO PARK,CA,94025,188,ELLIOTT DR,37.45987,-122.15099
198 ELLIOTT DR,MENLO PARK,CA,94025,198,ELLIOTT DR,37.45979,-122.15083
204 ELLIOTT DR,MENLO PARK,CA,94025,204,ELLIOTT DR,37.45973,-122.15062
216 ELLIOTT DR,MENLO PARK,CA,94025,216,ELLIOTT DR,37.45973,-122.15045
227 ELLIOTT DR,MENLO PARK,CA,94025,227,ELLIOTT DR,37.46015,-122.15019
228 ELLIOTT DR,MENLO PARK,CA,94025,228,ELLIOTT DR,37.4597,-122.15028
239 ELLIOTT DR,MENLO PARK,CA,94025,239,ELLIOTT DR,37.46017,-122.14996
240 ELLIOTT DR,MENLO PARK,CA,94025,240,ELLIOTT DR,37.45967,-122.15011
252 ELLIOTT DR,MENLO PARK,CA,94025,252,ELLIOTT DR,37.45969,-122.14994
259 ELLIOTT DR,MENLO PARK,CA,94025,259,ELLIOTT DR,37.46008,-122.14966
115 EMMA LN,MENLO PARK,CA,94025,115,EMMA LN,37.45726,-122.14749
120 EMMA LN,MENLO PARK,CA,94025,120,EMMA LN,37.45729,-122.14695
135 EMMA LN,MENLO PARK,CA,94025,135,EMMA LN,37.45762,-122.14753
145 EMMA LN,MENLO PARK,CA,94025,145,EMMA LN,37.45776,-122.14737
150 EMMA LN,MENLO PARK,CA,94025,150,EMMA LN,37.45772,-122.14711
1917 EUCLID AVE,MENLO PARK,CA,94025,1917,EUCLID AVE,37.45882,-122.14525
1947 EUCLID AVE,MENLO PARK,CA,94025,1947,EUCLID AVE,37.45927,-122.14519
1985 EUCLID AVE,MENLO PARK,CA,94025,1985,EUCLID AVE,37.46027,-122.14499
1987 EUCLID AVE,MENLO PARK,CA,94025,1987,EUCLID AVE,37.46026,-122.14507
2137 EUCLID AVE,EAST PALO ALTO,CA,94303,2137,EUCLID AVE,37.46392,-122.14418
2139 EUCLID AVE,EAST PALO ALTO,CA,94303,2139,EUCLID AVE,37.46406,-122.14413
2145 EUCLID AVE,EAST PALO ALTO,CA,94303,2145,EUCLID AVE,37.46418,-122.14411
2151 EUCLID AVE,PALO ALTO,CA,94303,2151,EUCLID AVE,37.46441,-122.14403
2161 EUCLID AVE,EAST PALO ALTO,CA,94303,2161,EUCLID AVE,37.46461,-122.14399
2165 EUCLID AVE,EAST PALO ALTO,CA,94303,2165,EUCLID AVE,37.46474,-122.14392
2173 EUCLID AVE,EAST PALO ALTO,CA,94303,2173,EUCLID AVE,37.4649,-122.14396
2181 EUCLID AVE,EAST PALO ALTO,CA,94303,2181,EUCLID AVE,37.46515,-122.14389
2185 EUCLID AVE,EAST PALO ALTO,CA,94303,2185,EUCLID AVE,37.46529,-122.14379
2190 EUCLID AVE,EAST PALO ALTO,CA,94303,2190,EUCLID AVE,37.46545,-122.14326
2195 EUCLID AVE,EAST PALO ALTO,CA,94303,2195,EUCLID AVE,37.46549,-122.14371
2207 EUCLID AVE,EAST PALO ALTO,CA,94303,2207,EUCLID AVE,37.46602,-122.14369
2211 EUCLID AVE,EAST PALO ALTO,CA,94303,2211,EUCLID AVE,37.46614,-122.14368
2215 EUCLID AVE,EAST PALO ALTO,CA,94303,2215,EUCLID AVE,37.46628,-122.14365
2221 EUCLID AVE,EAST PALO ALTO,CA,94303,2221,EUCLID AVE,37.46639,-122.14357
2224 EUCLID AVE,EAST PALO ALTO,CA,94303,2224,EUCLID AVE,37.46632,-122.14304
2230 EUCLID AVE,EAST PALO ALTO,CA,94303,2230,EUCLID AVE,37.46654,-122.14254
2231 EUCLID AVE,EAST PALO ALTO,CA,94303,2231,EUCLID AVE,37.46654,-122.14357
2232 EUCLID AVE,EAST PALO ALTO,CA,94303,2232,EUCLID AVE,37.46655,-122.14296
2234 EUCLID AVE,EAST PALO ALTO,CA,94303,2234,EUCLID AVE,37.4667,-122.1427
2241 EUCLID AVE,EAST PALO ALTO,CA,94303,2241,EUCLID AVE,37.46684,-122.14348
2246 EUCLID AVE,EAST PALO ALTO,CA,94303,2246,EUCLID AVE,37.46713,-122.14244
2260 EUCLID AVE,EAST PALO ALTO,CA,94303,2260,EUCLID AVE,37.46753,-122.1428
2261 EUCLID AVE,PALO ALTO,CA,94303,2261,EUCLID AVE,37.46751,-122.14333
2265 EUCLID AVE,EAST PALO ALTO,CA,94303,2265,EUCLID AVE,37.46765,-122.14329
2275 EUCLID AVE,PALO ALTO,CA,94303,2275,EUCLID AVE,37.4679,-122.14324
2278 EUCLID AVE,EAST PALO ALTO,CA,94303,2278,EUCLID AVE,37.46807,-122.14266
2291 EUCLID AVE,PALO ALTO,CA,94303,2291,EUCLID AVE,37.46832,-122.14319
430 FALK CT,MENLO PARK,CA,94025,430,FALK CT,37.45929,-122.14695
431 FALK CT,MENLO PARK,CA,94025,431,FALK CT,37.45965,-122.14674
442 FALK CT,MENLO PARK,CA,94025,442,FALK CT,37.45923,-122.1465
448 FALK CT,MENLO PARK,CA,94025,448,FALK CT,37.4592,-122.14631
454 FALK CT,MENLO PARK,CA,94025,454,FALK CT,37.45912,-122.1461
460 FALK CT,MENLO PARK,CA,94025,460,FALK CT,37.45921,-122.14583
2403 FORDHAM ST,PALO ALTO,CA,94303,2403,FORDHAM ST,37.47192,-122.13736
2412 FORDHAM ST,EAST PALO ALTO,CA,94303,2412,FORDHAM ST,37.47208,-122.13679
2413 FORDHAM ST,EAST PALO ALTO,CA,94303,2413,FORDHAM ST,37.47212,-122.1374
2422 FORDHAM ST,EAST PALO ALTO,CA,94303,2422,FORDHAM ST,37.47221,-122.1368
2432 FORDHAM ST,EAST PALO ALTO,CA,94303,2432,FORDHAM ST,37.47235,-122.13679
2433 FORDHAM ST,EAST PALO ALTO,CA,94303,2433,FORDHAM ST,37.4725,-122.13743
2442 FORDHAM ST,EAST PALO ALTO,CA,94303,2442,FORDHAM ST,37.47249,-122.13682
2452 FORDHAM ST,EAST PALO ALTO,CA,94303,2452,FORDHAM ST,37.47262,-122.13681
2472 FORDHAM ST,EAST PALO ALTO,CA,94303,2472,FORDHAM ST,37.4729,-122.13681
2475 FORDHAM ST,PALO ALTO,CA,94303,2475,FORDHAM ST,37.47294,-122.13741
2482 FORDHAM ST,PALO ALTO,CA,94303,2482,FORDHAM ST,37.47304,-122.13682
2483 FORDHAM ST,EAST PALO ALTO,CA,94303,2483,FORDHAM ST,37.47308,-122.13742
420 FRENCH CT,MENLO PARK,CA,94025,420,FRENCH CT,37.45906,-122.14757
424 FRENCH CT,MENLO PARK,CA,94025,424,FRENCH CT,37.45902,-122.14726
1111 GAILLARDIA WAY,EAST PALO ALTO,CA,94303,1111,GAILLARDIA WAY,37.45855,-122.12945
1115 GAILLARDIA WAY,EAST PALO ALTO,CA,94303,1115,GAILLARDIA WAY,37.45869,-122.12938
1116 GAILLARDIA WAY,EAST PALO ALTO,CA,94303,1116,GAILLARDIA WAY,37.45809,-122.12928
1119 GAILLARDIA WAY,EAST PALO ALTO,CA,94303,1119,GAILLARDIA WAY,37.45882,-122.12931
1120 GAILLARDIA WAY,PALO ALTO,CA,94303,1120,GAILLARDIA WAY,37.4582,-122.12916
1123 GAILLARDIA WAY,EAST PALO ALTO,CA,94303,1123,GAILLARDIA WAY,37.45895,-122.12924
1128 GAILLARDIA WAY,EAST PALO ALTO,CA,94303,1128,GAILLARDIA WAY,37.45844,-122.12895
1140 GAILLARDIA WAY,EAST PALO ALTO,CA,94303,1140,GAILLARDIA WAY,37.45889,-122.12871
100 GARDEN ST,EAST PALO ALTO,CA,94303,100,GARDEN ST,37.46749,-122.1504
101 GARDEN ST,EAST PALO ALTO,CA,94303,101,GARDEN ST,37.46778,-122.15034
195 GARDEN ST,EAST PALO ALTO,CA,94303,195,GARDEN ST,37.46759,-122.14914
303 GARDEN ST,EAST PALO ALTO,CA,94303,303,GARDEN ST,37.46747,-122.14615
315 GARDEN ST,EAST PALO ALTO,CA,94303,315,GARDEN ST,37.4674,-122.14596
331 GARDEN ST,EAST PALO ALTO,CA,94303,331,GARDEN ST,37.46739,-122.14561
363 GARDEN ST,EAST PALO ALTO,CA,94303,363,GARDEN ST,37.46745,-122.14542
369 GARDEN ST,EAST PALO ALTO,CA,94303,369,GARDEN ST,37.46722,-122.1454
400 GARDEN ST,EAST PALO ALTO,CA,94303,400,GARDEN ST,37.46696,-122.1452
410 GARDEN ST,EAST PALO ALTO,CA,94303,410,GARDEN ST,37.46691,-122.14503
425 GARDEN ST,EAST PALO ALTO,CA,94303,425,GARDEN ST,37.46721,-122.1447
444 GARDEN ST,EAST PALO ALTO,CA,94303,444,GARDEN ST,37.46682,-122.14451
452 GARDEN ST,EAST PALO ALTO,CA,94303,452,GARDEN ST,37.46665,-122.14436
482 GARDEN ST,EAST PALO ALTO,CA,94303,482,GARDEN ST,37.46659,-122.14383
901 GARDEN ST,EAST PALO ALTO,CA,94303,901,GARDEN ST,37.46701,-122.13458
905 GARDEN ST,EAST PALO ALTO,CA,94303,905,GARDEN ST,37.4671,-122.13434
909 GARDEN ST,EAST PALO ALTO,CA,94303,909,GARDEN ST,37.4671,-122.13417
915 GARDEN ST,EAST PALO ALTO,CA,94303,915,GARDEN ST,37.46711,-122.134
926 GARDEN ST,EAST PALO ALTO,CA,94303,926,GARDEN ST,37.46671,-122.13433
930 GARDEN ST,EAST PALO ALTO,CA,94303,930,GARDEN ST,37.46672,-122.13416
962 GARDEN ST,EAST PALO ALTO,CA,94303,962,GARDEN ST,37.46669,-122.13364
963 GARDEN ST,EAST PALO ALTO,CA,94303,963,GARDEN ST,37.46767,-122.13358
965 GARDEN ST,EAST PALO ALTO,CA,94303,965,GARDEN ST,37.46739,-122.13355
967 GARDEN ST,EAST PALO ALTO,CA,94303,967,GARDEN ST,37.46708,-122.13355
997 GARDEN ST,EAST PALO ALTO,CA,94303,997,GARDEN ST,37.46708,-122.13286
998 GARDEN ST,PALO ALTO,CA,94303,998,GARDEN ST,37.46668,-122.13284
1000 GARDEN ST,EAST PALO ALTO,CA,94303,1000,GARDEN ST,37.46674,-122.13266
1001 GARDEN ST,EAST PALO ALTO,CA,94303,1001,GARDEN ST,37.46761,-122.13267
1038 GARDEN ST,EAST PALO ALTO,CA,94303,1038,GARDEN ST,37.46676,-122.13194
1040 GARDEN ST,EAST PALO ALTO,CA,94303,1040,GARDEN ST,37.46674,-122.13171
1045 GARDEN ST,EAST PALO ALTO,CA,94303,1045,GARDEN ST,37.46714,-122.13174
1083 GARDEN ST,EAST PALO ALTO,CA,94303,1083,GARDEN ST,37.46715,-122.13088
1097 GARDEN ST,EAST PALO ALTO,CA,94303,1097,GARDEN ST,37.46715,-122.1306
1099 GARDEN ST,EAST PALO ALTO,CA,94303,1099,GARDEN ST,37.46716,-122.13042
1104 GARDEN ST,EAST PALO ALTO,CA,94303,1104,GARDEN ST,37.46678,-122.12987
1105 GARDEN ST,EAST PALO ALTO,CA,94303,1105,GARDEN ST,37.46717,-122.13004
1115 GARDEN ST,EAST PALO ALTO,CA,94303,1115,GARDEN ST,37.46716,-122.12988
1160 GARDEN ST,EAST PALO ALTO,CA,94303,1160,GARDEN ST,37.46673,-122.12941
1175 GARDEN ST,PALO ALTO,CA,94303,1175,GARDEN ST,37.46723,-122.12901
1190 GARDEN ST,EAST PALO ALTO,CA,94303,1190,GARDEN ST,37.46679,-122.1287
1195 GARDEN ST,EAST PALO ALTO,CA,94303,1195,GARDEN ST,37.46713,-122.12879
1270 GARDEN ST,EAST PALO ALTO,CA,94303,1270,GARDEN ST,37.46679,-122.12806
1274 GARDEN ST,EAST PALO ALTO,CA,94303,1274,GARDEN ST,37.46678,-122.12787
1284 GARDEN ST,EAST PALO ALTO,CA,94303,1284,GARDEN ST,37.46678,-122.12738
1296 GARDEN ST,EAST PALO ALTO,CA,94303,1296,GARDEN ST,37.46674,-122.12669
4 GARDENIA CT,EAST PALO ALTO,CA,94303,4,GARDENIA CT,37.45738,-122.12698
5 GARDENIA CT,EAST PALO ALTO,CA,94303,5,GARDENIA CT,37.4575,-122.12679
8 GARDENIA CT,EAST PALO ALTO,CA,94303,8,GARDENIA CT,37.45788,-122.12714
103 GARDENIA WAY,EAST PALO ALTO,CA,94303,103,GARDENIA WAY,37.45669,-122.12885
104 GARDENIA WAY,PALO ALTO,CA,94303,104,GARDENIA WAY,37.45634,-122.1288
111 GARDENIA WAY,EAST PALO ALTO,CA,94303,111,GARDENIA WAY,37.45687,-122.12852
112 GARDENIA WAY,PALO ALTO,CA,94303,112,GARDENIA WAY,37.45643,-122.12838
115 GARDENIA WAY,EAST PALO ALTO,CA,94303,115,GARDENIA WAY,37.457,-122.12842
116 GARDENIA WAY,PALO ALTO,CA,94303,116,GARDENIA WAY,37.45652,-122.12824
119 GARDENIA WAY,EAST PALO ALTO,CA,94303,119,GARDENIA WAY,37.45714,-122.12834
120 GARDENIA WAY,EAST PALO ALTO,CA,94303,120,GARDENIA WAY,37.45662,-122.1281
123 GARDENIA WAY,EAST PALO ALTO,CA,94303,123,GARDENIA WAY,37.45728,-122.1283
124 GARDENIA WAY,EAST PALO ALTO,CA,94303,124,GARDENIA WAY,37.45675,-122.12801
127 GARDENIA WAY,EAST PALO ALTO,CA,94303,127,GARDENIA WAY,37.45742,-122.12825
128 GARDENIA WAY,EAST PALO ALTO,CA,94303,128,GARDENIA WAY,37.45688,-122.12793
131 GARDENIA WAY,EAST PALO ALTO,CA,94303,131,GARDENIA WAY,37.45753,-122.12814
132 GARDENIA WAY,EAST PALO ALTO,CA,94303,132,GARDENIA WAY,37.457,-122.12783
135 GARDENIA WAY,EAST PALO ALTO,CA,94303,135,GARDENIA WAY,37.45764,-122.12803
136 GARDENIA WAY,EAST PALO ALTO,CA,94303,136,GARDENIA WAY,37.45714,-122.12779
139 GARDENIA WAY,EAST PALO ALTO,CA,94303,139,GARDENIA WAY,37.45776,-122.12793
143 GARDENIA WAY,EAST PALO ALTO,CA,94303,143,GARDENIA WAY,37.45789,-122.12785
144 GARDENIA WAY,EAST PALO ALTO,CA,94303,144,GARDENIA WAY,37.4574,-122.12763
147 GARDENIA WAY,PALO ALTO,CA,94303,147,GARDENIA WAY,37.458,-122.12776
148 GARDENIA WAY,EAST PALO ALTO,CA,94303,148,GARDENIA WAY,37.45758,-122.12753
156 GARDENIA WAY,EAST PALO ALTO,CA,94303,156,GARDENIA WAY,37.45793,-122.12731
159 GARDENIA WAY,EAST PALO ALTO,CA,94303,159,GARDENIA WAY,37.45843,-122.12749
200 GARDENIA WAY,EAST PALO ALTO,CA,94303,200,GARDENIA WAY,37.45872,-122.12713
203 GARDENIA WAY,EAST PALO ALTO,CA,94303,203,GARDENIA WAY,37.45888,-122.12747
207 GARDENIA WAY,EAST PALO ALTO,CA,94303,207,GARDENIA WAY,37.4591,-122.12733
208 GARDENIA WAY,EAST PALO ALTO,CA,94303,208,GARDENIA WAY,37.45897,-122.12698
216 GARDENIA WAY,EAST PALO ALTO,CA,94303,216,GARDENIA WAY,37.45949,-122.12658
247 GARDENIA WAY,EAST PALO ALTO,CA,94303,247,GARDENIA WAY,37.46074,-122.12645
907 GATES ST,EAST PALO ALTO,CA,94303,907,GATES ST,37.4604,-122.13265
909 GATES ST,EAST PALO ALTO,CA,94303,909,GATES ST,37.4604,-122.13249
910 GATES ST,EAST PALO ALTO,CA,94303,910,GATES ST,37.46009,-122.13248
911 GATES ST,EAST PALO ALTO,CA,94303,911,GATES ST,37.46041,-122.13233
912 GATES ST,EAST PALO ALTO,CA,94303,912,GATES ST,37.4601,-122.13231
913 GATES ST,EAST PALO ALTO,CA,94303,913,GATES ST,37.46042,-122.13218
914 GATES ST,EAST PALO ALTO,CA,94303,914,GATES ST,37.46011,-122.13216
915 GATES ST,EAST PALO ALTO,CA,94303,915,GATES ST,37.46042,-122.13202
916 GATES ST,EAST PALO ALTO,CA,94303,916,GATES ST,37.46011,-122.132
917 GATES ST,EAST PALO ALTO,CA,94303,917,GATES ST,37.46043,-122.13187
918 GATES ST,EAST PALO ALTO,CA,94303,918,GATES ST,37.46012,-122.13185
922 GATES ST,EAST PALO ALTO,CA,94303,922,GATES ST,37.46012,-122.13154
926 GATES ST,EAST PALO ALTO,CA,94303,926,GATES ST,37.46014,-122.13122
927 GATES ST,EAST PALO ALTO,CA,94303,927,GATES ST,37.46045,-122.13108
929 GATES ST,EAST PALO ALTO,CA,94303,929,GATES ST,37.46046,-122.13092
930 GATES ST,EAST PALO ALTO,CA,94303,930,GATES ST,37.46015,-122.13091
931 GATES ST,EAST PALO ALTO,CA,94303,931,GATES ST,37.46047,-122.13076
932 GATES ST,EAST PALO ALTO,CA,94303,932,GATES ST,37.46016,-122.13075
933 GATES ST,EAST PALO ALTO,CA,94303,933,GATES ST,37.46046,-122.13061
2075 GLEN WAY,EAST PALO ALTO,CA,94303,2075,GLEN WAY,37.46404,-122.14518
2080 GLEN WAY,EAST PALO ALTO,CA,94303,2080,GLEN WAY,37.46378,-122.14471
2246 GLEN WAY,EAST PALO ALTO,CA,94303,2246,GLEN WAY,37.46715,-122.14388
2249 GLEN WAY,EAST PALO ALTO,CA,94303,2249,GLEN WAY,37.46715,-122.14433
2253 GLEN WAY,EAST PALO ALTO,CA,94303,2253,GLEN WAY,37.46725,-122.14433
2259 GLEN WAY,EAST PALO ALTO,CA,94303,2259,GLEN WAY,37.46734,-122.14428
2266 GLEN WAY,EAST PALO ALTO,CA,94303,2266,GLEN WAY,37.46752,-122.14376
2273 GLEN WAY,EAST PALO ALTO,CA,94303,2273,GLEN WAY,37.46764,-122.14422
2284 GLEN WAY,EAST PALO ALTO,CA,94303,2284,GLEN WAY,37.46794,-122.14373
2288 GLEN WAY,EAST PALO ALTO,CA,94303,2288,GLEN WAY,37.46822,-122.14363
2291 GLEN WAY,EAST PALO ALTO,CA,94303,2291,GLEN WAY,37.46829,-122.14403
2292 GLEN WAY,EAST PALO ALTO,CA,94303,2292,GLEN WAY,37.46837,-122.14356
2293 GLEN WAY,EAST PALO ALTO,CA,94303,2293,GLEN WAY,37.46855,-122.14408
2301 GLEN WAY,EAST PALO ALTO,CA,94303,2301,GLEN WAY,37.46866,-122.14395
2312 GLEN WAY,EAST PALO ALTO,CA,94303,2312,GLEN WAY,37.46906,-122.14344
2314 GLEN WAY,EAST PALO ALTO,CA,94303,2314,GLEN WAY,37.46919,-122.14339
2324 GLEN WAY,EAST PALO ALTO,CA,94303,2324,GLEN WAY,37.46948,-122.14335
2343 GLEN WAY,PALO ALTO,CA,94303,2343,GLEN WAY,37.46966,-122.1438
2348 GLEN WAY,EAST PALO ALTO,CA,94303,2348,GLEN WAY,37.46988,-122.14322
2362 GLEN WAY,EAST PALO ALTO,CA,94303,2362,GLEN WAY,37.47005,-122.1432
2368 GLEN WAY,EAST PALO ALTO,CA,94303,2368,GLEN WAY,37.47031,-122.14313
2374 GLEN WAY,EAST PALO ALTO,CA,94303,2374,GLEN WAY,37.47044,-122.14314
2382 GLEN WAY,EAST PALO ALTO,CA,94303,2382,GLEN WAY,37.47057,-122.14313
2389 GLEN WAY,EAST PALO ALTO,CA,94303,2389,GLEN WAY,37.47056,-122.14365
2390 GLEN WAY,EAST PALO ALTO,CA,94303,2390,GLEN WAY,37.47071,-122.14309
2393 GLEN WAY,EAST PALO ALTO,CA,94303,2393,GLEN WAY,37.47078,-122.14349
2397 GLEN WAY,EAST PALO ALTO,CA,94303,2397,GLEN WAY,37.47098,-122.14346
2420 GLORIA WAY,EAST PALO ALTO,CA,94303,2420,GLORIA WAY,37.47249,-122.14158
2424 GLORIA WAY,EAST PALO ALTO,CA,94303,2424,GLORIA WAY,37.47249,-122.14158
2426 GLORIA WAY,EAST PALO ALTO,CA,94303,2426,GLORIA WAY,37.47249,-122.14158
2440 GLORIA WAY,EAST PALO ALTO,CA,94303,2440,GLORIA WAY,37.47256,-122.14133
2442 GLORIA WAY,EAST PALO ALTO,CA,94303,2442,GLORIA WAY,37.47253,-122.14138
2444 GLORIA WAY,EAST PALO ALTO,CA,94303,2444,GLORIA WAY,37.47253,-122.14138
2445 GLORIA WAY,EAST PALO ALTO,CA,94303,2445,GLORIA WAY,37.47232,-122.14211
2448 GLORIA WAY,EAST PALO ALTO,CA,94303,2448,GLORIA WAY,37.47253,-122.14138
2450 GLORIA WAY,EAST PALO ALTO,CA,94303,2450,GLORIA WAY,37.47253,-122.14138
2465 GLORIA WAY,EAST PALO ALTO,CA,94303,2465,GLORIA WAY,37.47251,-122.14218
2466 GLORIA WAY,EAST PALO ALTO,CA,94303,2466,GLORIA WAY,37.47256,-122.14115
2470 GLORIA WAY,EAST PALO ALTO,CA,94303,2470,GLORIA WAY,37.47255,-122.14092
2472 GLORIA WAY,EAST PALO ALTO,CA,94303,2472,GLORIA WAY,37.47261,-122.14093
2475 GLORIA WAY,PALO ALTO,CA,94303,2475,GLORIA WAY,37.47269,-122.14216
2478 GLORIA WAY,EAST PALO ALTO,CA,94303,2478,GLORIA WAY,37.47261,-122.14093
2480 GLORIA WAY,EAST PALO ALTO,CA,94303,2480,GLORIA WAY,37.47261,-122.14093
2490 GLORIA WAY,PALO ALTO,CA,94303,2490,GLORIA WAY,37.47291,-122.14172
2405 GONZAGA ST,EAST PALO ALTO,CA,94303,2405,GONZAGA ST,37.47194,-122.13645
2410 GONZAGA ST,EAST PALO ALTO,CA,94303,2410,GONZAGA ST,37.47211,-122.13591
2420 GONZAGA ST,EAST PALO ALTO,CA,94303,2420,GONZAGA ST,37.47229,-122.1359
2427 GONZAGA ST,EAST PALO ALTO,CA,94303,2427,GONZAGA ST,37.47235,-122.13646
2430 GONZAGA ST,EAST PALO ALTO,CA,94303,2430,GONZAGA ST,37.47246,-122.13594
2449 GONZAGA ST,EAST PALO ALTO,CA,94303,2449,GONZAGA ST,37.47276,-122.13647
2450 GONZAGA ST,EAST PALO ALTO,CA,94303,2450,GONZAGA ST,37.47273,-122.13594
2453 GONZAGA ST,EAST PALO ALTO,CA,94303,2453,GONZAGA ST,37.47292,-122.1365
2460 GONZAGA ST,PALO ALTO,CA,94303,2460,GONZAGA ST,37.47287,-122.13596
2470 GONZAGA ST,EAST PALO ALTO,CA,94303,2470,GONZAGA ST,37.47301,-122.13595
2471 GONZAGA ST,EAST PALO ALTO,CA,94303,2471,GONZAGA ST,37.47317,-122.1365
2480 GONZAGA ST,EAST PALO ALTO,CA,94303,2480,GONZAGA ST,37.47313,-122.13597
2486 GONZAGA ST,EAST PALO ALTO,CA,94303,2486,GONZAGA ST,37.47334,-122.13598
103 GRACE AVE,EAST PALO ALTO,CA,94303,103,GRACE AVE,37.47187,-122.14209
107 GRACE AVE,EAST PALO ALTO,CA,94303,107,GRACE AVE,37.47185,-122.14223
108 GRACE AVE,EAST PALO ALTO,CA,94303,108,GRACE AVE,37.4723,-122.14226
111 GRACE AVE,EAST PALO ALTO,CA,94303,111,GRACE AVE,37.47184,-122.14243
112 GRACE AVE,EAST PALO ALTO,CA,94303,112,GRACE AVE,37.47228,-122.14244
116 GRACE AVE,EAST PALO ALTO,CA,94303,116,GRACE AVE,37.47226,-122.1426
119 GRACE AVE,EAST PALO ALTO,CA,94303,119,GRACE AVE,37.4718,-122.14276
120 GRACE AVE,EAST PALO ALTO,CA,94303,120,GRACE AVE,37.47222,-122.14277
123 GRACE AVE,EAST PALO ALTO,CA,94303,123,GRACE AVE,37.47176,-122.14293
131 GRACE AVE,EAST PALO ALTO,CA,94303,131,GRACE AVE,37.47174,-122.14333
132 GRACE AVE,EAST PALO ALTO,CA,94303,132,GRACE AVE,37.4722,-122.14332
135 GRACE AVE,EAST PALO ALTO,CA,94303,135,GRACE AVE,37.47186,-122.14347
101 GREEN ST,MENLO PARK,CA,94025,101,GREEN ST,37.46508,-122.15097
103 GREEN ST,EAST PALO ALTO,CA,94303,103,GREEN ST,37.46501,-122.15063
108 GREEN ST,EAST PALO ALTO,CA,94303,108,GREEN ST,37.46469,-122.15061
112 GREEN ST,PALO ALTO,CA,94303,112,GREEN ST,37.4647,-122.15078
124 GREEN ST,EAST PALO ALTO,CA,94303,124,GREEN ST,37.46466,-122.15044
146 GREEN ST,EAST PALO ALTO,CA,94303,146,GREEN ST,37.4646,-122.15027
164 GREEN ST,EAST PALO ALTO,CA,94303,164,GREEN ST,37.46459,-122.15007
175 GREEN ST,EAST PALO ALTO,CA,94303,175,GREEN ST,37.4649,-122.14979
216 GREEN ST,EAST PALO ALTO,CA,94303,216,GREEN ST,37.4645,-122.14952
232 GREEN ST,EAST PALO ALTO,CA,94303,232,GREEN ST,37.46448,-122.14928
248 GREEN ST,EAST PALO ALTO,CA,94303,248,GREEN ST,37.46441,-122.14874
258 GREEN ST,EAST PALO ALTO,CA,94303,258,GREEN ST,37.46437,-122.1486
418 GREEN ST,EAST PALO ALTO,CA,94303,418,GREEN ST,37.46413,-122.14569
419 GREEN ST,EAST PALO ALTO,CA,94303,419,GREEN ST,37.46472,-122.1455
428 GREEN ST,EAST PALO ALTO,CA,94303,428,GREEN ST,37.46409,-122.14553
458 GREEN ST,EAST PALO ALTO,CA,94303,458,GREEN ST,37.46401,-122.14485
467 GREEN ST,EAST PALO ALTO,CA,94303,467,GREEN ST,37.46433,-122.14455
471 GREEN ST,EAST PALO ALTO,CA,94303,471,GREEN ST,37.46437,-122.14439
705 GREEN ST,EAST PALO ALTO,CA,94303,705,GREEN ST,37.46438,-122.13876
709 GREEN ST,EAST PALO ALTO,CA,94303,709,GREEN ST,37.46469,-122.13877
711 GREEN ST,EAST PALO ALTO,CA,94303,711,GREEN ST,37.46494,-122.13878
712 GREEN ST,EAST PALO ALTO,CA,94303,712,GREEN ST,37.46396,-122.13888
735 GREEN ST,EAST PALO ALTO,CA,94303,735,GREEN ST,37.4645,-122.13848
781 GREEN ST,EAST PALO ALTO,CA,94303,781,GREEN ST,37.46444,-122.1378
789 GREEN ST,EAST PALO ALTO,CA,94303,789,GREEN ST,37.46506,-122.1378
799 GREEN ST,EAST PALO ALTO,CA,94303,799,GREEN ST,37.4647,-122.13725
804 GREEN ST,EAST PALO ALTO,CA,94303,804,GREEN ST,37.46357,-122.1372
807 GREEN ST,EAST PALO ALTO,CA,94303,807,GREEN ST,37.46485,-122.13676
810 GREEN ST,EAST PALO ALTO,CA,94303,810,GREEN ST,37.46348,-122.13682
812 GREEN ST,EAST PALO ALTO,CA,94303,812,GREEN ST,37.46358,-122.13638
816 GREEN ST,EAST PALO ALTO,CA,94303,816,GREEN ST,37.46404,-122.13637
833 GREEN ST,EAST PALO ALTO,CA,94303,833,GREEN ST,37.46446,-122.13645
857 GREEN ST,EAST PALO ALTO,CA,94303,857,GREEN ST,37.46474,-122.13589
885 GREEN ST,EAST PALO ALTO,CA,94303,885,GREEN ST,37.46447,-122.13523
886 GREEN ST,EAST PALO ALTO,CA,94303,886,GREEN ST,37.46367,-122.1355
888 GREEN ST,EAST PALO ALTO,CA,94303,888,GREEN ST,37.4641,-122.13531
896 GREEN ST,EAST PALO ALTO,CA,94303,896,GREEN ST,37.46412,-122.13492
2507 HAZELWOOD WAY,EAST PALO ALTO,CA,94303,2507,HAZELWOOD WAY,37.47251,-122.14328
2508 HAZELWOOD WAY,EAST PALO ALTO,CA,94303,2508,HAZELWOOD WAY,37.47251,-122.14283
2511 HAZELWOOD WAY,EAST PALO ALTO,CA,94303,2511,HAZELWOOD WAY,37.47266,-122.14337
2512 HAZELWOOD WAY,EAST PALO ALTO,CA,94303,2512,HAZELWOOD WAY,37.47267,-122.14275
2174 HENRY CT,EAST PALO ALTO,CA,94303,2174,HENRY CT,37.46521,-122.13823
2176 HENRY CT,EAST PALO ALTO,CA,94303,2176,HENRY CT,37.46535,-122.13833
2178 HENRY CT,EAST PALO ALTO,CA,94303,2178,HENRY CT,37.4656,-122.13829
418 HIBISCUS CT,EAST PALO ALTO,CA,94303,418,HIBISCUS CT,37.4615,-122.1261
422 HIBISCUS CT,EAST PALO ALTO,CA,94303,422,HIBISCUS CT,37.4615,-122.12569
906 HOLLY PL,EAST PALO ALTO,CA,94303,906,HOLLY PL,37.47089,-122.13331
910 HOLLY PL,EAST PALO ALTO,CA,94303,910,HOLLY PL,37.47099,-122.13332
918 HOLLY PL,EAST PALO ALTO,CA,94303,918,HOLLY PL,37.47123,-122.13332
2406 ILLINOIS ST,EAST PALO ALTO,CA,94303,2406,ILLINOIS ST,37.47211,-122.13508
2411 ILLINOIS ST,PALO ALTO,CA,94303,2411,ILLINOIS ST,37.47214,-122.13559
2428 ILLINOIS ST,EAST PALO ALTO,CA,94303,2428,ILLINOIS ST,37.47239,-122.13509
2438 ILLINOIS ST,PALO ALTO,CA,94303,2438,ILLINOIS ST,37.47253,-122.13508
2447 ILLINOIS ST,EAST PALO ALTO,CA,94303,2447,ILLINOIS ST,37.47259,-122.13563
2448 ILLINOIS ST,EAST PALO ALTO,CA,94303,2448,ILLINOIS ST,37.47266,-122.13509
2455 ILLINOIS ST,PALO ALTO,CA,94303,2455,ILLINOIS ST,37.47273,-122.13562
2458 ILLINOIS ST,EAST PALO ALTO,CA,94303,2458,ILLINOIS ST,37.4728,-122.13509
2469 ILLINOIS ST,EAST PALO ALTO,CA,94303,2469,ILLINOIS ST,37.47287,-122.13564
2478 ILLINOIS ST,EAST PALO ALTO,CA,94303,2478,ILLINOIS ST,37.47307,-122.13509
2481 ILLINOIS ST,EAST PALO ALTO,CA,94303,2481,ILLINOIS ST,37.47317,-122.13564
2484 ILLINOIS ST,EAST PALO ALTO,CA,94303,2484,ILLINOIS ST,37.47321,-122.13512
107 JASMINE WAY,EAST PALO ALTO,CA,94303,107,JASMINE WAY,37.45422,-122.12339
108 JASMINE WAY,EAST PALO ALTO,CA,94303,108,JASMINE WAY,37.45438,-122.12292
111 JASMINE WAY,EAST PALO ALTO,CA,94303,111,JASMINE WAY,37.45435,-122.12343
112 JASMINE WAY,PALO ALTO,CA,94303,112,JASMINE WAY,37.45452,-122.12295
116 JASMINE WAY,EAST PALO ALTO,CA,94303,116,JASMINE WAY,37.45465,-122.12298
119 JASMINE WAY,EAST PALO ALTO,CA,94303,119,JASMINE WAY,37.45462,-122.1235
120 JASMINE WAY,EAST PALO ALTO,CA,94303,120,JASMINE WAY,37.45478,-122.12304
123 JASMINE WAY,EAST PALO ALTO,CA,94303,123,JASMINE WAY,37.45476,-122.12354
131 JASMINE WAY,EAST PALO ALTO,CA,94303,131,JASMINE WAY,37.45503,-122.12362
136 JASMINE WAY,EAST PALO ALTO,CA,94303,136,JASMINE WAY,37.45532,-122.12317
139 JASMINE WAY,EAST PALO ALTO,CA,94303,139,JASMINE WAY,37.4553,-122.12369
144 JASMINE WAY,PALO ALTO,CA,94303,144,JASMINE WAY,37.45559,-122.12327
147 JASMINE WAY,EAST PALO ALTO,CA,94303,147,JASMINE WAY,37.45557,-122.12378
148 JASMINE WAY,EAST PALO ALTO,CA,94303,148,JASMINE WAY,37.45572,-122.12331
151 JASMINE WAY,PALO ALTO,CA,94303,151,JASMINE WAY,37.45572,-122.12382
152 JASMINE WAY,EAST PALO ALTO,CA,94303,152,JASMINE WAY,37.45585,-122.12333
155 JASMINE WAY,EAST PALO ALTO,CA,94303,155,JASMINE WAY,37.45585,-122.12386
160 JASMINE WAY,EAST PALO ALTO,CA,94303,160,JASMINE WAY,37.45612,-122.12343
163 JASMINE WAY,EAST PALO ALTO,CA,94303,163,JASMINE WAY,37.45612,-122.12393
164 JASMINE WAY,EAST PALO ALTO,CA,94303,164,JASMINE WAY,37.45626,-122.12347
172 JASMINE WAY,PALO ALTO,CA,94303,172,JASMINE WAY,37.45652,-122.12354
176 JASMINE WAY,EAST PALO ALTO,CA,94303,176,JASMINE WAY,37.45667,-122.12358
179 JASMINE WAY,EAST PALO ALTO,CA,94303,179,JASMINE WAY,37.45665,-122.12413
184 JASMINE WAY,EAST PALO ALTO,CA,94303,184,JASMINE WAY,37.45695,-122.1237
188 JASMINE WAY,EAST PALO ALTO,CA,94303,188,JASMINE WAY,37.45707,-122.12382
191 JASMINE WAY,PALO ALTO,CA,94303,191,JASMINE WAY,37.45705,-122.1244
192 JASMINE WAY,EAST PALO ALTO,CA,94303,192,JASMINE WAY,37.45719,-122.12393
305 LARKSPUR DR,PALO ALTO,CA,94303,305,LARKSPUR DR,37.45974,-122.12695
310 LARKSPUR DR,EAST PALO ALTO,CA,94303,310,LARKSPUR DR,37.46012,-122.12674
315 LARKSPUR DR,EAST PALO ALTO,CA,94303,315,LARKSPUR DR,37.45981,-122.12711
320 LARKSPUR DR,EAST PALO ALTO,CA,94303,320,LARKSPUR DR,37.46018,-122.12693
325 LARKSPUR DR,EAST PALO ALTO,CA,94303,325,LARKSPUR DR,37.45986,-122.12726
335 LARKSPUR DR,PALO ALTO,CA,94303,335,LARKSPUR DR,37.45996,-122.12747
340 LARKSPUR DR,EAST PALO ALTO,CA,94303,340,LARKSPUR DR,37.46028,-122.12708
345 LARKSPUR DR,EAST PALO ALTO,CA,94303,345,LARKSPUR DR,37.46006,-122.1276
355 LARKSPUR DR,EAST PALO ALTO,CA,94303,355,LARKSPUR DR,37.46022,-122.12766
360 LARKSPUR DR,EAST PALO ALTO,CA,94303,360,LARKSPUR DR,37.46042,-122.12716
365 LARKSPUR DR,EAST PALO ALTO,CA,94303,365,LARKSPUR DR,37.46038,-122.12771
370 LARKSPUR DR,EAST PALO ALTO,CA,94303,370,LARKSPUR DR,37.46056,-122.12721
375 LARKSPUR DR,EAST PALO ALTO,CA,94303,375,LARKSPUR DR,37.46055,-122.12771
390 LARKSPUR DR,EAST PALO ALTO,CA,94303,390,LARKSPUR DR,37.46087,-122.12717
412 LARKSPUR DR,EAST PALO ALTO,CA,94303,412,LARKSPUR DR,37.46145,-122.12721
415 LARKSPUR DR,PALO ALTO,CA,94303,415,LARKSPUR DR,37.46155,-122.12774
416 LARKSPUR DR,EAST PALO ALTO,CA,94303,416,LARKSPUR DR,37.46159,-122.12723
420 LARKSPUR DR,EAST PALO ALTO,CA,94303,420,LARKSPUR DR,37.46172,-122.12724
423 LARKSPUR DR,EAST PALO ALTO,CA,94303,423,LARKSPUR DR,37.46183,-122.12777
424 LARKSPUR DR,EAST PALO ALTO,CA,94303,424,LARKSPUR DR,37.46185,-122.12723
427 LARKSPUR DR,EAST PALO ALTO,CA,94303,427,LARKSPUR DR,37.46196,-122.12776
428 LARKSPUR DR,EAST PALO ALTO,CA,94303,428,LARKSPUR DR,37.46199,-122.12723
432 LARKSPUR DR,EAST PALO ALTO,CA,94303,432,LARKSPUR DR,37.46214,-122.12724
435 LARKSPUR DR,EAST PALO ALTO,CA,94303,435,LARKSPUR DR,37.46225,-122.12778
436 LARKSPUR DR,EAST PALO ALTO,CA,94303,436,LARKSPUR DR,37.46227,-122.12723
439 LARKSPUR DR,EAST PALO ALTO,CA,94303,439,LARKSPUR DR,37.46239,-122.12778
440 LARKSPUR DR,EAST PALO ALTO,CA,94303,440,LARKSPUR DR,37.46241,-122.12726
444 LARKSPUR DR,EAST PALO ALTO,CA,94303,444,LARKSPUR DR,37.46254,-122.12726
447 LARKSPUR DR,PALO ALTO,CA,94303,447,LARKSPUR DR,37.46267,-122.1278
448 LARKSPUR DR,EAST PALO ALTO,CA,94303,448,LARKSPUR DR,37.46268,-122.12725
451 LARKSPUR DR,EAST PALO ALTO,CA,94303,451,LARKSPUR DR,37.46282,-122.1278
452 LARKSPUR DR,EAST PALO ALTO,CA,94303,452,LARKSPUR DR,37.46282,-122.12726
455 LARKSPUR DR,EAST PALO ALTO,CA,94303,455,LARKSPUR DR,37.46296,-122.1278
456 LARKSPUR DR,EAST PALO ALTO,CA,94303,456,LARKSPUR DR,37.46296,-122.12724
464 LARKSPUR DR,EAST PALO ALTO,CA,94303,464,LARKSPUR DR,37.46324,-122.12727
467 LARKSPUR DR,EAST PALO ALTO,CA,94303,467,LARKSPUR DR,37.46338,-122.12781
468 LARKSPUR DR,EAST PALO ALTO,CA,94303,468,LARKSPUR DR,37.46336,-122.12727
471 LARKSPUR DR,EAST PALO ALTO,CA,94303,471,LARKSPUR DR,37.46352,-122.12782
476 LARKSPUR DR,PALO ALTO,CA,94303,476,LARKSPUR DR,37.46365,-122.12728
480 LARKSPUR DR,PALO ALTO,CA,94303,480,LARKSPUR DR,37.46379,-122.12729
488 LARKSPUR DR,EAST PALO ALTO,CA,94303,488,LARKSPUR DR,37.46411,-122.12733
334 LILAC LN,PALO ALTO,CA,94303,334,LILAC LN,37.46932,-122.14531
341 LILAC LN,EAST PALO ALTO,CA,94303,341,LILAC LN,37.46979,-122.14517
2097 LINCOLN ST,EAST PALO ALTO,CA,94303,2097,LINCOLN ST,37.46438,-122.14644
2100 LINCOLN ST,EAST PALO ALTO,CA,94303,2100,LINCOLN ST,37.46448,-122.14588
2111 LINCOLN ST,EAST PALO ALTO,CA,94303,2111,LINCOLN ST,37.4645,-122.14636
2113 LINCOLN ST,EAST PALO ALTO,CA,94303,2113,LINCOLN ST,37.46463,-122.14634
2125 LINCOLN ST,EAST PALO ALTO,CA,94303,2125,LINCOLN ST,37.46478,-122.14631
2127 LINCOLN ST,EAST PALO ALTO,CA,94303,2127,LINCOLN ST,37.4649,-122.14625
2136 LINCOLN ST,EAST PALO ALTO,CA,94303,2136,LINCOLN ST,37.46484,-122.14581
2155 LINCOLN ST,EAST PALO ALTO,CA,94303,2155,LINCOLN ST,37.46518,-122.14628
2159 LINCOLN ST,EAST PALO ALTO,CA,94303,2159,LINCOLN ST,37.4653,-122.14617
2160 LINCOLN ST,EAST PALO ALTO,CA,94303,2160,LINCOLN ST,37.46525,-122.14571
2178 LINCOLN ST,EAST PALO ALTO,CA,94303,2178,LINCOLN ST,37.46552,-122.14565
2179 LINCOLN ST,EAST PALO ALTO,CA,94303,2179,LINCOLN ST,37.46573,-122.14608
2186 LINCOLN ST,EAST PALO ALTO,CA,94303,2186,LINCOLN ST,37.46564,-122.1456
2192 LINCOLN ST,EAST PALO ALTO,CA,94303,2192,LINCOLN ST,37.46577,-122.14561
2206 LINCOLN ST,EAST PALO ALTO,CA,94303,2206,LINCOLN ST,37.46626,-122.14551
2211 LINCOLN ST,EAST PALO ALTO,CA,94303,2211,LINCOLN ST,37.46639,-122.14593
2214 LINCOLN ST,EAST PALO ALTO,CA,94303,2214,LINCOLN ST,37.46645,-122.14543
2227 LINCOLN ST,EAST PALO ALTO,CA,94303,2227,LINCOLN ST,37.46666,-122.14591
2231 LINCOLN ST,EAST PALO ALTO,CA,94303,2231,LINCOLN ST,37.46679,-122.14584
2238 LINCOLN ST,EAST PALO ALTO,CA,94303,2238,LINCOLN ST,37.46673,-122.14541
2242 LINCOLN ST,PALO ALTO,CA,94303,2242,LINCOLN ST,37.46697,-122.1454
2248 LINCOLN ST,EAST PALO ALTO,CA,94303,2248,LINCOLN ST,37.46736,-122.14467
2250 LINCOLN ST,EAST PALO ALTO,CA,94303,2250,LINCOLN ST,37.46749,-122.14465
2254 LINCOLN ST,EAST PALO ALTO,CA,94303,2254,LINCOLN ST,37.46765,-122.14461
2267 LINCOLN ST,EAST PALO ALTO,CA,94303,2267,LINCOLN ST,37.46767,-122.14507
2272 LINCOLN ST,PALO ALTO,CA,94303,2272,LINCOLN ST,37.46781,-122.14457
2283 LINCOLN ST,EAST PALO ALTO,CA,94303,2283,LINCOLN ST,37.46793,-122.14502
5 LITA LN,EAST PALO ALTO,CA,94303,5,LITA LN,37.46392,-122.13372
107 LOTUS WAY,EAST PALO ALTO,CA,94303,107,LOTUS WAY,37.45938,-122.12627
115 LOTUS WAY,EAST PALO ALTO,CA,94303,115,LOTUS WAY,37.45966,-122.12615
116 LOTUS WAY,EAST PALO ALTO,CA,94303,116,LOTUS WAY,37.45972,-122.12572
1094 MANDELA CT,EAST PALO ALTO,CA,94303,1094,MANDELA CT,37.46849,-122.12973
1100 MANDELA CT,EAST PALO ALTO,CA,94303,1100,MANDELA CT,37.46833,-122.12973
1112 MANDELA CT,EAST PALO ALTO,CA,94303,1112,MANDELA CT,37.4674,-122.12972
1118 MANDELA CT,EAST PALO ALTO,CA,94303,1118,MANDELA CT,37.46743,-122.12949
1130 MANDELA CT,EAST PALO ALTO,CA,94303,1130,MANDELA CT,37.46781,-122.12948
1136 MANDELA CT,EAST PALO ALTO,CA,94303,1136,MANDELA CT,37.46798,-122.1294
1148 MANDELA CT,EAST PALO ALTO,CA,94303,1148,MANDELA CT,37.46833,-122.12937
1154 MANDELA CT,EAST PALO ALTO,CA,94303,1154,MANDELA CT,37.4685,-122.12937
100 MAPLE LN,EAST PALO ALTO,CA,94303,100,MAPLE LN,37.46984,-122.132
104 MAPLE LN,EAST PALO ALTO,CA,94303,104,MAPLE LN,37.46966,-122.13199
106 MAPLE LN,EAST PALO ALTO,CA,94303,106,MAPLE LN,37.46957,-122.13199
110 MAPLE LN,EAST PALO ALTO,CA,94303,110,MAPLE LN,37.46954,-122.1317
114 MAPLE LN,EAST PALO ALTO,CA,94303,114,MAPLE LN,37.46954,-122.13147
116 MAPLE LN,EAST PALO ALTO,CA,94303,116,MAPLE LN,37.46954,-122.13135
128 MAPLE LN,EAST PALO ALTO,CA,94303,128,MAPLE LN,37.4695,-122.13095
136 MAPLE LN,EAST PALO ALTO,CA,94303,136,MAPLE LN,37.46986,-122.13097
850 MAPLE PL,EAST PALO ALTO,CA,94303,850,MAPLE PL,37.47085,-122.13274
852 MAPLE PL,EAST PALO ALTO,CA,94303,852,MAPLE PL,37.47094,-122.13277
853 MAPLE PL,EAST PALO ALTO,CA,94303,853,MAPLE PL,37.47089,-122.13303
856 MAPLE PL,EAST PALO ALTO,CA,94303,856,MAPLE PL,37.47103,-122.13279
867 MAPLE PL,EAST PALO ALTO,CA,94303,867,MAPLE PL,37.47133,-122.13309
1946 MCNAIR ST,EAST PALO ALTO,CA,94303,1946,MCNAIR ST,37.45832,-122.13166
1948 MCNAIR ST,PALO ALTO,CA,94303,1948,MCNAIR ST,37.45845,-122.13167
1950 MCNAIR ST,EAST PALO ALTO,CA,94303,1950,MCNAIR ST,37.45858,-122.13167
1952 MCNAIR ST,EAST PALO ALTO,CA,94303,1952,MCNAIR ST,37.45885,-122.13169
1954 MCNAIR ST,EAST PALO ALTO,CA,94303,1954,MCNAIR ST,37.45899,-122.1317
1960 MCNAIR ST,EAST PALO ALTO,CA,94303,1960,MCNAIR ST,37.45953,-122.13173
1962 MCNAIR ST,EAST PALO ALTO,CA,94303,1962,MCNAIR ST,37.45965,-122.13172
1912 MENALTO AVE,MENLO PARK,CA,94025,1912,MENALTO AVE,37.45859,-122.15248
1956 MENALTO AVE,MENLO PARK,CA,94025,1956,MENALTO AVE,37.46001,-122.15203
1958 MENALTO AVE,MENLO PARK,CA,94025,1958,MENALTO AVE,37.46022,-122.15181
1960 MENALTO AVE,MENLO PARK,CA,94025,1960,MENALTO AVE,37.46019,-122.15154
1962 MENALTO AVE,MENLO PARK,CA,94025,1962,MENALTO AVE,37.46046,-122.15205
1966 MENALTO AVE,MENLO PARK,CA,94025,1966,MENALTO AVE,37.46041,-122.15137
1968 MENALTO AVE,MENLO PARK,CA,94025,1968,MENALTO AVE,37.46068,-122.15197
1970 MENALTO AVE,MENLO PARK,CA,94025,1970,MENALTO AVE,37.46068,-122.15197
1972 MENALTO AVE,MENLO PARK,CA,94025,1972,MENALTO AVE,37.46082,-122.15195
1976 MENALTO AVE,MENLO PARK,CA,94025,1976,MENALTO AVE,37.46079,-122.15167
1994 MENALTO AVE,MENLO PARK,CA,94025,1994,MENALTO AVE,37.46115,-122.15193
2030 MENALTO AVE,MENLO PARK,CA,94025,2030,MENALTO AVE,37.46184,-122.15168
2036 MENALTO AVE,MENLO PARK,CA,94025,2036,MENALTO AVE,37.46201,-122.15166
2040 MENALTO AVE,MENLO PARK,CA,94025,2040,MENALTO AVE,37.46213,-122.15161
2048 MENALTO AVE,MENLO PARK,CA,94025,2048,MENALTO AVE,37.46226,-122.15161
2052 MENALTO AVE,MENLO PARK,CA,94025,2052,MENALTO AVE,37.46243,-122.1515
2056 MENALTO AVE,MENLO PARK,CA,94025,2056,MENALTO AVE,37.46243,-122.1515
2070 MENALTO AVE,MENLO PARK,CA,94025,2070,MENALTO AVE,37.46317,-122.15137
2080 MENALTO AVE,MENLO PARK,CA,94025,2080,MENALTO AVE,37.46332,-122.15138
2090 MENALTO AVE,MENLO PARK,CA,94025,2090,MENALTO AVE,37.46345,-122.15135
2096 MENALTO AVE,MENLO PARK,CA,94025,2096,MENALTO AVE,37.46362,-122.15126
2110 MENALTO AVE,MENLO PARK,CA,94025,2110,MENALTO AVE,37.46405,-122.15118
2112 MENALTO AVE,MENLO PARK,CA,94025,2112,MENALTO AVE,37.46422,-122.15114
2120 MENALTO AVE,MENLO PARK,CA,94025,2120,MENALTO AVE,37.46434,-122.1511
2122 MENALTO AVE,MENLO PARK,CA,94025,2122,MENALTO AVE,37.46448,-122.1511
2128 MENALTO AVE,MENLO PARK,CA,94025,2128,MENALTO AVE,37.46467,-122.15106
2156 MENALTO AVE,MENLO PARK,CA,94025,2156,MENALTO AVE,37.46535,-122.15094
2158 MENALTO AVE,MENLO PARK,CA,94025,2158,MENALTO AVE,37.4652,-122.15085
2160 MENALTO AVE,MENLO PARK,CA,94025,2160,MENALTO AVE,37.46552,-122.15086
2162 MENALTO AVE,MENLO PARK,CA,94025,2162,MENALTO AVE,37.46566,-122.15088
2202 MENALTO AVE,EAST PALO ALTO,CA,94303,2202,MENALTO AVE,37.46695,-122.15052
2206 MENALTO AVE,EAST PALO ALTO,CA,94303,2206,MENALTO AVE,37.46723,-122.15046
2208 MENALTO AVE,EAST PALO ALTO,CA,94303,2208,MENALTO AVE,37.46738,-122.15045
2210 MENALTO AVE,EAST PALO ALTO,CA,94303,2210,MENALTO AVE,37.46791,-122.15034
2230 MENALTO AVE,EAST PALO ALTO,CA,94303,2230,MENALTO AVE,37.4683,-122.15023
2238 MENALTO AVE,EAST PALO ALTO,CA,94303,2238,MENALTO AVE,37.46846,-122.15008
2244 MENALTO AVE,EAST PALO ALTO,CA,94303,2244,MENALTO AVE,37.46859,-122.15015
2246 MENALTO AVE,EAST PALO ALTO,CA,94303,2246,MENALTO AVE,37.46871,-122.15016
2250 MENALTO AVE,PALO ALTO,CA,94303,2250,MENALTO AVE,37.46886,-122.15012
2258 MENALTO AVE,EAST PALO ALTO,CA,94303,2258,MENALTO AVE,37.46912,-122.15005
2264 MENALTO AVE,EAST PALO ALTO,CA,94303,2264,MENALTO AVE,37.46926,-122.15003
2270 MENALTO AVE,EAST PALO ALTO,CA,94303,2270,MENALTO AVE,37.46939,-122.14999
102 MISSION DR,EAST PALO ALTO,CA,94303,102,MISSION DR,37.45611,-122.13515
104 MISSION DR,EAST PALO ALTO,CA,94303,104,MISSION DR,37.45611,-122.13515
105 MISSION DR,EAST PALO ALTO,CA,94303,105,MISSION DR,37.45611,-122.13515
106 MISSION DR,EAST PALO ALTO,CA,94303,106,MISSION DR,37.45611,-122.13515
107 MISSION DR,EAST PALO ALTO,CA,94303,107,MISSION DR,37.45611,-122.13515
108 MISSION DR,EAST PALO ALTO,CA,94303,108,MISSION DR,37.45611,-122.13515
109 MISSION DR,EAST PALO ALTO,CA,94303,109,MISSION DR,37.45611,-122.13515
110 MISSION DR,EAST PALO ALTO,CA,94303,110,MISSION DR,37.45611,-122.13515
111 MISSION DR,EAST PALO ALTO,CA,94303,111,MISSION DR,37.45555,-122.13549
112 MISSION DR,EAST PALO ALTO,CA,94303,112,MISSION DR,37.45611,-122.13515
113 MISSION DR,EAST PALO ALTO,CA,94303,113,MISSION DR,37.45611,-122.13515
116 MISSION DR,EAST PALO ALTO,CA,94303,116,MISSION DR,37.45611,-122.13515
117 MISSION DR,EAST PALO ALTO,CA,94303,117,MISSION DR,37.45602,-122.13482
119 MISSION DR,EAST PALO ALTO,CA,94303,119,MISSION DR,37.45594,-122.13492
120 MISSION DR,EAST PALO ALTO,CA,94303,120,MISSION DR,37.456,-122.1349
121 MISSION DR,EAST PALO ALTO,CA,94303,121,MISSION DR,37.45602,-122.13482
123 MISSION DR,EAST PALO ALTO,CA,94303,123,MISSION DR,37.45602,-122.13482
124 MISSION DR,EAST PALO ALTO,CA,94303,124,MISSION DR,37.456,-122.1349
125 MISSION DR,EAST PALO ALTO,CA,94303,125,MISSION DR,37.45611,-122.13515
127 MISSION DR,EAST PALO ALTO,CA,94303,127,MISSION DR,37.45611,-122.13515
128 MISSION DR,EAST PALO ALTO,CA,94303,128,MISSION DR,37.45611,-122.13515
131 MISSION DR,EAST PALO ALTO,CA,94303,131,MISSION DR,37.45591,-122.1352
133 MISSION DR,EAST PALO ALTO,CA,94303,133,MISSION DR,37.45591,-122.1352
134 MISSION DR,EAST PALO ALTO,CA,94303,134,MISSION DR,37.45589,-122.13538
135 MISSION DR,EAST PALO ALTO,CA,94303,135,MISSION DR,37.45591,-122.13527
137 MISSION DR,EAST PALO ALTO,CA,94303,137,MISSION DR,37.45592,-122.13535
139 MISSION DR,EAST PALO ALTO,CA,94303,139,MISSION DR,37.45592,-122.13535
141 MISSION DR,EAST PALO ALTO,CA,94303,141,MISSION DR,37.45592,-122.13541
142 MISSION DR,EAST PALO ALTO,CA,94303,142,MISSION DR,37.45592,-122.13541
144 MISSION DR,EAST PALO ALTO,CA,94303,144,MISSION DR,37.45589,-122.13538
145 MISSION DR,EAST PALO ALTO,CA,94303,145,MISSION DR,37.4559,-122.13551
146 MISSION DR,EAST PALO ALTO,CA,94303,146,MISSION DR,37.4559,-122.13551
147 MISSION DR,EAST PALO ALTO,CA,94303,147,MISSION DR,37.4559,-122.13551
149 MISSION DR,EAST PALO ALTO,CA,94303,149,MISSION DR,37.45611,-122.13515
150 MISSION DR,EAST PALO ALTO,CA,94303,150,MISSION DR,37.45611,-122.13515
151 MISSION DR,EAST PALO ALTO,CA,94303,151,MISSION DR,37.45611,-122.13515
618 MONTAGE CIR,EAST PALO ALTO,CA,94303,618,MONTAGE CIR,37.47139,-122.13218
621 MONTAGE CIR,EAST PALO ALTO,CA,94303,621,MONTAGE CIR,37.47174,-122.13236
628 MONTAGE CIR,EAST PALO ALTO,CA,94303,628,MONTAGE CIR,37.47185,-122.13211
629 MONTAGE CIR,EAST PALO ALTO,CA,94303,629,MONTAGE CIR,37.47192,-122.13246
631 MONTAGE CIR,EAST PALO ALTO,CA,94303,631,MONTAGE CIR,37.47201,-122.13251
635 MONTAGE CIR,EAST PALO ALTO,CA,94303,635,MONTAGE CIR,37.4721,-122.13256
921 MOUTON CIR,EAST PALO ALTO,CA,94303,921,MOUTON CIR,37.45942,-122.13151
923 MOUTON CIR,EAST PALO ALTO,CA,94303,923,MOUTON CIR,37.45945,-122.13137
924 MOUTON CIR,EAST PALO ALTO,CA,94303,924,MOUTON CIR,37.4591,-122.13136
930 MOUTON CIR,EAST PALO ALTO,CA,94303,930,MOUTON CIR,37.4591,-122.13095
931 MOUTON CIR,EAST PALO ALTO,CA,94303,931,MOUTON CIR,37.45947,-122.13082
932 MOUTON CIR,EAST PALO ALTO,CA,94303,932,MOUTON CIR,37.45913,-122.13081
933 MOUTON CIR,EAST PALO ALTO,CA,94303,933,MOUTON CIR,37.45946,-122.13068
934 MOUTON CIR,EAST PALO ALTO,CA,94303,934,MOUTON CIR,37.45911,-122.13068
935 MOUTON CIR,EAST PALO ALTO,CA,94303,935,MOUTON CIR,37.45948,-122.13055
938 MOUTON CIR,PALO ALTO,CA,94303,938,MOUTON CIR,37.45912,-122.13038
939 MOUTON CIR,EAST PALO ALTO,CA,94303,939,MOUTON CIR,37.45949,-122.13027
941 MOUTON CIR,EAST PALO ALTO,CA,94303,941,MOUTON CIR,37.45889,-122.13149
943 MOUTON CIR,EAST PALO ALTO,CA,94303,943,MOUTON CIR,37.4589,-122.13134
944 MOUTON CIR,EAST PALO ALTO,CA,94303,944,MOUTON CIR,37.45855,-122.13121
946 MOUTON CIR,EAST PALO ALTO,CA,94303,946,MOUTON CIR,37.45858,-122.13107
947 MOUTON CIR,EAST PALO ALTO,CA,94303,947,MOUTON CIR,37.45892,-122.13107
948 MOUTON CIR,EAST PALO ALTO,CA,94303,948,MOUTON CIR,37.45856,-122.13093
949 MOUTON CIR,EAST PALO ALTO,CA,94303,949,MOUTON CIR,37.45891,-122.13093
950 MOUTON CIR,EAST PALO ALTO,CA,94303,950,MOUTON CIR,37.45858,-122.13079
951 MOUTON CIR,EAST PALO ALTO,CA,94303,951,MOUTON CIR,37.45892,-122.13079
952 MOUTON CIR,EAST PALO ALTO,CA,94303,952,MOUTON CIR,37.45857,-122.13066
953 MOUTON CIR,EAST PALO ALTO,CA,94303,953,MOUTON CIR,37.45892,-122.13066
955 MOUTON CIR,EAST PALO ALTO,CA,94303,955,MOUTON CIR,37.45894,-122.13052
956 MOUTON CIR,EAST PALO ALTO,CA,94303,956,MOUTON CIR,37.45858,-122.13039
957 MOUTON CIR,EAST PALO ALTO,CA,94303,957,MOUTON CIR,37.45893,-122.13038
958 MOUTON CIR,EAST PALO ALTO,CA,94303,958,MOUTON CIR,37.4586,-122.13024
110 MYRTLE CT,EAST PALO ALTO,CA,94303,110,MYRTLE CT,37.46313,-122.13079
120 MYRTLE CT,EAST PALO ALTO,CA,94303,120,MYRTLE CT,37.46286,-122.13078
130 MYRTLE CT,EAST PALO ALTO,CA,94303,130,MYRTLE CT,37.46276,-122.131
140 MYRTLE CT,EAST PALO ALTO,CA,94303,140,MYRTLE CT,37.46288,-122.13118
2101 MYRTLE PL,EAST PALO ALTO,CA,94303,2101,MYRTLE PL,37.46262,-122.13341
2108 MYRTLE PL,EAST PALO ALTO,CA,94303,2108,MYRTLE PL,37.46263,-122.13318
2109 MYRTLE PL,EAST PALO ALTO,CA,94303,2109,MYRTLE PL,37.46293,-122.13348
2112 MYRTLE PL,EAST PALO ALTO,CA,94303,2112,MYRTLE PL,37.46277,-122.1331
2115 MYRTLE PL,EAST PALO ALTO,CA,94303,2115,MYRTLE PL,37.4631,-122.13348
2116 MYRTLE PL,EAST PALO ALTO,CA,94303,2116,MYRTLE PL,37.46294,-122.13311
2120 MYRTLE PL,EAST PALO ALTO,CA,94303,2120,MYRTLE PL,37.46311,-122.13312
909 MYRTLE ST,PALO ALTO,CA,94303,909,MYRTLE ST,37.46344,-122.13448
921 MYRTLE ST,PALO ALTO,CA,94303,921,MYRTLE ST,37.46351,-122.13406
933 MYRTLE ST,EAST PALO ALTO,CA,94303,933,MYRTLE ST,37.46344,-122.13391
961 MYRTLE ST,EAST PALO ALTO,CA,94303,961,MYRTLE ST,37.46348,-122.13344
969 MYRTLE ST,EAST PALO ALTO,CA,94303,969,MYRTLE ST,37.46347,-122.13316
66 NEWELL RD,EAST PALO ALTO,CA,94303,66,NEWELL RD,37.45663,-122.13641
107 OCONNOR ST,MENLO PARK,CA,94025,107,O'CONNOR ST,37.46157,-122.15163
217 OCONNOR ST,MENLO PARK,CA,94025,217,O'CONNOR ST,37.46139,-122.15032
453 OKEEFE ST,EAST PALO ALTO,CA,94303,453,O'KEEFE ST,37.46216,-122.14536
124 OAK CT,MENLO PARK,CA,94025,124,OAK CT,37.45908,-122.15204
132 OAK CT,MENLO PARK,CA,94025,132,OAK CT,37.45897,-122.1519
141 OAK CT,MENLO PARK,CA,94025,141,OAK CT,37.45935,-122.15166
143 OAK CT,MENLO PARK,CA,94025,143,OAK CT,37.4596,-122.15135
145 OAK CT,MENLO PARK,CA,94025,145,OAK CT,37.4596,-122.1516
149 OAK CT,MENLO PARK,CA,94025,149,OAK CT,37.45922,-122.1514
153 OAK CT,MENLO PARK,CA,94025,153,OAK CT,37.45914,-122.15125
154 OAK CT,MENLO PARK,CA,94025,154,OAK CT,37.45862,-122.15175
164 OAK CT,MENLO PARK,CA,94025,164,OAK CT,37.4587,-122.15139
168 OAK CT,MENLO PARK,CA,94025,168,OAK CT,37.45851,-122.15147
169 OAK CT,MENLO PARK,CA,94025,169,OAK CT,37.45914,-122.15105
171 OAK CT,MENLO PARK,CA,94025,171,OAK CT,37.45952,-122.15096
173 OAK CT,MENLO PARK,CA,94025,173,OAK CT,37.45947,-122.1507
182 OAK CT,MENLO PARK,CA,94025,182,OAK CT,37.45878,-122.15113
190 OAK CT,MENLO PARK,CA,94025,190,OAK CT,37.45844,-122.15121
192 OAK CT,MENLO PARK,CA,94025,192,OAK CT,37.45836,-122.15102
194 OAK CT,MENLO PARK,CA,94025,194,OAK CT,37.45845,-122.15082
198 OAK CT,MENLO PARK,CA,94025,198,OAK CT,37.45867,-122.15076
216 OAK CT,MENLO PARK,CA,94025,216,OAK CT,37.45856,-122.15034
220 OAK CT,MENLO PARK,CA,94025,220,OAK CT,37.45855,-122.15016
226 OAK CT,MENLO PARK,CA,94025,226,OAK CT,37.45851,-122.14966
230 OAK CT,MENLO PARK,CA,94025,230,OAK CT,37.45853,-122.14948
304 OAK CT,MENLO PARK,CA,94025,304,OAK CT,37.45855,-122.14922
309 OAK CT,MENLO PARK,CA,94025,309,OAK CT,37.45925,-122.14877
315 OAK CT,MENLO PARK,CA,94025,315,OAK CT,37.45895,-122.14882
316 OAK CT,MENLO PARK,CA,94025,316,OAK CT,37.45853,-122.14895
320 OAK CT,MENLO PARK,CA,94025,320,OAK CT,37.45824,-122.14904
322 OAK CT,MENLO PARK,CA,94025,322,OAK CT,37.45812,-122.14869
323 OAK CT,MENLO PARK,CA,94025,323,OAK CT,37.45889,-122.14854
324 OAK CT,MENLO PARK,CA,94025,324,OAK CT,37.45842,-122.14858
325 OAK CT,MENLO PARK,CA,94025,325,OAK CT,37.45914,-122.14845
329 OAK CT,MENLO PARK,CA,94025,329,OAK CT,37.45914,-122.14812
402 OAK CT,MENLO PARK,CA,94025,402,OAK CT,37.45866,-122.1478
415 OAK CT,MENLO PARK,CA,94025,415,OAK CT,37.45811,-122.14769
427 OAK CT,MENLO PARK,CA,94025,427,OAK CT,37.4581,-122.14743
431 OAK CT,MENLO PARK,CA,94025,431,OAK CT,37.45802,-122.1471
444 OAK CT,MENLO PARK,CA,94025,444,OAK CT,37.45868,-122.14687
465 OAK CT,MENLO PARK,CA,94025,465,OAK CT,37.45825,-122.1467
468 OAK CT,MENLO PARK,CA,94025,468,OAK CT,37.45881,-122.14643
469 OAK CT,MENLO PARK,CA,94025,469,OAK CT,37.45834,-122.14639
472 OAK CT,MENLO PARK,CA,94025,472,OAK CT,37.45877,-122.14616
476 OAK CT,MENLO PARK,CA,94025,476,OAK CT,37.45871,-122.14592
485 OAK CT,MENLO PARK,CA,94025,485,OAK CT,37.4583,-122.14611
488 OAK CT,MENLO PARK,CA,94025,488,OAK CT,37.45861,-122.14573
401 OAKDALE AVE,EAST PALO ALTO,CA,94303,401,OAKDALE AVE,37.4685,-122.14503
409 OAKDALE AVE,EAST PALO ALTO,CA,94303,409,OAKDALE AVE,37.46846,-122.14486
430 OAKDALE AVE,PALO ALTO,CA,94303,430,OAKDALE AVE,37.468,-122.14428
901 OAKES ST,EAST PALO ALTO,CA,94303,901,OAKES ST,37.45823,-122.13436
904 OAKES ST,EAST PALO ALTO,CA,94303,904,OAKES ST,37.45792,-122.13423
905 OAKES ST,PALO ALTO,CA,94303,905,OAKES ST,37.45823,-122.13404
906 OAKES ST,EAST PALO ALTO,CA,94303,906,OAKES ST,37.45792,-122.13407
907 OAKES ST,EAST PALO ALTO,CA,94303,907,OAKES ST,37.45825,-122.1339
908 OAKES ST,EAST PALO ALTO,CA,94303,908,OAKES ST,37.45793,-122.1339
909 OAKES ST,PALO ALTO,CA,94303,909,OAKES ST,37.45825,-122.13374
910 OAKES ST,EAST PALO ALTO,CA,94303,910,OAKES ST,37.45794,-122.13375
912 OAKES ST,EAST PALO ALTO,CA,94303,912,OAKES ST,37.45794,-122.13358
913 OAKES ST,EAST PALO ALTO,CA,94303,913,OAKES ST,37.45825,-122.13342
914 OAKES ST,EAST PALO ALTO,CA,94303,914,OAKES ST,37.45794,-122.13342
915 OAKES ST,EAST PALO ALTO,CA,94303,915,OAKES ST,37.45826,-122.13328
916 OAKES ST,EAST PALO ALTO,CA,94303,916,OAKES ST,37.45796,-122.13327
917 OAKES ST,EAST PALO ALTO,CA,94303,917,OAKES ST,37.45827,-122.13311
918 OAKES ST,EAST PALO ALTO,CA,94303,918,OAKES ST,37.45796,-122.1331
919 OAKES ST,EAST PALO ALTO,CA,94303,919,OAKES ST,37.45827,-122.13296
920 OAKES ST,EAST PALO ALTO,CA,94303,920,OAKES ST,37.45797,-122.13295
921 OAKES ST,EAST PALO ALTO,CA,94303,921,OAKES ST,37.45835,-122.13147
922 OAKES ST,EAST PALO ALTO,CA,94303,922,OAKES ST,37.45794,-122.13231
923 OAKES ST,EAST PALO ALTO,CA,94303,923,OAKES ST,37.45838,-122.13133
926 OAKES ST,EAST PALO ALTO,CA,94303,926,OAKES ST,37.45795,-122.13204
928 OAKES ST,EAST PALO ALTO,CA,94303,928,OAKES ST,37.45798,-122.13189
930 OAKES ST,EAST PALO ALTO,CA,94303,930,OAKES ST,37.45796,-122.13176
931 OAKES ST,EAST PALO ALTO,CA,94303,931,OAKES ST,37.45838,-122.13078
934 OAKES ST,EAST PALO ALTO,CA,94303,934,OAKES ST,37.45797,-122.13148
935 OAKES ST,EAST PALO ALTO,CA,94303,935,OAKES ST,37.45839,-122.1305
936 OAKES ST,EAST PALO ALTO,CA,94303,936,OAKES ST,37.45799,-122.13134
937 OAKES ST,EAST PALO ALTO,CA,94303,937,OAKES ST,37.45835,-122.13036
942 OAKES ST,EAST PALO ALTO,CA,94303,942,OAKES ST,37.45801,-122.13092
2057 OAKWOOD DR,EAST PALO ALTO,CA,94303,2057,OAKWOOD DR,37.46388,-122.14835
2068 OAKWOOD DR,EAST PALO ALTO,CA,94303,2068,OAKWOOD DR,37.4636,-122.14782
2070 OAKWOOD DR,EAST PALO ALTO,CA,94303,2070,OAKWOOD DR,37.46375,-122.14782
2119 OAKWOOD DR,EAST PALO ALTO,CA,94303,2119,OAKWOOD DR,37.4653,-122.14792
2120 OAKWOOD DR,EAST PALO ALTO,CA,94303,2120,OAKWOOD DR,37.46523,-122.14752
2122 OAKWOOD DR,EAST PALO ALTO,CA,94303,2122,OAKWOOD DR,37.46535,-122.14732
2127 OAKWOOD DR,EAST PALO ALTO,CA,94303,2127,OAKWOOD DR,37.46572,-122.1478
2133 OAKWOOD DR,EAST PALO ALTO,CA,94303,2133,OAKWOOD DR,37.46587,-122.14784
2140 OAKWOOD DR,EAST PALO ALTO,CA,94303,2140,OAKWOOD DR,37.46562,-122.14737
2146 OAKWOOD DR,EAST PALO ALTO,CA,94303,2146,OAKWOOD DR,37.46573,-122.14723
2151 OAKWOOD DR,EAST PALO ALTO,CA,94303,2151,OAKWOOD DR,37.46613,-122.14776
2204 OAKWOOD DR,EAST PALO ALTO,CA,94303,2204,OAKWOOD DR,37.46644,-122.14723
2210 OAKWOOD DR,EAST PALO ALTO,CA,94303,2210,OAKWOOD DR,37.46657,-122.14715
2228 OAKWOOD DR,EAST PALO ALTO,CA,94303,2228,OAKWOOD DR,37.46711,-122.14694
2236 OAKWOOD DR,EAST PALO ALTO,CA,94303,2236,OAKWOOD DR,37.46727,-122.14713
2242 OAKWOOD DR,EAST PALO ALTO,CA,94303,2242,OAKWOOD DR,37.46741,-122.14714
2248 OAKWOOD DR,PALO ALTO,CA,94303,2248,OAKWOOD DR,37.46752,-122.14708
2250 OAKWOOD DR,EAST PALO ALTO,CA,94303,2250,OAKWOOD DR,37.46766,-122.147
2255 OAKWOOD DR,EAST PALO ALTO,CA,94303,2255,OAKWOOD DR,37.46763,-122.14749
2258 OAKWOOD DR,EAST PALO ALTO,CA,94303,2258,OAKWOOD DR,37.46779,-122.147
2262 OAKWOOD DR,EAST PALO ALTO,CA,94303,2262,OAKWOOD DR,37.46796,-122.147
2265 OAKWOOD DR,EAST PALO ALTO,CA,94303,2265,OAKWOOD DR,37.4679,-122.1474
2271 OAKWOOD DR,EAST PALO ALTO,CA,94303,2271,OAKWOOD DR,37.46805,-122.14736
2290 OAKWOOD DR,EAST PALO ALTO,CA,94303,2290,OAKWOOD DR,37.46812,-122.14696
2291 OAKWOOD DR,EAST PALO ALTO,CA,94303,2291,OAKWOOD DR,37.46805,-122.14736
2317 OAKWOOD DR,EAST PALO ALTO,CA,94303,2317,OAKWOOD DR,37.4687,-122.14719
2321 OAKWOOD DR,EAST PALO ALTO,CA,94303,2321,OAKWOOD DR,37.46882,-122.14721
2324 OAKWOOD DR,EAST PALO ALTO,CA,94303,2324,OAKWOOD DR,37.46893,-122.14675
2341 OAKWOOD DR,EAST PALO ALTO,CA,94303,2341,OAKWOOD DR,37.46918,-122.14717
2345 OAKWOOD DR,EAST PALO ALTO,CA,94303,2345,OAKWOOD DR,37.46926,-122.1471
2352 OAKWOOD DR,EAST PALO ALTO,CA,94303,2352,OAKWOOD DR,37.4692,-122.14669
2356 OAKWOOD DR,EAST PALO ALTO,CA,94303,2356,OAKWOOD DR,37.46933,-122.14668
2357 OAKWOOD DR,EAST PALO ALTO,CA,94303,2357,OAKWOOD DR,37.46938,-122.14705
2359 OAKWOOD DR,EAST PALO ALTO,CA,94303,2359,OAKWOOD DR,37.46959,-122.14705
2360 OAKWOOD DR,EAST PALO ALTO,CA,94303,2360,OAKWOOD DR,37.46946,-122.14657
2364 OAKWOOD DR,EAST PALO ALTO,CA,94303,2364,OAKWOOD DR,37.46959,-122.14661
2368 OAKWOOD DR,EAST PALO ALTO,CA,94303,2368,OAKWOOD DR,37.4697,-122.14642
2374 OAKWOOD DR,EAST PALO ALTO,CA,94303,2374,OAKWOOD DR,37.46987,-122.14653
2386 OAKWOOD DR,PALO ALTO,CA,94303,2386,OAKWOOD DR,37.47038,-122.14638
2397 OAKWOOD DR,EAST PALO ALTO,CA,94303,2397,OAKWOOD DR,37.4706,-122.14679
110 OCONNOR ST,MENLO PARK,CA,94025,110,OCONNOR ST,37.46117,-122.15158
111 OCONNOR ST,MENLO PARK,CA,94025,111,OCONNOR ST,37.46154,-122.15142
120 OCONNOR ST,MENLO PARK,CA,94025,120,OCONNOR ST,37.46081,-122.15142
124 OCONNOR ST,MENLO PARK,CA,94025,124,OCONNOR ST,37.46078,-122.15119
130 OCONNOR ST,MENLO PARK,CA,94025,130,OCONNOR ST,37.46109,-122.15107
139 OCONNOR ST,MENLO PARK,CA,94025,139,OCONNOR ST,37.46142,-122.15062
220 OCONNOR ST,MENLO PARK,CA,94025,220,OCONNOR ST,37.46093,-122.15008
230 OCONNOR ST,MENLO PARK,CA,94025,230,OCONNOR ST,37.46088,-122.14975
233 OCONNOR ST,MENLO PARK,CA,94025,233,OCONNOR ST,37.46134,-122.14998
235 OCONNOR ST,MENLO PARK,CA,94025,235,OCONNOR ST,37.46153,-122.14986
244 OCONNOR ST,MENLO PARK,CA,94025,244,OCONNOR ST,37.46082,-122.14955
251 OCONNOR ST,MENLO PARK,CA,94025,251,OCONNOR ST,37.46135,-122.14946
262 OCONNOR ST,MENLO PARK,CA,94025,262,OCONNOR ST,37.46073,-122.14927
269 OCONNOR ST,MENLO PARK,CA,94025,269,OCONNOR ST,37.46149,-122.14909
278 OCONNOR ST,MENLO PARK,CA,94025,278,OCONNOR ST,37.46073,-122.14897
304 OCONNOR ST,MENLO PARK,CA,94025,304,OCONNOR ST,37.46073,-122.14875
313 OCONNOR ST,MENLO PARK,CA,94025,313,OCONNOR ST,37.46114,-122.14855
325 OCONNOR ST,MENLO PARK,CA,94025,325,OCONNOR ST,37.46138,-122.1481
329 OCONNOR ST,MENLO PARK,CA,94025,329,OCONNOR ST,37.46108,-122.14813
332 OCONNOR ST,MENLO PARK,CA,94025,332,OCONNOR ST,37.46061,-122.148
341 OCONNOR ST,MENLO PARK,CA,94025,341,OCONNOR ST,37.4611,-122.14785
346 OCONNOR ST,MENLO PARK,CA,94025,346,OCONNOR ST,37.46004,-122.14835
354 OCONNOR ST,MENLO PARK,CA,94025,354,OCONNOR ST,37.46059,-122.14773
364 OCONNOR ST,MENLO PARK,CA,94025,364,OCONNOR ST,37.46022,-122.14779
373 OCONNOR ST,MENLO PARK,CA,94025,373,OCONNOR ST,37.4612,-122.14742
379 OCONNOR ST,MENLO PARK,CA,94025,379,OCONNOR ST,37.46121,-122.147
390 OCONNOR ST,MENLO PARK,CA,94025,390,OCONNOR ST,37.46055,-122.14719
394 OCONNOR ST,MENLO PARK,CA,94025,394,OCONNOR ST,37.4602,-122.14722
417 OCONNOR ST,MENLO PARK,CA,94025,417,OCONNOR ST,37.46092,-122.1468
430 OCONNOR ST,MENLO PARK,CA,94025,430,OCONNOR ST,37.46048,-122.14656
443 OCONNOR ST,MENLO PARK,CA,94025,443,OCONNOR ST,37.46084,-122.14608
459 OCONNOR ST,MENLO PARK,CA,94025,459,OCONNOR ST,37.46083,-122.14571
474 OCONNOR ST,MENLO PARK,CA,94025,474,OCONNOR ST,37.46029,-122.14558
476 OCONNOR ST,MENLO PARK,CA,94025,476,OCONNOR ST,37.45989,-122.14569
483 OCONNOR ST,MENLO PARK,CA,94025,483,OCONNOR ST,37.46067,-122.14518
912 OCONNOR ST,EAST PALO ALTO,CA,94303,912,OCONNOR ST,37.4606,-122.13234
918 OCONNOR ST,EAST PALO ALTO,CA,94303,918,OCONNOR ST,37.46062,-122.13187
920 OCONNOR ST,EAST PALO ALTO,CA,94303,920,OCONNOR ST,37.46062,-122.13172
922 OCONNOR ST,EAST PALO ALTO,CA,94303,922,OCONNOR ST,37.46063,-122.13157
924 OCONNOR ST,EAST PALO ALTO,CA,94303,924,OCONNOR ST,37.46063,-122.1314
928 OCONNOR ST,EAST PALO ALTO,CA,94303,928,OCONNOR ST,37.46064,-122.13109
930 OCONNOR ST,EAST PALO ALTO,CA,94303,930,OCONNOR ST,37.46065,-122.13093
932 OCONNOR ST,EAST PALO ALTO,CA,94303,932,OCONNOR ST,37.46066,-122.13078
934 OCONNOR ST,EAST PALO ALTO,CA,94303,934,OCONNOR ST,37.46066,-122.13062
960 OCONNOR ST,EAST PALO ALTO,CA,94303,960,OCONNOR ST,37.46053,-122.13404
1128 OCONNOR ST,EAST PALO ALTO,CA,94303,1128,OCONNOR ST,37.46081,-122.1286
1132 OCONNOR ST,EAST PALO ALTO,CA,94303,1132,OCONNOR ST,37.46084,-122.12807
1135 OCONNOR ST,EAST PALO ALTO,CA,94303,1135,OCONNOR ST,37.4612,-122.1279
1165 OCONNOR ST,EAST PALO ALTO,CA,94303,1165,OCONNOR ST,37.46125,-122.12575
135 OKEEFE ST,MENLO PARK,CA,94025,135,OKEEFE ST,37.46288,-122.15104
165 OKEEFE ST,MENLO PARK,CA,94025,165,OKEEFE ST,37.4628,-122.15045
2310 PALO VERDE AVE,EAST PALO ALTO,CA,94303,2310,PALO VERDE AVE,37.46818,-122.14675
2318 PALO VERDE AVE,EAST PALO ALTO,CA,94303,2318,PALO VERDE AVE,37.46826,-122.14657
2324 PALO VERDE AVE,EAST PALO ALTO,CA,94303,2324,PALO VERDE AVE,37.46827,-122.14644
2327 PALO VERDE AVE,EAST PALO ALTO,CA,94303,2327,PALO VERDE AVE,37.46878,-122.14557
2330 PALO VERDE AVE,EAST PALO ALTO,CA,94303,2330,PALO VERDE AVE,37.4683,-122.14561
2336 PALO VERDE AVE,EAST PALO ALTO,CA,94303,2336,PALO VERDE AVE,37.46833,-122.14544
2351 PALO VERDE AVE,EAST PALO ALTO,CA,94303,2351,PALO VERDE AVE,37.46913,-122.14529
2355 PALO VERDE AVE,EAST PALO ALTO,CA,94303,2355,PALO VERDE AVE,37.46925,-122.14508
2358 PALO VERDE AVE,EAST PALO ALTO,CA,94303,2358,PALO VERDE AVE,37.46924,-122.14436
2362 PALO VERDE AVE,EAST PALO ALTO,CA,94303,2362,PALO VERDE AVE,37.46951,-122.14425
2369 PALO VERDE AVE,EAST PALO ALTO,CA,94303,2369,PALO VERDE AVE,37.46959,-122.14474
2373 PALO VERDE AVE,EAST PALO ALTO,CA,94303,2373,PALO VERDE AVE,37.46977,-122.14478
2374 PALO VERDE AVE,EAST PALO ALTO,CA,94303,2374,PALO VERDE AVE,37.46987,-122.14412
2378 PALO VERDE AVE,EAST PALO ALTO,CA,94303,2378,PALO VERDE AVE,37.47001,-122.14419
2379 PALO VERDE AVE,EAST PALO ALTO,CA,94303,2379,PALO VERDE AVE,37.47005,-122.14473
2382 PALO VERDE AVE,EAST PALO ALTO,CA,94303,2382,PALO VERDE AVE,37.47016,-122.14416
2397 PALO VERDE AVE,EAST PALO ALTO,CA,94303,2397,PALO VERDE AVE,37.47079,-122.14463
803 PAUL ROBESON CT,EAST PALO ALTO,CA,94303,803,PAUL ROBESON CT,37.47046,-122.13734
805 PAUL ROBESON CT,EAST PALO ALTO,CA,94303,805,PAUL ROBESON CT,37.4706,-122.13735
807 PAUL ROBESON CT,PALO ALTO,CA,94303,807,PAUL ROBESON CT,37.47081,-122.13735
811 PAUL ROBESON CT,EAST PALO ALTO,CA,94303,811,PAUL ROBESON CT,37.47084,-122.13694
815 PAUL ROBESON CT,EAST PALO ALTO,CA,94303,815,PAUL ROBESON CT,37.47047,-122.13692
817 PAUL ROBESON CT,EAST PALO ALTO,CA,94303,817,PAUL ROBESON CT,37.4703,-122.13692
2006 POPLAR AVE,EAST PALO ALTO,CA,94303,2006,POPLAR AVE,37.46494,-122.15011
2007 POPLAR AVE,EAST PALO ALTO,CA,94303,2007,POPLAR AVE,37.46516,-122.15056
2010 POPLAR AVE,EAST PALO ALTO,CA,94303,2010,POPLAR AVE,37.46508,-122.15007
2017 POPLAR AVE,EAST PALO ALTO,CA,94303,2017,POPLAR AVE,37.46528,-122.15054
2023 POPLAR AVE,EAST PALO ALTO,CA,94303,2023,POPLAR AVE,37.46542,-122.15053
2026 POPLAR AVE,EAST PALO ALTO,CA,94303,2026,POPLAR AVE,37.4652,-122.15006
2032 POPLAR AVE,EAST PALO ALTO,CA,94303,2032,POPLAR AVE,37.46533,-122.15004
2033 POPLAR AVE,EAST PALO ALTO,CA,94303,2033,POPLAR AVE,37.46557,-122.15054
2159 POPLAR AVE,EAST PALO ALTO,CA,94303,2159,POPLAR AVE,37.46648,-122.15026
2162 POPLAR AVE,EAST PALO ALTO,CA,94303,2162,POPLAR AVE,37.46653,-122.14975
2164 POPLAR AVE,EAST PALO ALTO,CA,94303,2164,POPLAR AVE,37.46659,-122.14968
2165 POPLAR AVE,PALO ALTO,CA,94303,2165,POPLAR AVE,37.46661,-122.15024
2172 POPLAR AVE,EAST PALO ALTO,CA,94301,2172,POPLAR AVE,37.46698,-122.14971
2173 POPLAR AVE,EAST PALO ALTO,CA,94303,2173,POPLAR AVE,37.46689,-122.15018
2174 POPLAR AVE,PALO ALTO,CA,94303,2174,POPLAR AVE,37.46712,-122.14964
2177 POPLAR AVE,PALO ALTO,CA,94303,2177,POPLAR AVE,37.46704,-122.15013
2188 POPLAR AVE,EAST PALO ALTO,CA,94303,2188,POPLAR AVE,37.46723,-122.14961
2191 POPLAR AVE,EAST PALO ALTO,CA,94303,2191,POPLAR AVE,37.46729,-122.15008
2194 POPLAR AVE,EAST PALO ALTO,CA,94303,2194,POPLAR AVE,37.46739,-122.1496
2197 POPLAR AVE,EAST PALO ALTO,CA,94303,2197,POPLAR AVE,37.46745,-122.15008
2202 POPLAR AVE,PALO ALTO,CA,94303,2202,POPLAR AVE,37.46764,-122.14952
2205 POPLAR AVE,PALO ALTO,CA,94303,2205,POPLAR AVE,37.46775,-122.15
2214 POPLAR AVE,EAST PALO ALTO,CA,94303,2214,POPLAR AVE,37.46791,-122.14945
2222 POPLAR AVE,EAST PALO ALTO,CA,94303,2222,POPLAR AVE,37.46806,-122.14944
2225 POPLAR AVE,EAST PALO ALTO,CA,94303,2225,POPLAR AVE,37.46811,-122.14993
2227 POPLAR AVE,EAST PALO ALTO,CA,94303,2227,POPLAR AVE,37.46821,-122.1499
2230 POPLAR AVE,EAST PALO ALTO,CA,94303,2230,POPLAR AVE,37.46819,-122.14943
2243 POPLAR AVE,EAST PALO ALTO,CA,94303,2243,POPLAR AVE,37.46853,-122.14983
2247 POPLAR AVE,EAST PALO ALTO,CA,94303,2247,POPLAR AVE,37.46865,-122.14977
2248 POPLAR AVE,EAST PALO ALTO,CA,94303,2248,POPLAR AVE,37.46845,-122.1493
2250 POPLAR AVE,EAST PALO ALTO,CA,94303,2250,POPLAR AVE,37.46861,-122.14931
2251 POPLAR AVE,EAST PALO ALTO,CA,94303,2251,POPLAR AVE,37.46879,-122.14972
2255 POPLAR AVE,EAST PALO ALTO,CA,94303,2255,POPLAR AVE,37.46893,-122.14973
2256 POPLAR AVE,EAST PALO ALTO,CA,94303,2256,POPLAR AVE,37.46886,-122.14923
2262 POPLAR AVE,EAST PALO ALTO,CA,94303,2262,POPLAR AVE,37.469,-122.1491
2265 POPLAR AVE,PALO ALTO,CA,94303,2265,POPLAR AVE,37.4692,-122.14964
2271 POPLAR AVE,EAST PALO ALTO,CA,94303,2271,POPLAR AVE,37.4693,-122.14959
2274 POPLAR AVE,EAST PALO ALTO,CA,94303,2274,POPLAR AVE,37.4694,-122.14908
2277 POPLAR AVE,EAST PALO ALTO,CA,94303,2277,POPLAR AVE,37.46957,-122.14958
2278 POPLAR AVE,EAST PALO ALTO,CA,94303,2278,POPLAR AVE,37.46964,-122.14905
2280 POPLAR AVE,EAST PALO ALTO,CA,94303,2280,POPLAR AVE,37.46978,-122.14905
2291 POPLAR AVE,EAST PALO ALTO,CA,94303,2291,POPLAR AVE,37.46994,-122.14946
2292 POPLAR AVE,PALO ALTO,CA,94303,2292,POPLAR AVE,37.47002,-122.14899
2298 POPLAR AVE,EAST PALO ALTO,CA,94303,2298,POPLAR AVE,37.47024,-122.14897
1912 PULGAS AVE,EAST PALO ALTO,CA,94303,1912,PULGAS AVE,37.45516,-122.12965
1914 PULGAS AVE,EAST PALO ALTO,CA,94303,1914,PULGAS AVE,37.45532,-122.12964
1916 PULGAS AVE,EAST PALO ALTO,CA,94303,1916,PULGAS AVE,37.45551,-122.12968
1920 PULGAS AVE,EAST PALO ALTO,CA,94303,1920,PULGAS AVE,37.45588,-122.1297
1922 PULGAS AVE,EAST PALO ALTO,CA,94303,1922,PULGAS AVE,37.45608,-122.12969
1928 PULGAS AVE,EAST PALO ALTO,CA,94303,1928,PULGAS AVE,37.45649,-122.12968
1930 PULGAS AVE,EAST PALO ALTO,CA,94303,1930,PULGAS AVE,37.45662,-122.1297
1932 PULGAS AVE,EAST PALO ALTO,CA,94303,1932,PULGAS AVE,37.45676,-122.12969
1934 PULGAS AVE,EAST PALO ALTO,CA,94303,1934,PULGAS AVE,37.4569,-122.12968
1936 PULGAS AVE,EAST PALO ALTO,CA,94303,1936,PULGAS AVE,37.45703,-122.12972
1940 PULGAS AVE,EAST PALO ALTO,CA,94303,1940,PULGAS AVE,37.45731,-122.12969
1942 PULGAS AVE,EAST PALO ALTO,CA,94303,1942,PULGAS AVE,37.45745,-122.12969
1944 PULGAS AVE,EAST PALO ALTO,CA,94303,1944,PULGAS AVE,37.45759,-122.1297
1946 PULGAS AVE,EAST PALO ALTO,CA,94303,1946,PULGAS AVE,37.45772,-122.12971
1948 PULGAS AVE,EAST PALO ALTO,CA,94303,1948,PULGAS AVE,37.45788,-122.12978
1952 PULGAS AVE,PALO ALTO,CA,94303,1952,PULGAS AVE,37.45835,-122.12979
1956 PULGAS AVE,PALO ALTO,CA,94303,1956,PULGAS AVE,37.45869,-122.12975
1966 PULGAS AVE,EAST PALO ALTO,CA,94303,1966,PULGAS AVE,37.45938,-122.12975
1970 PULGAS AVE,EAST PALO ALTO,CA,94303,1970,PULGAS AVE,37.45965,-122.12977
1972 PULGAS AVE,EAST PALO ALTO,CA,94303,1972,PULGAS AVE,37.45979,-122.12978
1976 PULGAS AVE,EAST PALO ALTO,CA,94303,1976,PULGAS AVE,37.46007,-122.12977
1978 PULGAS AVE,EAST PALO ALTO,CA,94303,1978,PULGAS AVE,37.4602,-122.12979
2004 PULGAS AVE,EAST PALO ALTO,CA,94303,2004,PULGAS AVE,37.46114,-122.12979
2012 PULGAS AVE,EAST PALO ALTO,CA,94303,2012,PULGAS AVE,37.46148,-122.12983
2016 PULGAS AVE,EAST PALO ALTO,CA,94303,2016,PULGAS AVE,37.46162,-122.12983
2020 PULGAS AVE,PALO ALTO,CA,94303,2020,PULGAS AVE,37.46175,-122.12983
2024 PULGAS AVE,EAST PALO ALTO,CA,94303,2024,PULGAS AVE,37.46189,-122.12984
2032 PULGAS AVE,EAST PALO ALTO,CA,94303,2032,PULGAS AVE,37.46217,-122.12984
2041 PULGAS AVE,EAST PALO ALTO,CA,94303,2041,PULGAS AVE,37.46273,-122.1304
2044 PULGAS AVE,EAST PALO ALTO,CA,94303,2044,PULGAS AVE,37.46258,-122.12986
2048 PULGAS AVE,PALO ALTO,CA,94303,2048,PULGAS AVE,37.46272,-122.12984
2051 PULGAS AVE,EAST PALO ALTO,CA,94303,2051,PULGAS AVE,37.46288,-122.13047
2052 PULGAS AVE,EAST PALO ALTO,CA,94303,2052,PULGAS AVE,37.46285,-122.12986
2056 PULGAS AVE,EAST PALO ALTO,CA,94303,2056,PULGAS AVE,37.46299,-122.12986
2060 PULGAS AVE,EAST PALO ALTO,CA,94303,2060,PULGAS AVE,37.46313,-122.12986
2061 PULGAS AVE,EAST PALO ALTO,CA,94303,2061,PULGAS AVE,37.46304,-122.13042
2072 PULGAS AVE,EAST PALO ALTO,CA,94303,2072,PULGAS AVE,37.46354,-122.12988
2100 PULGAS AVE,EAST PALO ALTO,CA,94303,2100,PULGAS AVE,37.46413,-122.12997
2136 PULGAS AVE,EAST PALO ALTO,CA,94303,2136,PULGAS AVE,37.46446,-122.12992
2150 PULGAS AVE,EAST PALO ALTO,CA,94303,2150,PULGAS AVE,37.4646,-122.12993
2166 PULGAS AVE,EAST PALO ALTO,CA,94303,2166,PULGAS AVE,37.46474,-122.12992
2180 PULGAS AVE,EAST PALO ALTO,CA,94303,2180,PULGAS AVE,37.46488,-122.1299
2196 PULGAS AVE,PALO ALTO,CA,94303,2196,PULGAS AVE,37.46501,-122.12993
2208 PULGAS AVE,EAST PALO ALTO,CA,94303,2208,PULGAS AVE,37.46558,-122.12998
2209 PULGAS AVE,PALO ALTO,CA,94303,2209,PULGAS AVE,37.4657,-122.13049
2213 PULGAS AVE,EAST PALO ALTO,CA,94303,2213,PULGAS AVE,37.46584,-122.13049
2217 PULGAS AVE,EAST PALO ALTO,CA,94303,2217,PULGAS AVE,37.46598,-122.13049
2218 PULGAS AVE,EAST PALO ALTO,CA,94303,2218,PULGAS AVE,37.46571,-122.12999
2228 PULGAS AVE,EAST PALO ALTO,CA,94303,2228,PULGAS AVE,37.46584,-122.12999
2234 PULGAS AVE,EAST PALO ALTO,CA,94303,2234,PULGAS AVE,37.46616,-122.12997
2239 PULGAS AVE,EAST PALO ALTO,CA,94303,2239,PULGAS AVE,37.46654,-122.13051
2240 PULGAS AVE,EAST PALO ALTO,CA,94303,2240,PULGAS AVE,37.46627,-122.12996
2244 PULGAS AVE,EAST PALO ALTO,CA,94303,2244,PULGAS AVE,37.46642,-122.12997
2245 PULGAS AVE,EAST PALO ALTO,CA,94303,2245,PULGAS AVE,37.46677,-122.13042
2248 PULGAS AVE,EAST PALO ALTO,CA,94303,2248,PULGAS AVE,37.46657,-122.12997
2250 PULGAS AVE,EAST PALO ALTO,CA,94303,2250,PULGAS AVE,37.46739,-122.13
2260 PULGAS AVE,PALO ALTO,CA,94303,2260,PULGAS AVE,37.46752,-122.13002
2269 PULGAS AVE,PALO ALTO,CA,94303,2269,PULGAS AVE,37.46778,-122.13051
2274 PULGAS AVE,EAST PALO ALTO,CA,94303,2274,PULGAS AVE,37.4678,-122.13001
2275 PULGAS AVE,EAST PALO ALTO,CA,94303,2275,PULGAS AVE,37.46793,-122.13055
2290 PULGAS AVE,EAST PALO ALTO,CA,94303,2290,PULGAS AVE,37.46821,-122.13003
2295 PULGAS AVE,EAST PALO ALTO,CA,94303,2295,PULGAS AVE,37.46821,-122.13058
2296 PULGAS AVE,EAST PALO ALTO,CA,94303,2296,PULGAS AVE,37.46846,-122.1301
2305 PULGAS AVE,EAST PALO ALTO,CA,94303,2305,PULGAS AVE,37.46889,-122.1305
2312 PULGAS AVE,EAST PALO ALTO,CA,94303,2312,PULGAS AVE,37.46911,-122.13003
2315 PULGAS AVE,EAST PALO ALTO,CA,94303,2315,PULGAS AVE,37.46923,-122.13058
2323 PULGAS AVE,EAST PALO ALTO,CA,94303,2323,PULGAS AVE,37.46938,-122.13061
2324 PULGAS AVE,EAST PALO ALTO,CA,94303,2324,PULGAS AVE,37.46953,-122.13007
2325 PULGAS AVE,EAST PALO ALTO,CA,94303,2325,PULGAS AVE,37.46951,-122.13058
2332 PULGAS AVE,EAST PALO ALTO,CA,94303,2332,PULGAS AVE,37.46967,-122.13
2337 PULGAS AVE,EAST PALO ALTO,CA,94303,2337,PULGAS AVE,37.46965,-122.13062
2348 PULGAS AVE,EAST PALO ALTO,CA,94303,2348,PULGAS AVE,37.46994,-122.13005
2450 PULGAS AVE,PALO ALTO,CA,94303,2450,PULGAS AVE,37.47136,-122.13068
2493 PULGAS AVE,EAST PALO ALTO,CA,94303,2493,PULGAS AVE,37.47259,-122.13197
2035 RALMAR AVE,EAST PALO ALTO,CA,94303,2035,RALMAR AVE,37.46401,-122.15029
2041 RALMAR AVE,EAST PALO ALTO,CA,94303,2041,RALMAR AVE,37.46414,-122.15023
2042 RALMAR AVE,EAST PALO ALTO,CA,94303,2042,RALMAR AVE,37.46394,-122.14977
2050 RALMAR AVE,EAST PALO ALTO,CA,94303,2050,RALMAR AVE,37.46407,-122.14974
2061 RALMAR AVE,EAST PALO ALTO,CA,94303,2061,RALMAR AVE,37.46427,-122.15021
2064 RALMAR AVE,PALO ALTO,CA,94303,2064,RALMAR AVE,37.4642,-122.14971
2081 RALMAR AVE,EAST PALO ALTO,CA,94303,2081,RALMAR AVE,37.4644,-122.1502
2115 RALMAR AVE,EAST PALO ALTO,CA,94303,2115,RALMAR AVE,37.46515,-122.14974
2144 RALMAR AVE,PALO ALTO,CA,94303,2144,RALMAR AVE,37.46591,-122.14902
2152 RALMAR AVE,EAST PALO ALTO,CA,94303,2152,RALMAR AVE,37.46617,-122.14897
2157 RALMAR AVE,EAST PALO ALTO,CA,94303,2157,RALMAR AVE,37.46636,-122.1494
2162 RALMAR AVE,EAST PALO ALTO,CA,94303,2162,RALMAR AVE,37.46644,-122.14879
2163 RALMAR AVE,EAST PALO ALTO,CA,94303,2163,RALMAR AVE,37.46651,-122.1494
2166 RALMAR AVE,EAST PALO ALTO,CA,94303,2166,RALMAR AVE,37.46657,-122.14885
2167 RALMAR AVE,PALO ALTO,CA,94303,2167,RALMAR AVE,37.46667,-122.14934
2177 RALMAR AVE,EAST PALO ALTO,CA,94303,2177,RALMAR AVE,37.46691,-122.14931
2188 RALMAR AVE,EAST PALO ALTO,CA,94303,2188,RALMAR AVE,37.46712,-122.14874
2189 RALMAR AVE,PALO ALTO,CA,94303,2189,RALMAR AVE,37.46719,-122.14926
2195 RALMAR AVE,EAST PALO ALTO,CA,94303,2195,RALMAR AVE,37.4673,-122.14916
2211 RALMAR AVE,PALO ALTO,CA,94303,2211,RALMAR AVE,37.46772,-122.1491
2212 RALMAR AVE,EAST PALO ALTO,CA,94303,2212,RALMAR AVE,37.4678,-122.14862
2224 RALMAR AVE,EAST PALO ALTO,CA,94303,2224,RALMAR AVE,37.46819,-122.14852
2225 RALMAR AVE,EAST PALO ALTO,CA,94303,2225,RALMAR AVE,37.468,-122.14906
2228 RALMAR AVE,EAST PALO ALTO,CA,94303,2228,RALMAR AVE,37.46836,-122.14851
2234 RALMAR AVE,EAST PALO ALTO,CA,94303,2234,RALMAR AVE,37.46844,-122.14846
2236 RALMAR AVE,EAST PALO ALTO,CA,94303,2236,RALMAR AVE,37.4685,-122.14844
2238 RALMAR AVE,PALO ALTO,CA,94303,2238,RALMAR AVE,37.4686,-122.1484
2240 RALMAR AVE,EAST PALO ALTO,CA,94303,2240,RALMAR AVE,37.46877,-122.14842
2245 RALMAR AVE,PALO ALTO,CA,94303,2245,RALMAR AVE,37.46841,-122.14896
2249 RALMAR AVE,PALO ALTO,CA,94303,2249,RALMAR AVE,37.46854,-122.14889
2253 RALMAR AVE,EAST PALO ALTO,CA,94303,2253,RALMAR AVE,37.46867,-122.1489
2261 RALMAR AVE,EAST PALO ALTO,CA,94303,2261,RALMAR AVE,37.46882,-122.14885
2262 RALMAR AVE,EAST PALO ALTO,CA,94303,2262,RALMAR AVE,37.46941,-122.14819
2265 RALMAR AVE,EAST PALO ALTO,CA,94303,2265,RALMAR AVE,37.46894,-122.14881
2270 RALMAR AVE,EAST PALO ALTO,CA,94303,2270,RALMAR AVE,37.46956,-122.14822
2273 RALMAR AVE,EAST PALO ALTO,CA,94303,2273,RALMAR AVE,37.46923,-122.14883
2274 RALMAR AVE,EAST PALO ALTO,CA,94303,2274,RALMAR AVE,37.46969,-122.1482
2276 RALMAR AVE,EAST PALO ALTO,CA,94303,2276,RALMAR AVE,37.46979,-122.14814
2278 RALMAR AVE,EAST PALO ALTO,CA,94303,2278,RALMAR AVE,37.46989,-122.14816
2281 RALMAR AVE,EAST PALO ALTO,CA,94303,2281,RALMAR AVE,37.46948,-122.14868
2287 RALMAR AVE,EAST PALO ALTO,CA,94303,2287,RALMAR AVE,37.46976,-122.14867
2290 RALMAR AVE,EAST PALO ALTO,CA,94303,2290,RALMAR AVE,37.47003,-122.14812
2291 RALMAR AVE,EAST PALO ALTO,CA,94303,2291,RALMAR AVE,37.4699,-122.14859
2294 RALMAR AVE,EAST PALO ALTO,CA,94303,2294,RALMAR AVE,37.47015,-122.14805
6 ROBIN CT,EAST PALO ALTO,CA,94303,6,ROBIN CT,37.46943,-122.13871
10 ROBIN CT,EAST PALO ALTO,CA,94303,10,ROBIN CT,37.46943,-122.13853
14 ROBIN CT,EAST PALO ALTO,CA,94303,14,ROBIN CT,37.4697,-122.13854
428 RUNNYMEDE ST,PALO ALTO,CA,94303,428,RUNNYMEDE ST,37.46864,-122.14429
431 RUNNYMEDE ST,EAST PALO ALTO,CA,94303,431,RUNNYMEDE ST,37.46904,-122.14437
501 RUNNYMEDE ST,PALO ALTO,CA,94303,501,RUNNYMEDE ST,37.4688,-122.14349
504 RUNNYMEDE ST,EAST PALO ALTO,CA,94303,504,RUNNYMEDE ST,37.46844,-122.1432
505 RUNNYMEDE ST,EAST PALO ALTO,CA,94303,505,RUNNYMEDE ST,37.469,-122.14311
529 RUNNYMEDE ST,EAST PALO ALTO,CA,94303,529,RUNNYMEDE ST,37.46892,-122.14269
530 RUNNYMEDE ST,EAST PALO ALTO,CA,94303,530,RUNNYMEDE ST,37.46836,-122.14234
633 RUNNYMEDE ST,EAST PALO ALTO,CA,94303,633,RUNNYMEDE ST,37.46872,-122.14079
650 RUNNYMEDE ST,EAST PALO ALTO,CA,94303,650,RUNNYMEDE ST,37.46832,-122.14004
711 RUNNYMEDE ST,EAST PALO ALTO,CA,94303,711,RUNNYMEDE ST,37.46892,-122.13877
725 RUNNYMEDE ST,EAST PALO ALTO,CA,94303,725,RUNNYMEDE ST,37.46874,-122.13853
736 RUNNYMEDE ST,EAST PALO ALTO,CA,94303,736,RUNNYMEDE ST,37.4683,-122.13848
742 RUNNYMEDE ST,PALO ALTO,CA,94303,742,RUNNYMEDE ST,37.46834,-122.13789
750 RUNNYMEDE ST,EAST PALO ALTO,CA,94303,750,RUNNYMEDE ST,37.46836,-122.13772
755 RUNNYMEDE ST,EAST PALO ALTO,CA,94303,755,RUNNYMEDE ST,37.46871,-122.13817
758 RUNNYMEDE ST,EAST PALO ALTO,CA,94303,758,RUNNYMEDE ST,37.46835,-122.13755
766 RUNNYMEDE ST,EAST PALO ALTO,CA,94303,766,RUNNYMEDE ST,37.46836,-122.13738
774 RUNNYMEDE ST,EAST PALO ALTO,CA,94303,774,RUNNYMEDE ST,37.46836,-122.13722
782 RUNNYMEDE ST,EAST PALO ALTO,CA,94303,782,RUNNYMEDE ST,37.46837,-122.13705
785 RUNNYMEDE ST,EAST PALO ALTO,CA,94303,785,RUNNYMEDE ST,37.46883,-122.13773
800 RUNNYMEDE ST,EAST PALO ALTO,CA,94303,800,RUNNYMEDE ST,37.46836,-122.13688
855 RUNNYMEDE ST,EAST PALO ALTO,CA,94303,855,RUNNYMEDE ST,37.46884,-122.13606
865 RUNNYMEDE ST,PALO ALTO,CA,94303,865,RUNNYMEDE ST,37.46883,-122.1355
895 RUNNYMEDE ST,EAST PALO ALTO,CA,94303,895,RUNNYMEDE ST,37.46883,-122.13526
927 RUNNYMEDE ST,EAST PALO ALTO,CA,94303,927,RUNNYMEDE ST,37.46881,-122.13427
931 RUNNYMEDE ST,EAST PALO ALTO,CA,94303,931,RUNNYMEDE ST,37.46883,-122.13411
935 RUNNYMEDE ST,EAST PALO ALTO,CA,94303,935,RUNNYMEDE ST,37.46882,-122.13394
936 RUNNYMEDE ST,EAST PALO ALTO,CA,94303,936,RUNNYMEDE ST,37.46837,-122.13423
938 RUNNYMEDE ST,EAST PALO ALTO,CA,94303,938,RUNNYMEDE ST,37.468,-122.13391
939 RUNNYMEDE ST,EAST PALO ALTO,CA,94303,939,RUNNYMEDE ST,37.46882,-122.13377
942 RUNNYMEDE ST,EAST PALO ALTO,CA,94303,942,RUNNYMEDE ST,37.46839,-122.13394
945 RUNNYMEDE ST,EAST PALO ALTO,CA,94303,945,RUNNYMEDE ST,37.46881,-122.13359
962 RUNNYMEDE ST,EAST PALO ALTO,CA,94303,962,RUNNYMEDE ST,37.46814,-122.13344
971 RUNNYMEDE ST,EAST PALO ALTO,CA,94303,971,RUNNYMEDE ST,37.46885,-122.1331
987 RUNNYMEDE ST,PALO ALTO,CA,94303,987,RUNNYMEDE ST,37.46884,-122.13275
988 RUNNYMEDE ST,EAST PALO ALTO,CA,94303,988,RUNNYMEDE ST,37.46841,-122.1332
991 RUNNYMEDE ST,EAST PALO ALTO,CA,94303,991,RUNNYMEDE ST,37.46885,-122.13259
995 RUNNYMEDE ST,EAST PALO ALTO,CA,94303,995,RUNNYMEDE ST,37.46887,-122.13242
998 RUNNYMEDE ST,PALO ALTO,CA,94303,998,RUNNYMEDE ST,37.46818,-122.13238
1005 RUNNYMEDE ST,EAST PALO ALTO,CA,94303,1005,RUNNYMEDE ST,37.46884,-122.13222
1011 RUNNYMEDE ST,EAST PALO ALTO,CA,94303,1011,RUNNYMEDE ST,37.46883,-122.13199
1057 RUNNYMEDE ST,PALO ALTO,CA,94303,1057,RUNNYMEDE ST,37.46885,-122.13101
1067 RUNNYMEDE ST,EAST PALO ALTO,CA,94303,1067,RUNNYMEDE ST,37.46891,-122.13066
1080 RUNNYMEDE ST,EAST PALO ALTO,CA,94303,1080,RUNNYMEDE ST,37.46842,-122.13071
1123 RUNNYMEDE ST,EAST PALO ALTO,CA,94303,1123,RUNNYMEDE ST,37.46892,-122.1301
1125 RUNNYMEDE ST,EAST PALO ALTO,CA,94303,1125,RUNNYMEDE ST,37.46887,-122.12988
1171 RUNNYMEDE ST,EAST PALO ALTO,CA,94303,1171,RUNNYMEDE ST,37.46888,-122.12948
1191 RUNNYMEDE ST,EAST PALO ALTO,CA,94303,1191,RUNNYMEDE ST,37.46888,-122.12915
1196 RUNNYMEDE ST,EAST PALO ALTO,CA,94303,1196,RUNNYMEDE ST,37.46846,-122.12885
1249 RUNNYMEDE ST,EAST PALO ALTO,CA,94303,1249,RUNNYMEDE ST,37.4689,-122.12817
1261 RUNNYMEDE ST,EAST PALO ALTO,CA,94303,1261,RUNNYMEDE ST,37.46937,-122.12801
1265 RUNNYMEDE ST,EAST PALO ALTO,CA,94303,1265,RUNNYMEDE ST,37.46937,-122.12782
1275 RUNNYMEDE ST,EAST PALO ALTO,CA,94303,1275,RUNNYMEDE ST,37.46913,-122.12737
1019 RUTH CT,EAST PALO ALTO,CA,94303,1019,RUTH CT,37.46879,-122.1315
1031 RUTH CT,EAST PALO ALTO,CA,94303,1031,RUTH CT,37.46904,-122.13198
1035 RUTH CT,EAST PALO ALTO,CA,94303,1035,RUTH CT,37.46932,-122.13181
1037 RUTH CT,EAST PALO ALTO,CA,94303,1037,RUTH CT,37.46935,-122.13161
1045 RUTH CT,PALO ALTO,CA,94303,1045,RUTH CT,37.46918,-122.13119
1049 RUTH CT,PALO ALTO,CA,94303,1049,RUTH CT,37.46907,-122.13111
502 SACRAMENTO ST,EAST PALO ALTO,CA,94303,502,SACRAMENTO ST,37.46957,-122.14304
511 SACRAMENTO ST,EAST PALO ALTO,CA,94303,511,SACRAMENTO ST,37.46996,-122.14274
512 SACRAMENTO ST,EAST PALO ALTO,CA,94303,512,SACRAMENTO ST,37.46951,-122.14285
520 SACRAMENTO ST,EAST PALO ALTO,CA,94303,520,SACRAMENTO ST,37.46947,-122.14264
536 SACRAMENTO ST,EAST PALO ALTO,CA,94303,536,SACRAMENTO ST,37.46938,-122.14232
544 SACRAMENTO ST,EAST PALO ALTO,CA,94303,544,SACRAMENTO ST,37.46945,-122.14207
552 SACRAMENTO ST,EAST PALO ALTO,CA,94303,552,SACRAMENTO ST,37.46952,-122.14192
559 SACRAMENTO ST,EAST PALO ALTO,CA,94303,559,SACRAMENTO ST,37.46998,-122.14178
566 SACRAMENTO ST,EAST PALO ALTO,CA,94303,566,SACRAMENTO ST,37.46952,-122.14175
578 SACRAMENTO ST,EAST PALO ALTO,CA,94303,578,SACRAMENTO ST,37.46955,-122.14111
1107 SAGE ST,EAST PALO ALTO,CA,94303,1107,SAGE ST,37.4641,-122.1298
1108 SAGE ST,EAST PALO ALTO,CA,94303,1108,SAGE ST,37.46373,-122.1297
1112 SAGE ST,PALO ALTO,CA,94303,1112,SAGE ST,37.46374,-122.12949
1124 SAGE ST,EAST PALO ALTO,CA,94303,1124,SAGE ST,37.46379,-122.12901
1127 SAGE ST,PALO ALTO,CA,94303,1127,SAGE ST,37.46411,-122.12894
1131 SAGE ST,EAST PALO ALTO,CA,94303,1131,SAGE ST,37.46413,-122.12877
1143 SAGE ST,EAST PALO ALTO,CA,94303,1143,SAGE ST,37.46417,-122.12825
1147 SAGE ST,EAST PALO ALTO,CA,94303,1147,SAGE ST,37.46415,-122.12809
1148 SAGE ST,EAST PALO ALTO,CA,94303,1148,SAGE ST,37.46372,-122.12797
1151 SAGE ST,EAST PALO ALTO,CA,94303,1151,SAGE ST,37.46416,-122.1279
2100 SALAS CT,EAST PALO ALTO,CA,94303,2100,SALAS CT,37.46286,-122.13558
2105 SALAS CT,EAST PALO ALTO,CA,94303,2105,SALAS CT,37.46306,-122.13596
2120 SALAS CT,EAST PALO ALTO,CA,94303,2120,SALAS CT,37.46328,-122.13551
2130 SALAS CT,EAST PALO ALTO,CA,94303,2130,SALAS CT,37.46326,-122.13575
725 SCHEMBRI LN,PALO ALTO,CA,94303,725,SCHEMBRI LN,37.46711,-122.13882
735 SCHEMBRI LN,EAST PALO ALTO,CA,94303,735,SCHEMBRI LN,37.46716,-122.13845
765 SCHEMBRI LN,EAST PALO ALTO,CA,94303,765,SCHEMBRI LN,37.46714,-122.13809
781 SCHEMBRI LN,EAST PALO ALTO,CA,94303,781,SCHEMBRI LN,37.46716,-122.1376
790 SCHEMBRI LN,EAST PALO ALTO,CA,94303,790,SCHEMBRI LN,37.46673,-122.13736
825 SCHEMBRI LN,EAST PALO ALTO,CA,94303,825,SCHEMBRI LN,37.46713,-122.13668
828 SCHEMBRI LN,EAST PALO ALTO,CA,94303,828,SCHEMBRI LN,37.46675,-122.13676
830 SCHEMBRI LN,EAST PALO ALTO,CA,94303,830,SCHEMBRI LN,37.46677,-122.13654
835 SCHEMBRI LN,EAST PALO ALTO,CA,94303,835,SCHEMBRI LN,37.46722,-122.13647
845 SCHEMBRI LN,EAST PALO ALTO,CA,94303,845,SCHEMBRI LN,37.46723,-122.1363
850 SCHEMBRI LN,EAST PALO ALTO,CA,94303,850,SCHEMBRI LN,37.46677,-122.1362
855 SCHEMBRI LN,PALO ALTO,CA,94303,855,SCHEMBRI LN,37.46744,-122.13601
860 SCHEMBRI LN,PALO ALTO,CA,94303,860,SCHEMBRI LN,37.46677,-122.13603
865 SCHEMBRI LN,EAST PALO ALTO,CA,94303,865,SCHEMBRI LN,37.46744,-122.13595
870 SCHEMBRI LN,EAST PALO ALTO,CA,94303,870,SCHEMBRI LN,37.46678,-122.13586
875 SCHEMBRI LN,EAST PALO ALTO,CA,94303,875,SCHEMBRI LN,37.46722,-122.13573
885 SCHEMBRI LN,EAST PALO ALTO,CA,94303,885,SCHEMBRI LN,37.46723,-122.13555
890 SCHEMBRI LN,EAST PALO ALTO,CA,94303,890,SCHEMBRI LN,37.46679,-122.1354
895 SCHEMBRI LN,EAST PALO ALTO,CA,94303,895,SCHEMBRI LN,37.46732,-122.1354
3 SHOREBREEZE CT,EAST PALO ALTO,CA,94303,3,SHOREBREEZE CT,37.46481,-122.12839
9 SHOREBREEZE CT,EAST PALO ALTO,CA,94303,9,SHOREBREEZE CT,37.46479,-122.12872
12 SHOREBREEZE CT,EAST PALO ALTO,CA,94303,12,SHOREBREEZE CT,37.46456,-122.12875
15 SHOREBREEZE CT,EAST PALO ALTO,CA,94303,15,SHOREBREEZE CT,37.46439,-122.12873
18 SHOREBREEZE CT,EAST PALO ALTO,CA,94303,18,SHOREBREEZE CT,37.4644,-122.12851
21 SHOREBREEZE CT,EAST PALO ALTO,CA,94303,21,SHOREBREEZE CT,37.4644,-122.12833
22 SHOREBREEZE CT,EAST PALO ALTO,CA,94303,22,SHOREBREEZE CT,37.46441,-122.12812
23 SHOREBREEZE CT,EAST PALO ALTO,CA,94303,23,SHOREBREEZE CT,37.4644,-122.12796
30 SHOREBREEZE CT,EAST PALO ALTO,CA,94303,30,SHOREBREEZE CT,37.46441,-122.12779
33 SHOREBREEZE CT,EAST PALO ALTO,CA,94303,33,SHOREBREEZE CT,37.4644,-122.12757
39 SHOREBREEZE CT,EAST PALO ALTO,CA,94303,39,SHOREBREEZE CT,37.46475,-122.12756
53 SHOREBREEZE CT,EAST PALO ALTO,CA,94303,53,SHOREBREEZE CT,37.46476,-122.12798
6 SPARROW CT,EAST PALO ALTO,CA,94303,6,SPARROW CT,37.46264,-122.13388
10 SPARROW CT,EAST PALO ALTO,CA,94303,10,SPARROW CT,37.46281,-122.13407
12 SPARROW CT,EAST PALO ALTO,CA,94303,12,SPARROW CT,37.46307,-122.13406
1944 TATE ST,EAST PALO ALTO,CA,94303,1944,TATE ST,37.45797,-122.13251
887 TEA CT,EAST PALO ALTO,CA,94303,887,TEA CT,37.4648,-122.13549
891 TEA CT,EAST PALO ALTO,CA,94303,891,TEA CT,37.46512,-122.13554
895 TEA CT,EAST PALO ALTO,CA,94303,895,TEA CT,37.46541,-122.13532
2213 TERRA VILLA ST,EAST PALO ALTO,CA,94303,2213,TERRA VILLA ST,37.46554,-122.13138
2214 TERRA VILLA ST,EAST PALO ALTO,CA,94303,2214,TERRA VILLA ST,37.46555,-122.13084
2219 TERRA VILLA ST,EAST PALO ALTO,CA,94303,2219,TERRA VILLA ST,37.46569,-122.13138
2222 TERRA VILLA ST,EAST PALO ALTO,CA,94303,2222,TERRA VILLA ST,37.46582,-122.13085
2232 TERRA VILLA ST,EAST PALO ALTO,CA,94303,2232,TERRA VILLA ST,37.46611,-122.13085
2236 TERRA VILLA ST,EAST PALO ALTO,CA,94303,2236,TERRA VILLA ST,37.46626,-122.13084
2243 TERRA VILLA ST,PALO ALTO,CA,94303,2243,TERRA VILLA ST,37.46637,-122.13143
2258 TERRA VILLA ST,EAST PALO ALTO,CA,94303,2258,TERRA VILLA ST,37.4668,-122.13089
902 TINSLEY ST,EAST PALO ALTO,CA,94303,902,TINSLEY ST,37.45842,-122.13437
904 TINSLEY ST,EAST PALO ALTO,CA,94303,904,TINSLEY ST,37.45843,-122.13421
908 TINSLEY ST,EAST PALO ALTO,CA,94303,908,TINSLEY ST,37.45844,-122.1339
912 TINSLEY ST,EAST PALO ALTO,CA,94303,912,TINSLEY ST,37.45845,-122.1336
914 TINSLEY ST,EAST PALO ALTO,CA,94303,914,TINSLEY ST,37.45846,-122.13344
918 TINSLEY ST,EAST PALO ALTO,CA,94303,918,TINSLEY ST,37.45847,-122.13313
920 TINSLEY ST,EAST PALO ALTO,CA,94303,920,TINSLEY ST,37.45848,-122.13298
2279 TUSCANY CT,EAST PALO ALTO,CA,94303,2279,TUSCANY CT,37.46783,-122.13578
2285 TUSCANY CT,EAST PALO ALTO,CA,94303,2285,TUSCANY CT,37.46819,-122.13578
2289 TUSCANY CT,EAST PALO ALTO,CA,94303,2289,TUSCANY CT,37.46839,-122.13578
2172 UNIVERSITY AVE,EAST PALO ALTO,CA,94303,2172,UNIVERSITY AVE,37.46491,-122.1413
2178 UNIVERSITY AVE,EAST PALO ALTO,CA,94303,2178,UNIVERSITY AVE,37.46504,-122.14128
2201 UNIVERSITY AVE,EAST PALO ALTO,CA,94303,2201,UNIVERSITY AVE,37.46624,-122.14202
2220 UNIVERSITY AVE,EAST PALO ALTO,CA,94303,2220,UNIVERSITY AVE,37.46645,-122.14113
2242 UNIVERSITY AVE,EAST PALO ALTO,CA,94303,2242,UNIVERSITY AVE,37.46683,-122.14121
2247 UNIVERSITY AVE,PALO ALTO,CA,94303,2247,UNIVERSITY AVE,37.467,-122.14186
2248 UNIVERSITY AVE,EAST PALO ALTO,CA,94303,2248,UNIVERSITY AVE,37.46696,-122.14116
2252 UNIVERSITY AVE,PALO ALTO,CA,94303,2252,UNIVERSITY AVE,37.46709,-122.14112
2264 UNIVERSITY AVE,EAST PALO ALTO,CA,94303,2264,UNIVERSITY AVE,37.46724,-122.14117
2268 UNIVERSITY AVE,PALO ALTO,CA,94303,2268,UNIVERSITY AVE,37.46736,-122.14114
2272 UNIVERSITY AVE,EAST PALO ALTO,CA,94303,2272,UNIVERSITY AVE,37.4675,-122.14112
2274 UNIVERSITY AVE,EAST PALO ALTO,CA,94303,2274,UNIVERSITY AVE,37.46767,-122.14113
2276 UNIVERSITY AVE,EAST PALO ALTO,CA,94303,2276,UNIVERSITY AVE,37.46782,-122.14114
2279 UNIVERSITY AVE,EAST PALO ALTO,CA,94303,2279,UNIVERSITY AVE,37.46784,-122.14183
2280 UNIVERSITY AVE,EAST PALO ALTO,CA,94303,2280,UNIVERSITY AVE,37.46795,-122.14111
2281 UNIVERSITY AVE,EAST PALO ALTO,CA,94303,2281,UNIVERSITY AVE,37.46797,-122.14182
2284 UNIVERSITY AVE,EAST PALO ALTO,CA,94303,2284,UNIVERSITY AVE,37.46809,-122.14112
2300 UNIVERSITY AVE,EAST PALO ALTO,CA,94303,2300,UNIVERSITY AVE,37.4687,-122.141
2330 UNIVERSITY AVE,EAST PALO ALTO,CA,94303,2330,UNIVERSITY AVE,37.46902,-122.14071
2337 UNIVERSITY AVE,EAST PALO ALTO,CA,94303,2337,UNIVERSITY AVE,37.46928,-122.1413
2346 UNIVERSITY AVE,EAST PALO ALTO,CA,94303,2346,UNIVERSITY AVE,37.46921,-122.14062
2354 UNIVERSITY AVE,EAST PALO ALTO,CA,94303,2354,UNIVERSITY AVE,37.46936,-122.14051
2381 UNIVERSITY AVE,EAST PALO ALTO,CA,94303,2381,UNIVERSITY AVE,37.47107,-122.1401
1512 URSULA WAY,EAST PALO ALTO,CA,94303,1512,URSULA WAY,37.47287,-122.14251
1516 URSULA WAY,EAST PALO ALTO,CA,94303,1516,URSULA WAY,37.47288,-122.14232
1536 URSULA WAY,EAST PALO ALTO,CA,94303,1536,URSULA WAY,37.47297,-122.14119
1544 URSULA WAY,EAST PALO ALTO,CA,94303,1544,URSULA WAY,37.47301,-122.14102
1552 URSULA WAY,EAST PALO ALTO,CA,94303,1552,URSULA WAY,37.47303,-122.14085
1576 URSULA WAY,EAST PALO ALTO,CA,94303,1576,URSULA WAY,37.4731,-122.14033
1590 URSULA WAY,EAST PALO ALTO,CA,94303,1590,URSULA WAY,37.47311,-122.13994
24 VANCE LN,EAST PALO ALTO,CA,94303,24,VANCE LN,37.46432,-122.12942
103 VERBENA DR,EAST PALO ALTO,CA,94303,103,VERBENA DR,37.4538,-122.12732
104 VERBENA DR,EAST PALO ALTO,CA,94303,104,VERBENA DR,37.45407,-122.12694
107 VERBENA DR,EAST PALO ALTO,CA,94303,107,VERBENA DR,37.45388,-122.12745
111 VERBENA DR,EAST PALO ALTO,CA,94303,111,VERBENA DR,37.45395,-122.1276
115 VERBENA DR,EAST PALO ALTO,CA,94303,115,VERBENA DR,37.45405,-122.12774
123 VERBENA DR,EAST PALO ALTO,CA,94303,123,VERBENA DR,37.45421,-122.12802
124 VERBENA DR,EAST PALO ALTO,CA,94303,124,VERBENA DR,37.45454,-122.12773
127 VERBENA DR,EAST PALO ALTO,CA,94303,127,VERBENA DR,37.45429,-122.12816
131 VERBENA DR,EAST PALO ALTO,CA,94303,131,VERBENA DR,37.45437,-122.1283
135 VERBENA DR,EAST PALO ALTO,CA,94303,135,VERBENA DR,37.45444,-122.12845
136 VERBENA DR,EAST PALO ALTO,CA,94303,136,VERBENA DR,37.45479,-122.12814
139 VERBENA DR,EAST PALO ALTO,CA,94303,139,VERBENA DR,37.45454,-122.12857
140 VERBENA DR,EAST PALO ALTO,CA,94303,140,VERBENA DR,37.45486,-122.12829
143 VERBENA DR,EAST PALO ALTO,CA,94303,143,VERBENA DR,37.45462,-122.12871
144 VERBENA DR,EAST PALO ALTO,CA,94303,144,VERBENA DR,37.45496,-122.12842
147 VERBENA DR,EAST PALO ALTO,CA,94303,147,VERBENA DR,37.4547,-122.12885
148 VERBENA DR,EAST PALO ALTO,CA,94303,148,VERBENA DR,37.45503,-122.12856
156 VERBENA DR,EAST PALO ALTO,CA,94303,156,VERBENA DR,37.45529,-122.12873
159 VERBENA DR,PALO ALTO,CA,94303,159,VERBENA DR,37.45504,-122.1292
160 VERBENA DR,EAST PALO ALTO,CA,94303,160,VERBENA DR,37.45544,-122.12876
171 VERBENA DR,EAST PALO ALTO,CA,94303,171,VERBENA DR,37.45552,-122.12929
207 VERBENA DR,EAST PALO ALTO,CA,94303,207,VERBENA DR,37.45608,-122.12936
211 VERBENA DR,EAST PALO ALTO,CA,94303,211,VERBENA DR,37.45623,-122.12934
212 VERBENA DR,EAST PALO ALTO,CA,94303,212,VERBENA DR,37.45621,-122.12881
215 VERBENA DR,EAST PALO ALTO,CA,94303,215,VERBENA DR,37.45636,-122.12933
219 VERBENA DR,EAST PALO ALTO,CA,94303,219,VERBENA DR,37.45649,-122.12932
223 VERBENA DR,PALO ALTO,CA,94303,223,VERBENA DR,37.45663,-122.12935
227 VERBENA DR,EAST PALO ALTO,CA,94303,227,VERBENA DR,37.45677,-122.12934
231 VERBENA DR,EAST PALO ALTO,CA,94303,231,VERBENA DR,37.45691,-122.12933
235 VERBENA DR,EAST PALO ALTO,CA,94303,235,VERBENA DR,37.45704,-122.12934
236 VERBENA DR,EAST PALO ALTO,CA,94303,236,VERBENA DR,37.45716,-122.12884
243 VERBENA DR,EAST PALO ALTO,CA,94303,243,VERBENA DR,37.45733,-122.12933
244 VERBENA DR,EAST PALO ALTO,CA,94303,244,VERBENA DR,37.45743,-122.12872
247 VERBENA DR,EAST PALO ALTO,CA,94303,247,VERBENA DR,37.45748,-122.12927
248 VERBENA DR,EAST PALO ALTO,CA,94303,248,VERBENA DR,37.45755,-122.12861
252 VERBENA DR,EAST PALO ALTO,CA,94303,252,VERBENA DR,37.45767,-122.1285
255 VERBENA DR,EAST PALO ALTO,CA,94303,255,VERBENA DR,37.45774,-122.12913
256 VERBENA DR,EAST PALO ALTO,CA,94303,256,VERBENA DR,37.45778,-122.12839
259 VERBENA DR,EAST PALO ALTO,CA,94303,259,VERBENA DR,37.45785,-122.12899
260 VERBENA DR,EAST PALO ALTO,CA,94303,260,VERBENA DR,37.45788,-122.12827
263 VERBENA DR,EAST PALO ALTO,CA,94303,263,VERBENA DR,37.45795,-122.12886
264 VERBENA DR,EAST PALO ALTO,CA,94303,264,VERBENA DR,37.458,-122.12817
267 VERBENA DR,EAST PALO ALTO,CA,94303,267,VERBENA DR,37.45807,-122.12877
268 VERBENA DR,EAST PALO ALTO,CA,94303,268,VERBENA DR,37.45813,-122.12809
272 VERBENA DR,EAST PALO ALTO,CA,94303,272,VERBENA DR,37.45825,-122.12801
276 VERBENA DR,PALO ALTO,CA,94303,276,VERBENA DR,37.45838,-122.12793
279 VERBENA DR,EAST PALO ALTO,CA,94303,279,VERBENA DR,37.45843,-122.12849
280 VERBENA DR,EAST PALO ALTO,CA,94303,280,VERBENA DR,37.45856,-122.12785
283 VERBENA DR,PALO ALTO,CA,94303,283,VERBENA DR,37.45855,-122.1284
289 VERBENA DR,PALO ALTO,CA,94303,289,VERBENA DR,37.45872,-122.12826
1166 VERONICA CT,EAST PALO ALTO,CA,94303,1166,VERONICA CT,37.46823,-122.12919
1178 VERONICA CT,EAST PALO ALTO,CA,94303,1178,VERONICA CT,37.46761,-122.12928
1182 VERONICA CT,EAST PALO ALTO,CA,94303,1182,VERONICA CT,37.46763,-122.12913
1184 VERONICA CT,EAST PALO ALTO,CA,94303,1184,VERONICA CT,37.46762,-122.12898
1190 VERONICA CT,EAST PALO ALTO,CA,94303,1190,VERONICA CT,37.46798,-122.12882
1192 VERONICA CT,EAST PALO ALTO,CA,94303,1192,VERONICA CT,37.46821,-122.12883
2305 VINES CT,EAST PALO ALTO,CA,94303,2305,VINES CT,37.46923,-122.1358
2309 VINES CT,EAST PALO ALTO,CA,94303,2309,VINES CT,37.46922,-122.13563
2313 VINES CT,EAST PALO ALTO,CA,94303,2313,VINES CT,37.46921,-122.13546
310 WEEKS ST,EAST PALO ALTO,CA,94303,310,WEEKS ST,37.47007,-122.14546
321 WEEKS ST,EAST PALO ALTO,CA,94303,321,WEEKS ST,37.47038,-122.14522
330 WEEKS ST,EAST PALO ALTO,CA,94303,330,WEEKS ST,37.47005,-122.1451
351 WEEKS ST,EAST PALO ALTO,CA,94303,351,WEEKS ST,37.47029,-122.14466
500 WEEKS ST,EAST PALO ALTO,CA,94303,500,WEEKS ST,37.47049,-122.14284
528 WEEKS ST,EAST PALO ALTO,CA,94303,528,WEEKS ST,37.47047,-122.14224
534 WEEKS ST,EAST PALO ALTO,CA,94303,534,WEEKS ST,37.47042,-122.14207
542 WEEKS ST,EAST PALO ALTO,CA,94303,542,WEEKS ST,37.47042,-122.14188
548 WEEKS ST,PALO ALTO,CA,94303,548,WEEKS ST,37.47047,-122.14169
556 WEEKS ST,EAST PALO ALTO,CA,94303,556,WEEKS ST,37.47046,-122.14152
564 WEEKS ST,EAST PALO ALTO,CA,94303,564,WEEKS ST,37.47047,-122.14135
566 WEEKS ST,PALO ALTO,CA,94303,566,WEEKS ST,37.47044,-122.14117
593 WEEKS ST,EAST PALO ALTO,CA,94303,593,WEEKS ST,37.4708,-122.14053
736 WEEKS ST,PALO ALTO,CA,94303,736,WEEKS ST,37.46991,-122.13883
740 WEEKS ST,PALO ALTO,CA,94303,740,WEEKS ST,37.4699,-122.13855
778 WEEKS ST,EAST PALO ALTO,CA,94303,778,WEEKS ST,37.46995,-122.13807
792 WEEKS ST,EAST PALO ALTO,CA,94303,792,WEEKS ST,37.4695,-122.13768
800 WEEKS ST,EAST PALO ALTO,CA,94303,800,WEEKS ST,37.46953,-122.13732
801 WEEKS ST,EAST PALO ALTO,CA,94303,801,WEEKS ST,37.47029,-122.13733
818 WEEKS ST,EAST PALO ALTO,CA,94303,818,WEEKS ST,37.4699,-122.13684
820 WEEKS ST,EAST PALO ALTO,CA,94303,820,WEEKS ST,37.46992,-122.13665
828 WEEKS ST,PALO ALTO,CA,94303,828,WEEKS ST,37.4696,-122.13673
860 WEEKS ST,EAST PALO ALTO,CA,94303,860,WEEKS ST,37.46968,-122.13586
865 WEEKS ST,EAST PALO ALTO,CA,94303,865,WEEKS ST,37.47062,-122.13584
867 WEEKS ST,EAST PALO ALTO,CA,94303,867,WEEKS ST,37.47063,-122.13553
871 WEEKS ST,PALO ALTO,CA,94303,871,WEEKS ST,37.47034,-122.13552
880 WEEKS ST,EAST PALO ALTO,CA,94303,880,WEEKS ST,37.4699,-122.13559
884 WEEKS ST,EAST PALO ALTO,CA,94303,884,WEEKS ST,37.46995,-122.13528
888 WEEKS ST,EAST PALO ALTO,CA,94303,888,WEEKS ST,37.46994,-122.13545
891 WEEKS ST,EAST PALO ALTO,CA,94303,891,WEEKS ST,37.4704,-122.13518
920 WEEKS ST,EAST PALO ALTO,CA,94303,920,WEEKS ST,37.46983,-122.13409
930 WEEKS ST,EAST PALO ALTO,CA,94303,930,WEEKS ST,37.47002,-122.13371
950 WEEKS ST,EAST PALO ALTO,CA,94303,950,WEEKS ST,37.46998,-122.13359
960 WEEKS ST,EAST PALO ALTO,CA,94303,960,WEEKS ST,37.47,-122.13352
970 WEEKS ST,EAST PALO ALTO,CA,94303,970,WEEKS ST,37.47001,-122.13315
974 WEEKS ST,EAST PALO ALTO,CA,94303,974,WEEKS ST,37.46997,-122.13271
1020 WEEKS ST,EAST PALO ALTO,CA,94303,1020,WEEKS ST,37.46982,-122.1325
1050 WEEKS ST,EAST PALO ALTO,CA,94303,1050,WEEKS ST,37.47005,-122.13205
1052 WEEKS ST,EAST PALO ALTO,CA,94303,1052,WEEKS ST,37.47006,-122.13194
1054 WEEKS ST,EAST PALO ALTO,CA,94303,1054,WEEKS ST,37.47006,-122.13183
1056 WEEKS ST,EAST PALO ALTO,CA,94303,1056,WEEKS ST,37.47006,-122.13172
1060 WEEKS ST,EAST PALO ALTO,CA,94303,1060,WEEKS ST,37.47007,-122.13135
1062 WEEKS ST,EAST PALO ALTO,CA,94303,1062,WEEKS ST,37.47007,-122.13123
1064 WEEKS ST,EAST PALO ALTO,CA,94303,1064,WEEKS ST,37.47007,-122.13112
1066 WEEKS ST,EAST PALO ALTO,CA,94303,1066,WEEKS ST,37.47007,-122.13102
1068 WEEKS ST,EAST PALO ALTO,CA,94303,1068,WEEKS ST,37.47008,-122.13091
1088 WEEKS ST,EAST PALO ALTO,CA,94303,1088,WEEKS ST,37.47006,-122.13076
1090 WEEKS ST,EAST PALO ALTO,CA,94303,1090,WEEKS ST,37.46999,-122.13052
1120 WEEKS ST,EAST PALO ALTO,CA,94303,1120,WEEKS ST,37.47007,-122.12974
1160 WEEKS ST,EAST PALO ALTO,CA,94303,1160,WEEKS ST,37.46961,-122.12938
1164 WEEKS ST,EAST PALO ALTO,CA,94303,1164,WEEKS ST,37.46962,-122.12975
1166 WEEKS ST,EAST PALO ALTO,CA,94303,1166,WEEKS ST,37.46984,-122.12967
909 WILKS ST,EAST PALO ALTO,CA,94303,909,WILKS ST,37.45992,-122.13246
911 WILKS ST,EAST PALO ALTO,CA,94303,911,WILKS ST,37.45993,-122.1323
913 WILKS ST,EAST PALO ALTO,CA,94303,913,WILKS ST,37.45993,-122.13215
917 WILKS ST,EAST PALO ALTO,CA,94303,917,WILKS ST,37.45995,-122.13184
921 WILKS ST,EAST PALO ALTO,CA,94303,921,WILKS ST,37.45995,-122.13152
923 WILKS ST,EAST PALO ALTO,CA,94303,923,WILKS ST,37.45995,-122.13137
924 WILKS ST,EAST PALO ALTO,CA,94303,924,WILKS ST,37.45965,-122.13137
926 WILKS ST,EAST PALO ALTO,CA,94303,926,WILKS ST,37.45966,-122.13121
927 WILKS ST,EAST PALO ALTO,CA,94303,927,WILKS ST,37.45997,-122.13105
928 WILKS ST,EAST PALO ALTO,CA,94303,928,WILKS ST,37.45966,-122.13106
929 WILKS ST,EAST PALO ALTO,CA,94303,929,WILKS ST,37.45997,-122.1309
932 WILKS ST,EAST PALO ALTO,CA,94303,932,WILKS ST,37.45967,-122.13075
934 WILKS ST,EAST PALO ALTO,CA,94303,934,WILKS ST,37.45968,-122.13059
936 WILKS ST,EAST PALO ALTO,CA,94303,936,WILKS ST,37.45968,-122.13044
938 WILKS ST,EAST PALO ALTO,CA,94303,938,WILKS ST,37.45969,-122.13028
107 WISTERIA DR,EAST PALO ALTO,CA,94303,107,WISTERIA DR,37.45384,-122.12416
108 WISTERIA DR,EAST PALO ALTO,CA,94303,108,WISTERIA DR,37.45406,-122.12373
111 WISTERIA DR,EAST PALO ALTO,CA,94303,111,WISTERIA DR,37.45398,-122.1242
112 WISTERIA DR,EAST PALO ALTO,CA,94303,112,WISTERIA DR,37.45419,-122.12376
119 WISTERIA DR,EAST PALO ALTO,CA,94303,119,WISTERIA DR,37.45424,-122.12429
124 WISTERIA DR,EAST PALO ALTO,CA,94303,124,WISTERIA DR,37.45459,-122.12386
132 WISTERIA DR,EAST PALO ALTO,CA,94303,132,WISTERIA DR,37.45487,-122.12396
135 WISTERIA DR,EAST PALO ALTO,CA,94303,135,WISTERIA DR,37.45479,-122.12442
136 WISTERIA DR,EAST PALO ALTO,CA,94303,136,WISTERIA DR,37.45499,-122.12397
148 WISTERIA DR,EAST PALO ALTO,CA,94303,148,WISTERIA DR,37.4554,-122.1241
155 WISTERIA DR,EAST PALO ALTO,CA,94303,155,WISTERIA DR,37.45554,-122.12459
156 WISTERIA DR,EAST PALO ALTO,CA,94303,156,WISTERIA DR,37.45567,-122.12418
167 WISTERIA DR,EAST PALO ALTO,CA,94303,167,WISTERIA DR,37.45591,-122.12479
168 WISTERIA DR,EAST PALO ALTO,CA,94303,168,WISTERIA DR,37.45606,-122.12434
171 WISTERIA DR,EAST PALO ALTO,CA,94303,171,WISTERIA DR,37.45606,-122.12488
172 WISTERIA DR,EAST PALO ALTO,CA,94303,172,WISTERIA DR,37.45619,-122.12439
175 WISTERIA DR,EAST PALO ALTO,CA,94303,175,WISTERIA DR,37.45621,-122.12501
176 WISTERIA DR,EAST PALO ALTO,CA,94303,176,WISTERIA DR,37.45631,-122.12452
191 WISTERIA DR,PALO ALTO,CA,94303,191,WISTERIA DR,37.45678,-122.12524
204 WISTERIA DR,EAST PALO ALTO,CA,94303,204,WISTERIA DR,37.45733,-122.12483
207 WISTERIA DR,EAST PALO ALTO,CA,94303,207,WISTERIA DR,37.45739,-122.12527
208 WISTERIA DR,EAST PALO ALTO,CA,94303,208,WISTERIA DR,37.45759,-122.12477
219 WISTERIA DR,PALO ALTO,CA,94303,219,WISTERIA DR,37.45781,-122.12528
223 WISTERIA DR,EAST PALO ALTO,CA,94303,223,WISTERIA DR,37.45793,-122.12538
227 WISTERIA DR,EAST PALO ALTO,CA,94303,227,WISTERIA DR,37.45805,-122.12549
235 WISTERIA DR,EAST PALO ALTO,CA,94303,235,WISTERIA DR,37.45826,-122.12572
236 WISTERIA DR,EAST PALO ALTO,CA,94303,236,WISTERIA DR,37.45855,-122.12536
240 WISTERIA DR,EAST PALO ALTO,CA,94303,240,WISTERIA DR,37.45865,-122.12548
243 WISTERIA DR,EAST PALO ALTO,CA,94303,243,WISTERIA DR,37.45847,-122.12594
244 WISTERIA DR,EAST PALO ALTO,CA,94303,244,WISTERIA DR,37.45875,-122.12559
247 WISTERIA DR,EAST PALO ALTO,CA,94303,247,WISTERIA DR,37.45857,-122.12606
248 WISTERIA DR,EAST PALO ALTO,CA,94303,248,WISTERIA DR,37.45886,-122.1257
255 WISTERIA DR,EAST PALO ALTO,CA,94303,255,WISTERIA DR,37.45873,-122.12634
259 WISTERIA DR,EAST PALO ALTO,CA,94303,259,WISTERIA DR,37.4588,-122.1265
263 WISTERIA DR,PALO ALTO,CA,94303,263,WISTERIA DR,37.45887,-122.12664
267 WISTERIA DR,PALO ALTO,CA,94303,267,WISTERIA DR,37.45891,-122.12681
268 WISTERIA DR,PALO ALTO,CA,94303,268,WISTERIA DR,37.45927,-122.12654
307 WISTERIA DR,PALO ALTO,CA,94303,307,WISTERIA DR,37.45917,-122.12749
311 WISTERIA DR,EAST PALO ALTO,CA,94303,311,WISTERIA DR,37.45925,-122.12764
312 WISTERIA DR,EAST PALO ALTO,CA,94303,312,WISTERIA DR,37.45963,-122.12745
315 WISTERIA DR,EAST PALO ALTO,CA,94303,315,WISTERIA DR,37.45931,-122.1278
319 WISTERIA DR,EAST PALO ALTO,CA,94303,319,WISTERIA DR,37.45937,-122.12795
323 WISTERIA DR,PALO ALTO,CA,94303,323,WISTERIA DR,37.45944,-122.12812
324 WISTERIA DR,EAST PALO ALTO,CA,94303,324,WISTERIA DR,37.45974,-122.12779
327 WISTERIA DR,EAST PALO ALTO,CA,94303,327,WISTERIA DR,37.45954,-122.12828
331 WISTERIA DR,EAST PALO ALTO,CA,94303,331,WISTERIA DR,37.45967,-122.12839
335 WISTERIA DR,EAST PALO ALTO,CA,94303,335,WISTERIA DR,37.4598,-122.12849
336 WISTERIA DR,PALO ALTO,CA,94303,336,WISTERIA DR,37.45997,-122.128
343 WISTERIA DR,PALO ALTO,CA,94303,343,WISTERIA DR,37.4601,-122.12856
347 WISTERIA DR,EAST PALO ALTO,CA,94303,347,WISTERIA DR,37.46025,-122.12856
348 WISTERIA DR,EAST PALO ALTO,CA,94303,348,WISTERIA DR,37.46026,-122.12807
351 WISTERIA DR,EAST PALO ALTO,CA,94303,351,WISTERIA DR,37.46039,-122.12859
352 WISTERIA DR,EAST PALO ALTO,CA,94303,352,WISTERIA DR,37.4604,-122.12807
355 WISTERIA DR,EAST PALO ALTO,CA,94303,355,WISTERIA DR,37.46053,-122.12858
356 WISTERIA DR,EAST PALO ALTO,CA,94303,356,WISTERIA DR,37.46054,-122.12808
359 WISTERIA DR,EAST PALO ALTO,CA,94303,359,WISTERIA DR,37.46066,-122.1286
360 WISTERIA DR,EAST PALO ALTO,CA,94303,360,WISTERIA DR,37.46068,-122.12806
404 WISTERIA DR,EAST PALO ALTO,CA,94303,404,WISTERIA DR,37.46115,-122.12811
407 WISTERIA DR,PALO ALTO,CA,94303,407,WISTERIA DR,37.46128,-122.12859
408 WISTERIA DR,EAST PALO ALTO,CA,94303,408,WISTERIA DR,37.4615,-122.1281
412 WISTERIA DR,EAST PALO ALTO,CA,94303,412,WISTERIA DR,37.46163,-122.1281
419 WISTERIA DR,EAST PALO ALTO,CA,94303,419,WISTERIA DR,37.46169,-122.1286
423 WISTERIA DR,EAST PALO ALTO,CA,94303,423,WISTERIA DR,37.46183,-122.1286
424 WISTERIA DR,EAST PALO ALTO,CA,94303,424,WISTERIA DR,37.46204,-122.1281
428 WISTERIA DR,PALO ALTO,CA,94303,428,WISTERIA DR,37.46218,-122.12812
432 WISTERIA DR,EAST PALO ALTO,CA,94303,432,WISTERIA DR,37.46232,-122.12813
435 WISTERIA DR,EAST PALO ALTO,CA,94303,435,WISTERIA DR,37.46224,-122.12861
436 WISTERIA DR,EAST PALO ALTO,CA,94303,436,WISTERIA DR,37.46246,-122.12813
439 WISTERIA DR,EAST PALO ALTO,CA,94303,439,WISTERIA DR,37.46238,-122.12864
440 WISTERIA DR,EAST PALO ALTO,CA,94303,440,WISTERIA DR,37.4626,-122.12812
443 WISTERIA DR,EAST PALO ALTO,CA,94303,443,WISTERIA DR,37.46252,-122.12865
444 WISTERIA DR,EAST PALO ALTO,CA,94303,444,WISTERIA DR,37.46273,-122.12814
447 WISTERIA DR,EAST PALO ALTO,CA,94303,447,WISTERIA DR,37.46266,-122.12864
448 WISTERIA DR,EAST PALO ALTO,CA,94303,448,WISTERIA DR,37.46273,-122.12814
451 WISTERIA DR,EAST PALO ALTO,CA,94303,451,WISTERIA DR,37.46279,-122.12863
452 WISTERIA DR,EAST PALO ALTO,CA,94303,452,WISTERIA DR,37.46287,-122.12814
455 WISTERIA DR,EAST PALO ALTO,CA,94303,455,WISTERIA DR,37.46293,-122.12864
456 WISTERIA DR,EAST PALO ALTO,CA,94303,456,WISTERIA DR,37.46301,-122.12815
459 WISTERIA DR,EAST PALO ALTO,CA,94303,459,WISTERIA DR,37.46307,-122.12864
460 WISTERIA DR,EAST PALO ALTO,CA,94303,460,WISTERIA DR,37.46314,-122.12815
463 WISTERIA DR,EAST PALO ALTO,CA,94303,463,WISTERIA DR,37.4632,-122.12865
464 WISTERIA DR,EAST PALO ALTO,CA,94303,464,WISTERIA DR,37.46328,-122.12815
471 WISTERIA DR,EAST PALO ALTO,CA,94303,471,WISTERIA DR,37.46348,-122.12865
472 WISTERIA DR,EAST PALO ALTO,CA,94303,472,WISTERIA DR,37.46356,-122.12814
475 WISTERIA DR,EAST PALO ALTO,CA,94303,475,WISTERIA DR,37.46361,-122.12867
476 WISTERIA DR,EAST PALO ALTO,CA,94303,476,WISTERIA DR,37.46374,-122.1282
479 WISTERIA DR,PALO ALTO,CA,94303,479,WISTERIA DR,37.46374,-122.12868
1103 WOODLAND AVE,MENLO PARK,CA,94025,1103,WOODLAND AVE,37.45818,-122.15254
1109 WOODLAND AVE,MENLO PARK,CA,94025,1109,WOODLAND AVE,37.45832,-122.15222
1111 WOODLAND AVE,MENLO PARK,CA,94025,1111,WOODLAND AVE,37.45832,-122.15222
1117 WOODLAND AVE,MENLO PARK,CA,94025,1117,WOODLAND AVE,37.45823,-122.15211
1141 WOODLAND AVE,MENLO PARK,CA,94025,1141,WOODLAND AVE,37.45812,-122.15186
1143 WOODLAND AVE,MENLO PARK,CA,94025,1143,WOODLAND AVE,37.45822,-122.15154
1163 WOODLAND AVE,MENLO PARK,CA,94025,1163,WOODLAND AVE,37.45792,-122.15171
1200 WOODLAND AVE,MENLO PARK,CA,94025,1200,WOODLAND AVE,37.4575,-122.15178
1205 WOODLAND AVE,MENLO PARK,CA,94025,1205,WOODLAND AVE,37.45781,-122.15134
1215 WOODLAND AVE,MENLO PARK,CA,94025,1215,WOODLAND AVE,37.45812,-122.15124
1231 WOODLAND AVE,MENLO PARK,CA,94025,1231,WOODLAND AVE,37.45775,-122.15099
1273 WOODLAND AVE,MENLO PARK,CA,94025,1273,WOODLAND AVE,37.45815,-122.15066
1275 WOODLAND AVE,MENLO PARK,CA,94025,1275,WOODLAND AVE,37.45779,-122.15068
1277 WOODLAND AVE,MENLO PARK,CA,94025,1277,WOODLAND AVE,37.4577,-122.15043
1281 WOODLAND AVE,MENLO PARK,CA,94025,1281,WOODLAND AVE,37.45805,-122.15036
1285 WOODLAND AVE,MENLO PARK,CA,94025,1285,WOODLAND AVE,37.45758,-122.15013
1289 WOODLAND AVE,MENLO PARK,CA,94025,1289,WOODLAND AVE,37.45795,-122.15002
1293 WOODLAND AVE,MENLO PARK,CA,94025,1293,WOODLAND AVE,37.4576,-122.14979
1321 WOODLAND AVE,MENLO PARK,CA,94025,1321,WOODLAND AVE,37.45761,-122.14944
1357 WOODLAND AVE,MENLO PARK,CA,94025,1357,WOODLAND AVE,37.45759,-122.14883
1359 WOODLAND AVE,MENLO PARK,CA,94025,1359,WOODLAND AVE,37.45782,-122.14871
1391 WOODLAND AVE,MENLO PARK,CA,94025,1391,WOODLAND AVE,37.45753,-122.14808
1395 WOODLAND AVE,MENLO PARK,CA,94025,1395,WOODLAND AVE,37.45733,-122.14781
1397 WOODLAND AVE,MENLO PARK,CA,94025,1397,WOODLAND AVE,37.45709,-122.14763
1399 WOODLAND AVE,MENLO PARK,CA,94025,1399,WOODLAND AVE,37.45706,-122.14742
1409 WOODLAND AVE,MENLO PARK,CA,94025,1409,WOODLAND AVE,37.45706,-122.14682
1435 WOODLAND AVE,MENLO PARK,CA,94025,1435,WOODLAND AVE,37.45716,-122.14654
1455 WOODLAND AVE,MENLO PARK,CA,94025,1455,WOODLAND AVE,37.45732,-122.14655
1475 WOODLAND AVE,MENLO PARK,CA,94025,1475,WOODLAND AVE,37.45758,-122.1466
1477 WOODLAND AVE,MENLO PARK,CA,94025,1477,WOODLAND AVE,37.45776,-122.14691
1485 WOODLAND AVE,MENLO PARK,CA,94025,1485,WOODLAND AVE,37.45795,-122.14646
1489 WOODLAND AVE,MENLO PARK,CA,94025,1489,WOODLAND AVE,37.45812,-122.14636
1495 WOODLAND AVE,MENLO PARK,CA,94025,1495,WOODLAND AVE,37.45857,-122.14538
1501 WOODLAND AVE,EAST PALO ALTO,CA,94303,1501,WOODLAND AVE,37.4587,-122.14472
1621 WOODLAND AVE,EAST PALO ALTO,CA,94303,1621,WOODLAND AVE,37.45724,-122.14035
1637 WOODLAND AVE,EAST PALO ALTO,CA,94303,1637,WOODLAND AVE,37.45686,-122.14021
